{"type": "FeatureCollection", "features": [{"type": "Feature", "geometry": {"type": "Point", "coordinates": [-32.402737, -3.8339]}, "properties": {"grau": 1}}, {"type": "Feature", "geometry": {"type": "Point", "coordinates": [-32.399778, -3.834346]}, "properties": {"grau": 5}}, {"type": "Feature", "geometry": {"type": "Point", "coordinates": [-32.429541, -3.849279]}, "properties": {"grau": 1}}, {"type": "Feature", "geometry": {"type": "Point", "coordinates": [-32.429223, -3.850044]}, "properties": {"grau": 1}}, {"type": "Feature", "geometry": {"type": "Point", "coordinates": [-32.431686, -3.848789]}, "properties": {"grau": 3}}, {"type": "Feature", "geometry": {"type": "Point", "coordinates": [-32.434458, -3.852504]}, "properties": {"grau": 3}}, {"type": "Feature", "geometry": {"type": "Point", "coordinates": [-32.439833, -3.856758]}, "properties": {"grau": 2}}, {"type": "Feature", "geometry": {"type": "Point", "coordinates": [-32.447412, -3.866015]}, "properties": {"grau": 2}}, {"type": "Feature", "geometry": {"type": "Point", "coordinates": [-32.431767, -3.868116]}, "properties": {"grau": 1}}, {"type": "Feature", "geometry": {"type": "Point", "coordinates": [-32.429003, -3.867597]}, "properties": {"grau": 2}}, {"type": "Feature", "geometry": {"type": "Point", "coordinates": [-32.421509, -3.857578]}, "properties": {"grau": 1}}, {"type": "Feature", "geometry": {"type": "Point", "coordinates": [-32.420916, -3.859134]}, "properties": {"grau": 1}}, {"type": "Feature", "geometry": {"type": "Point", "coordinates": [-32.422712, -3.859155]}, "properties": {"grau": 3}}, {"type": "Feature", "geometry": {"type": "Point", "coordinates": [-32.425796, -3.856422]}, "properties": {"grau": 2}}, {"type": "Feature", "geometry": {"type": "Point", "coordinates": [-32.438747, -3.850846]}, "properties": {"grau": 3}}, {"type": "Feature", "geometry": {"type": "Point", "coordinates": [-32.401416, -3.847385]}, "properties": {"grau": 1}}, {"type": "Feature", "geometry": {"type": "Point", "coordinates": [-32.403822, -3.847711]}, "properties": {"grau": 2}}, {"type": "Feature", "geometry": {"type": "Point", "coordinates": [-32.411768, -3.840684]}, "properties": {"grau": 2}}, {"type": "Feature", "geometry": {"type": "Point", "coordinates": [-32.416893, -3.843365]}, "properties": {"grau": 3}}, {"type": "Feature", "geometry": {"type": "Point", "coordinates": [-32.432197, -3.853032]}, "properties": {"grau": 1}}, {"type": "Feature", "geometry": {"type": "Point", "coordinates": [-32.433107, -3.851466]}, "properties": {"grau": 2}}, {"type": "Feature", "geometry": {"type": "Point", "coordinates": [-32.426552, -3.844973]}, "properties": {"grau": 1}}, {"type": "Feature", "geometry": {"type": "Point", "coordinates": [-32.429028, -3.846332]}, "properties": {"grau": 3}}, {"type": "Feature", "geometry": {"type": "Point", "coordinates": [-32.429119, -3.869219]}, "properties": {"grau": 1}}, {"type": "Feature", "geometry": {"type": "Point", "coordinates": [-32.433319, -3.869701]}, "properties": {"grau": 2}}, {"type": "Feature", "geometry": {"type": "Point", "coordinates": [-32.425305, -3.87491]}, "properties": {"grau": 2}}, {"type": "Feature", "geometry": {"type": "Point", "coordinates": [-32.427022, -3.87089]}, "properties": {"grau": 3}}, {"type": "Feature", "geometry": {"type": "Point", "coordinates": [-32.432158, -3.85453]}, "properties": {"grau": 1}}, {"type": "Feature", "geometry": {"type": "Point", "coordinates": [-32.439807, -3.855264]}, "properties": {"grau": 2}}, {"type": "Feature", "geometry": {"type": "Point", "coordinates": [-32.414275, -3.840735]}, "properties": {"grau": 1}}, {"type": "Feature", "geometry": {"type": "Point", "coordinates": [-32.414699, -3.839719]}, "properties": {"grau": 3}}, {"type": "Feature", "geometry": {"type": "Point", "coordinates": [-32.406604, -3.84054]}, "properties": {"grau": 1}}, {"type": "Feature", "geometry": {"type": "Point", "coordinates": [-32.405538, -3.841394]}, "properties": {"grau": 1}}, {"type": "Feature", "geometry": {"type": "Point", "coordinates": [-32.405354, -3.841657]}, "properties": {"grau": 1}}, {"type": "Feature", "geometry": {"type": "Point", "coordinates": [-32.40567, -3.841276]}, "properties": {"grau": 1}}, {"type": "Feature", "geometry": {"type": "Point", "coordinates": [-32.40162, -3.838542]}, "properties": {"grau": 1}}, {"type": "Feature", "geometry": {"type": "Point", "coordinates": [-32.405079, -3.843525]}, "properties": {"grau": 2}}, {"type": "Feature", "geometry": {"type": "Point", "coordinates": [-32.428104, -3.84983]}, "properties": {"grau": 3}}, {"type": "Feature", "geometry": {"type": "Point", "coordinates": [-32.431364, -3.848935]}, "properties": {"grau": 2}}, {"type": "Feature", "geometry": {"type": "Point", "coordinates": [-32.439921, -3.855043]}, "properties": {"grau": 4}}, {"type": "Feature", "geometry": {"type": "Point", "coordinates": [-32.442294, -3.854416]}, "properties": {"grau": 3}}, {"type": "Feature", "geometry": {"type": "Point", "coordinates": [-32.42293, -3.858825]}, "properties": {"grau": 1}}, {"type": "Feature", "geometry": {"type": "Point", "coordinates": [-32.42247, -3.85886]}, "properties": {"grau": 1}}, {"type": "Feature", "geometry": {"type": "Point", "coordinates": [-32.428356, -3.856814]}, "properties": {"grau": 1}}, {"type": "Feature", "geometry": {"type": "Point", "coordinates": [-32.428679, -3.856788]}, "properties": {"grau": 1}}, {"type": "Feature", "geometry": {"type": "Point", "coordinates": [-32.427573, -3.856851]}, "properties": {"grau": 2}}, {"type": "Feature", "geometry": {"type": "Point", "coordinates": [-32.428588, -3.856801]}, "properties": {"grau": 3}}, {"type": "Feature", "geometry": {"type": "Point", "coordinates": [-32.426941, -3.857096]}, "properties": {"grau": 3}}, {"type": "Feature", "geometry": {"type": "Point", "coordinates": [-32.426348, -3.856383]}, "properties": {"grau": 3}}, {"type": "Feature", "geometry": {"type": "Point", "coordinates": [-32.427107, -3.860069]}, "properties": {"grau": 3}}, {"type": "Feature", "geometry": {"type": "Point", "coordinates": [-32.427997, -3.86093]}, "properties": {"grau": 3}}, {"type": "Feature", "geometry": {"type": "Point", "coordinates": [-32.42707, -3.860138]}, "properties": {"grau": 1}}, {"type": "Feature", "geometry": {"type": "Point", "coordinates": [-32.427634, -3.858395]}, "properties": {"grau": 3}}, {"type": "Feature", "geometry": {"type": "Point", "coordinates": [-32.427233, -3.859453]}, "properties": {"grau": 1}}, {"type": "Feature", "geometry": {"type": "Point", "coordinates": [-32.427005, -3.85933]}, "properties": {"grau": 1}}, {"type": "Feature", "geometry": {"type": "Point", "coordinates": [-32.426944, -3.859968]}, "properties": {"grau": 1}}, {"type": "Feature", "geometry": {"type": "Point", "coordinates": [-32.426728, -3.859847]}, "properties": {"grau": 1}}, {"type": "Feature", "geometry": {"type": "Point", "coordinates": [-32.428896, -3.858951]}, "properties": {"grau": 1}}, {"type": "Feature", "geometry": {"type": "Point", "coordinates": [-32.428233, -3.859264]}, "properties": {"grau": 1}}, {"type": "Feature", "geometry": {"type": "Point", "coordinates": [-32.427299, -3.858777]}, "properties": {"grau": 1}}, {"type": "Feature", "geometry": {"type": "Point", "coordinates": [-32.427789, -3.858132]}, "properties": {"grau": 3}}, {"type": "Feature", "geometry": {"type": "Point", "coordinates": [-32.428472, -3.856807]}, "properties": {"grau": 1}}, {"type": "Feature", "geometry": {"type": "Point", "coordinates": [-32.423233, -3.863182]}, "properties": {"grau": 1}}, {"type": "Feature", "geometry": {"type": "Point", "coordinates": [-32.423294, -3.862781]}, "properties": {"grau": 1}}, {"type": "Feature", "geometry": {"type": "Point", "coordinates": [-32.42644, -3.866265]}, "properties": {"grau": 4}}, {"type": "Feature", "geometry": {"type": "Point", "coordinates": [-32.424497, -3.871372]}, "properties": {"grau": 1}}, {"type": "Feature", "geometry": {"type": "Point", "coordinates": [-32.427984, -3.867322]}, "properties": {"grau": 1}}, {"type": "Feature", "geometry": {"type": "Point", "coordinates": [-32.428459, -3.864332]}, "properties": {"grau": 1}}, {"type": "Feature", "geometry": {"type": "Point", "coordinates": [-32.427807, -3.866929]}, "properties": {"grau": 1}}, {"type": "Feature", "geometry": {"type": "Point", "coordinates": [-32.427411, -3.866228]}, "properties": {"grau": 1}}, {"type": "Feature", "geometry": {"type": "Point", "coordinates": [-32.428498, -3.860376]}, "properties": {"grau": 1}}, {"type": "Feature", "geometry": {"type": "Point", "coordinates": [-32.429013, -3.860277]}, "properties": {"grau": 3}}, {"type": "Feature", "geometry": {"type": "Point", "coordinates": [-32.430639, -3.855427]}, "properties": {"grau": 1}}, {"type": "Feature", "geometry": {"type": "Point", "coordinates": [-32.43196, -3.856295]}, "properties": {"grau": 1}}, {"type": "Feature", "geometry": {"type": "Point", "coordinates": [-32.431159, -3.855075]}, "properties": {"grau": 1}}, {"type": "Feature", "geometry": {"type": "Point", "coordinates": [-32.433528, -3.855453]}, "properties": {"grau": 1}}, {"type": "Feature", "geometry": {"type": "Point", "coordinates": [-32.42871, -3.860053]}, "properties": {"grau": 1}}, {"type": "Feature", "geometry": {"type": "Point", "coordinates": [-32.431488, -3.849484]}, "properties": {"grau": 1}}, {"type": "Feature", "geometry": {"type": "Point", "coordinates": [-32.431296, -3.848427]}, "properties": {"grau": 1}}, {"type": "Feature", "geometry": {"type": "Point", "coordinates": [-32.431015, -3.849088]}, "properties": {"grau": 1}}, {"type": "Feature", "geometry": {"type": "Point", "coordinates": [-32.431182, -3.847054]}, "properties": {"grau": 3}}, {"type": "Feature", "geometry": {"type": "Point", "coordinates": [-32.427442, -3.848084]}, "properties": {"grau": 2}}, {"type": "Feature", "geometry": {"type": "Point", "coordinates": [-32.425655, -3.849846]}, "properties": {"grau": 1}}, {"type": "Feature", "geometry": {"type": "Point", "coordinates": [-32.422054, -3.850373]}, "properties": {"grau": 3}}, {"type": "Feature", "geometry": {"type": "Point", "coordinates": [-32.410713, -3.842013]}, "properties": {"grau": 3}}, {"type": "Feature", "geometry": {"type": "Point", "coordinates": [-32.410649, -3.844078]}, "properties": {"grau": 3}}, {"type": "Feature", "geometry": {"type": "Point", "coordinates": [-32.410824, -3.840749]}, "properties": {"grau": 3}}, {"type": "Feature", "geometry": {"type": "Point", "coordinates": [-32.410631, -3.840387]}, "properties": {"grau": 3}}, {"type": "Feature", "geometry": {"type": "Point", "coordinates": [-32.410566, -3.841889]}, "properties": {"grau": 3}}, {"type": "Feature", "geometry": {"type": "Point", "coordinates": [-32.406535, -3.846126]}, "properties": {"grau": 3}}, {"type": "Feature", "geometry": {"type": "Point", "coordinates": [-32.407298, -3.847058]}, "properties": {"grau": 3}}, {"type": "Feature", "geometry": {"type": "Point", "coordinates": [-32.405816, -3.845912]}, "properties": {"grau": 3}}, {"type": "Feature", "geometry": {"type": "Point", "coordinates": [-32.405468, -3.847484]}, "properties": {"grau": 1}}, {"type": "Feature", "geometry": {"type": "Point", "coordinates": [-32.40501, -3.846827]}, "properties": {"grau": 1}}, {"type": "Feature", "geometry": {"type": "Point", "coordinates": [-32.402768, -3.851641]}, "properties": {"grau": 3}}, {"type": "Feature", "geometry": {"type": "Point", "coordinates": [-32.407866, -3.856152]}, "properties": {"grau": 2}}, {"type": "Feature", "geometry": {"type": "Point", "coordinates": [-32.399627, -3.851303]}, "properties": {"grau": 1}}, {"type": "Feature", "geometry": {"type": "Point", "coordinates": [-32.404188, -3.849057]}, "properties": {"grau": 1}}, {"type": "Feature", "geometry": {"type": "Point", "coordinates": [-32.404413, -3.848489]}, "properties": {"grau": 2}}, {"type": "Feature", "geometry": {"type": "Point", "coordinates": [-32.404436, -3.847249]}, "properties": {"grau": 2}}, {"type": "Feature", "geometry": {"type": "Point", "coordinates": [-32.406704, -3.843843]}, "properties": {"grau": 3}}, {"type": "Feature", "geometry": {"type": "Point", "coordinates": [-32.405836, -3.844436]}, "properties": {"grau": 1}}, {"type": "Feature", "geometry": {"type": "Point", "coordinates": [-32.406064, -3.843792]}, "properties": {"grau": 1}}, {"type": "Feature", "geometry": {"type": "Point", "coordinates": [-32.400293, -3.83508]}, "properties": {"grau": 3}}, {"type": "Feature", "geometry": {"type": "Point", "coordinates": [-32.399697, -3.834391]}, "properties": {"grau": 3}}, {"type": "Feature", "geometry": {"type": "Point", "coordinates": [-32.40986, -3.839869]}, "properties": {"grau": 1}}, {"type": "Feature", "geometry": {"type": "Point", "coordinates": [-32.40991, -3.838224]}, "properties": {"grau": 1}}, {"type": "Feature", "geometry": {"type": "Point", "coordinates": [-32.413412, -3.846784]}, "properties": {"grau": 2}}, {"type": "Feature", "geometry": {"type": "Point", "coordinates": [-32.413843, -3.842947]}, "properties": {"grau": 1}}, {"type": "Feature", "geometry": {"type": "Point", "coordinates": [-32.411567, -3.842329]}, "properties": {"grau": 3}}, {"type": "Feature", "geometry": {"type": "Point", "coordinates": [-32.410677, -3.842766]}, "properties": {"grau": 1}}, {"type": "Feature", "geometry": {"type": "Point", "coordinates": [-32.413693, -3.845179]}, "properties": {"grau": 1}}, {"type": "Feature", "geometry": {"type": "Point", "coordinates": [-32.414298, -3.846306]}, "properties": {"grau": 3}}, {"type": "Feature", "geometry": {"type": "Point", "coordinates": [-32.422694, -3.85172]}, "properties": {"grau": 1}}, {"type": "Feature", "geometry": {"type": "Point", "coordinates": [-32.424867, -3.851919]}, "properties": {"grau": 3}}, {"type": "Feature", "geometry": {"type": "Point", "coordinates": [-32.437079, -3.854852]}, "properties": {"grau": 1}}, {"type": "Feature", "geometry": {"type": "Point", "coordinates": [-32.439015, -3.854412]}, "properties": {"grau": 1}}, {"type": "Feature", "geometry": {"type": "Point", "coordinates": [-32.438803, -3.854488]}, "properties": {"grau": 1}}, {"type": "Feature", "geometry": {"type": "Point", "coordinates": [-32.439046, -3.855377]}, "properties": {"grau": 1}}, {"type": "Feature", "geometry": {"type": "Point", "coordinates": [-32.412948, -3.846536]}, "properties": {"grau": 1}}, {"type": "Feature", "geometry": {"type": "Point", "coordinates": [-32.412564, -3.848524]}, "properties": {"grau": 1}}, {"type": "Feature", "geometry": {"type": "Point", "coordinates": [-32.412677, -3.847823]}, "properties": {"grau": 1}}, {"type": "Feature", "geometry": {"type": "Point", "coordinates": [-32.413311, -3.847834]}, "properties": {"grau": 1}}, {"type": "Feature", "geometry": {"type": "Point", "coordinates": [-32.413238, -3.848782]}, "properties": {"grau": 1}}, {"type": "Feature", "geometry": {"type": "Point", "coordinates": [-32.41268, -3.847899]}, "properties": {"grau": 1}}, {"type": "Feature", "geometry": {"type": "Point", "coordinates": [-32.411871, -3.848701]}, "properties": {"grau": 1}}, {"type": "Feature", "geometry": {"type": "Point", "coordinates": [-32.411427, -3.847526]}, "properties": {"grau": 3}}, {"type": "Feature", "geometry": {"type": "Point", "coordinates": [-32.411503, -3.845821]}, "properties": {"grau": 1}}, {"type": "Feature", "geometry": {"type": "Point", "coordinates": [-32.412047, -3.847552]}, "properties": {"grau": 1}}, {"type": "Feature", "geometry": {"type": "Point", "coordinates": [-32.412112, -3.846704]}, "properties": {"grau": 1}}, {"type": "Feature", "geometry": {"type": "Point", "coordinates": [-32.411407, -3.846786]}, "properties": {"grau": 1}}, {"type": "Feature", "geometry": {"type": "Point", "coordinates": [-32.411061, -3.848075]}, "properties": {"grau": 2}}, {"type": "Feature", "geometry": {"type": "Point", "coordinates": [-32.414926, -3.847644]}, "properties": {"grau": 1}}, {"type": "Feature", "geometry": {"type": "Point", "coordinates": [-32.413603, -3.849107]}, "properties": {"grau": 1}}, {"type": "Feature", "geometry": {"type": "Point", "coordinates": [-32.414728, -3.847523]}, "properties": {"grau": 2}}, {"type": "Feature", "geometry": {"type": "Point", "coordinates": [-32.416931, -3.848267]}, "properties": {"grau": 1}}, {"type": "Feature", "geometry": {"type": "Point", "coordinates": [-32.419092, -3.84757]}, "properties": {"grau": 1}}, {"type": "Feature", "geometry": {"type": "Point", "coordinates": [-32.417856, -3.849258]}, "properties": {"grau": 1}}, {"type": "Feature", "geometry": {"type": "Point", "coordinates": [-32.419744, -3.850418]}, "properties": {"grau": 1}}, {"type": "Feature", "geometry": {"type": "Point", "coordinates": [-32.418985, -3.849896]}, "properties": {"grau": 2}}, {"type": "Feature", "geometry": {"type": "Point", "coordinates": [-32.419834, -3.849591]}, "properties": {"grau": 1}}, {"type": "Feature", "geometry": {"type": "Point", "coordinates": [-32.419954, -3.849317]}, "properties": {"grau": 1}}, {"type": "Feature", "geometry": {"type": "Point", "coordinates": [-32.425087, -3.852794]}, "properties": {"grau": 1}}, {"type": "Feature", "geometry": {"type": "Point", "coordinates": [-32.438196, -3.857998]}, "properties": {"grau": 1}}, {"type": "Feature", "geometry": {"type": "Point", "coordinates": [-32.438943, -3.855346]}, "properties": {"grau": 1}}, {"type": "Feature", "geometry": {"type": "Point", "coordinates": [-32.433136, -3.849085]}, "properties": {"grau": 1}}, {"type": "Feature", "geometry": {"type": "Point", "coordinates": [-32.43443, -3.848565]}, "properties": {"grau": 2}}, {"type": "Feature", "geometry": {"type": "Point", "coordinates": [-32.438674, -3.85083]}, "properties": {"grau": 1}}, {"type": "Feature", "geometry": {"type": "Point", "coordinates": [-32.438713, -3.85029]}, "properties": {"grau": 1}}, {"type": "Feature", "geometry": {"type": "Point", "coordinates": [-32.446656, -3.85832]}, "properties": {"grau": 3}}, {"type": "Feature", "geometry": {"type": "Point", "coordinates": [-32.435126, -3.869357]}, "properties": {"grau": 2}}, {"type": "Feature", "geometry": {"type": "Point", "coordinates": [-32.433997, -3.869749]}, "properties": {"grau": 1}}, {"type": "Feature", "geometry": {"type": "Point", "coordinates": [-32.417667, -3.863387]}, "properties": {"grau": 1}}, {"type": "Feature", "geometry": {"type": "Point", "coordinates": [-32.421606, -3.861892]}, "properties": {"grau": 2}}, {"type": "Feature", "geometry": {"type": "Point", "coordinates": [-32.42879, -3.85709]}, "properties": {"grau": 3}}, {"type": "Feature", "geometry": {"type": "Point", "coordinates": [-32.428686, -3.856858]}, "properties": {"grau": 3}}, {"type": "Feature", "geometry": {"type": "Point", "coordinates": [-32.428793, -3.856774]}, "properties": {"grau": 3}}, {"type": "Feature", "geometry": {"type": "Point", "coordinates": [-32.428868, -3.856877]}, "properties": {"grau": 4}}, {"type": "Feature", "geometry": {"type": "Point", "coordinates": [-32.413777, -3.845658]}, "properties": {"grau": 1}}, {"type": "Feature", "geometry": {"type": "Point", "coordinates": [-32.413273, -3.845836]}, "properties": {"grau": 1}}, {"type": "Feature", "geometry": {"type": "Point", "coordinates": [-32.424818, -3.857315]}, "properties": {"grau": 1}}, {"type": "Feature", "geometry": {"type": "Point", "coordinates": [-32.424448, -3.856745]}, "properties": {"grau": 1}}, {"type": "Feature", "geometry": {"type": "Point", "coordinates": [-32.425984, -3.856009]}, "properties": {"grau": 2}}, {"type": "Feature", "geometry": {"type": "Point", "coordinates": [-32.424841, -3.857296]}, "properties": {"grau": 1}}, {"type": "Feature", "geometry": {"type": "Point", "coordinates": [-32.42759, -3.858016]}, "properties": {"grau": 3}}, {"type": "Feature", "geometry": {"type": "Point", "coordinates": [-32.412575, -3.845312]}, "properties": {"grau": 1}}, {"type": "Feature", "geometry": {"type": "Point", "coordinates": [-32.412983, -3.845127]}, "properties": {"grau": 2}}, {"type": "Feature", "geometry": {"type": "Point", "coordinates": [-32.41409, -3.848546]}, "properties": {"grau": 1}}, {"type": "Feature", "geometry": {"type": "Point", "coordinates": [-32.413787, -3.847377]}, "properties": {"grau": 3}}, {"type": "Feature", "geometry": {"type": "Point", "coordinates": [-32.409729, -3.845045]}, "properties": {"grau": 4}}, {"type": "Feature", "geometry": {"type": "Point", "coordinates": [-32.409097, -3.841639]}, "properties": {"grau": 1}}, {"type": "Feature", "geometry": {"type": "Point", "coordinates": [-32.410489, -3.841912]}, "properties": {"grau": 1}}, {"type": "Feature", "geometry": {"type": "Point", "coordinates": [-32.411363, -3.841696]}, "properties": {"grau": 3}}, {"type": "Feature", "geometry": {"type": "Point", "coordinates": [-32.410775, -3.841677]}, "properties": {"grau": 1}}, {"type": "Feature", "geometry": {"type": "Point", "coordinates": [-32.447512, -3.866206]}, "properties": {"grau": 3}}, {"type": "Feature", "geometry": {"type": "Point", "coordinates": [-32.448918, -3.864967]}, "properties": {"grau": 1}}, {"type": "Feature", "geometry": {"type": "Point", "coordinates": [-32.444243, -3.856777]}, "properties": {"grau": 2}}, {"type": "Feature", "geometry": {"type": "Point", "coordinates": [-32.440925, -3.850655]}, "properties": {"grau": 2}}, {"type": "Feature", "geometry": {"type": "Point", "coordinates": [-32.440814, -3.850536]}, "properties": {"grau": 2}}, {"type": "Feature", "geometry": {"type": "Point", "coordinates": [-32.440941, -3.850671]}, "properties": {"grau": 1}}, {"type": "Feature", "geometry": {"type": "Point", "coordinates": [-32.441197, -3.850514]}, "properties": {"grau": 1}}, {"type": "Feature", "geometry": {"type": "Point", "coordinates": [-32.441563, -3.851643]}, "properties": {"grau": 1}}, {"type": "Feature", "geometry": {"type": "Point", "coordinates": [-32.433519, -3.848057]}, "properties": {"grau": 1}}, {"type": "Feature", "geometry": {"type": "Point", "coordinates": [-32.433423, -3.847839]}, "properties": {"grau": 3}}, {"type": "Feature", "geometry": {"type": "Point", "coordinates": [-32.430864, -3.847546]}, "properties": {"grau": 1}}, {"type": "Feature", "geometry": {"type": "Point", "coordinates": [-32.428608, -3.847076]}, "properties": {"grau": 1}}, {"type": "Feature", "geometry": {"type": "Point", "coordinates": [-32.431854, -3.846331]}, "properties": {"grau": 2}}, {"type": "Feature", "geometry": {"type": "Point", "coordinates": [-32.432622, -3.846962]}, "properties": {"grau": 1}}, {"type": "Feature", "geometry": {"type": "Point", "coordinates": [-32.421098, -3.848884]}, "properties": {"grau": 1}}, {"type": "Feature", "geometry": {"type": "Point", "coordinates": [-32.423021, -3.845489]}, "properties": {"grau": 1}}, {"type": "Feature", "geometry": {"type": "Point", "coordinates": [-32.424019, -3.842766]}, "properties": {"grau": 2}}, {"type": "Feature", "geometry": {"type": "Point", "coordinates": [-32.426111, -3.844423]}, "properties": {"grau": 2}}, {"type": "Feature", "geometry": {"type": "Point", "coordinates": [-32.429728, -3.84556]}, "properties": {"grau": 3}}, {"type": "Feature", "geometry": {"type": "Point", "coordinates": [-32.411066, -3.839409]}, "properties": {"grau": 2}}, {"type": "Feature", "geometry": {"type": "Point", "coordinates": [-32.410955, -3.839837]}, "properties": {"grau": 3}}, {"type": "Feature", "geometry": {"type": "Point", "coordinates": [-32.411161, -3.839829]}, "properties": {"grau": 2}}, {"type": "Feature", "geometry": {"type": "Point", "coordinates": [-32.411215, -3.840637]}, "properties": {"grau": 3}}, {"type": "Feature", "geometry": {"type": "Point", "coordinates": [-32.411203, -3.841165]}, "properties": {"grau": 3}}, {"type": "Feature", "geometry": {"type": "Point", "coordinates": [-32.411083, -3.84563]}, "properties": {"grau": 1}}, {"type": "Feature", "geometry": {"type": "Point", "coordinates": [-32.410809, -3.845872]}, "properties": {"grau": 1}}, {"type": "Feature", "geometry": {"type": "Point", "coordinates": [-32.410547, -3.845755]}, "properties": {"grau": 1}}, {"type": "Feature", "geometry": {"type": "Point", "coordinates": [-32.410327, -3.845913]}, "properties": {"grau": 1}}, {"type": "Feature", "geometry": {"type": "Point", "coordinates": [-32.411, -3.8457]}, "properties": {"grau": 1}}, {"type": "Feature", "geometry": {"type": "Point", "coordinates": [-32.410453, -3.845836]}, "properties": {"grau": 1}}, {"type": "Feature", "geometry": {"type": "Point", "coordinates": [-32.412636, -3.841228]}, "properties": {"grau": 1}}, {"type": "Feature", "geometry": {"type": "Point", "coordinates": [-32.411179, -3.841693]}, "properties": {"grau": 1}}, {"type": "Feature", "geometry": {"type": "Point", "coordinates": [-32.414504, -3.839715]}, "properties": {"grau": 2}}, {"type": "Feature", "geometry": {"type": "Point", "coordinates": [-32.41486, -3.839612]}, "properties": {"grau": 2}}, {"type": "Feature", "geometry": {"type": "Point", "coordinates": [-32.415014, -3.839572]}, "properties": {"grau": 2}}, {"type": "Feature", "geometry": {"type": "Point", "coordinates": [-32.426109, -3.866538]}, "properties": {"grau": 2}}, {"type": "Feature", "geometry": {"type": "Point", "coordinates": [-32.421966, -3.866441]}, "properties": {"grau": 1}}, {"type": "Feature", "geometry": {"type": "Point", "coordinates": [-32.426368, -3.866419]}, "properties": {"grau": 2}}, {"type": "Feature", "geometry": {"type": "Point", "coordinates": [-32.428486, -3.856328]}, "properties": {"grau": 1}}, {"type": "Feature", "geometry": {"type": "Point", "coordinates": [-32.428472, -3.856107]}, "properties": {"grau": 1}}, {"type": "Feature", "geometry": {"type": "Point", "coordinates": [-32.428405, -3.856334]}, "properties": {"grau": 1}}, {"type": "Feature", "geometry": {"type": "Point", "coordinates": [-32.428393, -3.856113]}, "properties": {"grau": 1}}, {"type": "Feature", "geometry": {"type": "Point", "coordinates": [-32.428585, -3.856098]}, "properties": {"grau": 1}}, {"type": "Feature", "geometry": {"type": "Point", "coordinates": [-32.428275, -3.856121]}, "properties": {"grau": 1}}, {"type": "Feature", "geometry": {"type": "Point", "coordinates": [-32.400114, -3.833897]}, "properties": {"grau": 1}}, {"type": "Feature", "geometry": {"type": "Point", "coordinates": [-32.399554, -3.8343]}, "properties": {"grau": 4}}, {"type": "Feature", "geometry": {"type": "Point", "coordinates": [-32.399981, -3.835216]}, "properties": {"grau": 3}}, {"type": "Feature", "geometry": {"type": "Point", "coordinates": [-32.399474, -3.835642]}, "properties": {"grau": 2}}, {"type": "Feature", "geometry": {"type": "Point", "coordinates": [-32.401064, -3.835932]}, "properties": {"grau": 1}}, {"type": "Feature", "geometry": {"type": "Point", "coordinates": [-32.40073, -3.835642]}, "properties": {"grau": 1}}, {"type": "Feature", "geometry": {"type": "Point", "coordinates": [-32.400401, -3.835045]}, "properties": {"grau": 1}}, {"type": "Feature", "geometry": {"type": "Point", "coordinates": [-32.401164, -3.834956]}, "properties": {"grau": 1}}, {"type": "Feature", "geometry": {"type": "Point", "coordinates": [-32.4001, -3.834759]}, "properties": {"grau": 1}}, {"type": "Feature", "geometry": {"type": "Point", "coordinates": [-32.400273, -3.834745]}, "properties": {"grau": 1}}, {"type": "Feature", "geometry": {"type": "Point", "coordinates": [-32.400453, -3.834956]}, "properties": {"grau": 1}}, {"type": "Feature", "geometry": {"type": "Point", "coordinates": [-32.400325, -3.835149]}, "properties": {"grau": 1}}, {"type": "Feature", "geometry": {"type": "Point", "coordinates": [-32.400527, -3.834779]}, "properties": {"grau": 2}}, {"type": "Feature", "geometry": {"type": "Point", "coordinates": [-32.400025, -3.836365]}, "properties": {"grau": 3}}, {"type": "Feature", "geometry": {"type": "Point", "coordinates": [-32.398413, -3.834995]}, "properties": {"grau": 2}}, {"type": "Feature", "geometry": {"type": "Point", "coordinates": [-32.428187, -3.849718]}, "properties": {"grau": 2}}, {"type": "Feature", "geometry": {"type": "Point", "coordinates": [-32.428258, -3.849769]}, "properties": {"grau": 3}}, {"type": "Feature", "geometry": {"type": "Point", "coordinates": [-32.409818, -3.845058]}, "properties": {"grau": 2}}, {"type": "Feature", "geometry": {"type": "Point", "coordinates": [-32.411733, -3.845675]}, "properties": {"grau": 1}}, {"type": "Feature", "geometry": {"type": "Point", "coordinates": [-32.425464, -3.849799]}, "properties": {"grau": 3}}, {"type": "Feature", "geometry": {"type": "Point", "coordinates": [-32.425809, -3.849777]}, "properties": {"grau": 2}}, {"type": "Feature", "geometry": {"type": "Point", "coordinates": [-32.432201, -3.852916]}, "properties": {"grau": 2}}, {"type": "Feature", "geometry": {"type": "Point", "coordinates": [-32.432388, -3.85295]}, "properties": {"grau": 2}}, {"type": "Feature", "geometry": {"type": "Point", "coordinates": [-32.442293, -3.854395]}, "properties": {"grau": 1}}, {"type": "Feature", "geometry": {"type": "Point", "coordinates": [-32.442321, -3.854394]}, "properties": {"grau": 2}}, {"type": "Feature", "geometry": {"type": "Point", "coordinates": [-32.42887, -3.868173]}, "properties": {"grau": 2}}, {"type": "Feature", "geometry": {"type": "Point", "coordinates": [-32.426966, -3.86579]}, "properties": {"grau": 1}}, {"type": "Feature", "geometry": {"type": "Point", "coordinates": [-32.410581, -3.840461]}, "properties": {"grau": 1}}, {"type": "Feature", "geometry": {"type": "Point", "coordinates": [-32.410569, -3.840411]}, "properties": {"grau": 1}}, {"type": "Feature", "geometry": {"type": "Point", "coordinates": [-32.458525, -3.875005]}, "properties": {"grau": 1}}, {"type": "Feature", "geometry": {"type": "Point", "coordinates": [-32.408564, -3.844209]}, "properties": {"grau": 1}}, {"type": "Feature", "geometry": {"type": "Point", "coordinates": [-32.40687, -3.843596]}, "properties": {"grau": 1}}, {"type": "Feature", "geometry": {"type": "Point", "coordinates": [-32.40619, -3.846377]}, "properties": {"grau": 1}}, {"type": "Feature", "geometry": {"type": "Point", "coordinates": [-32.406297, -3.846497]}, "properties": {"grau": 1}}, {"type": "Feature", "geometry": {"type": "Point", "coordinates": [-32.40793, -3.844718]}, "properties": {"grau": 1}}, {"type": "Feature", "geometry": {"type": "Point", "coordinates": [-32.408308, -3.844044]}, "properties": {"grau": 1}}, {"type": "Feature", "geometry": {"type": "Point", "coordinates": [-32.393908, -3.850642]}, "properties": {"grau": 2}}, {"type": "Feature", "geometry": {"type": "Point", "coordinates": [-32.404497, -3.847204]}, "properties": {"grau": 1}}, {"type": "Feature", "geometry": {"type": "Point", "coordinates": [-32.405258, -3.847189]}, "properties": {"grau": 1}}, {"type": "Feature", "geometry": {"type": "Point", "coordinates": [-32.399495, -3.834212]}, "properties": {"grau": 1}}, {"type": "Feature", "geometry": {"type": "Point", "coordinates": [-32.398658, -3.834375]}, "properties": {"grau": 1}}, {"type": "Feature", "geometry": {"type": "Point", "coordinates": [-32.426062, -3.848103]}, "properties": {"grau": 1}}, {"type": "Feature", "geometry": {"type": "Point", "coordinates": [-32.426507, -3.848965]}, "properties": {"grau": 1}}, {"type": "Feature", "geometry": {"type": "Point", "coordinates": [-32.399132, -3.832313]}, "properties": {"grau": 1}}, {"type": "Feature", "geometry": {"type": "Point", "coordinates": [-32.398247, -3.832406]}, "properties": {"grau": 2}}, {"type": "Feature", "geometry": {"type": "Point", "coordinates": [-32.400679, -3.835592]}, "properties": {"grau": 1}}, {"type": "Feature", "geometry": {"type": "Point", "coordinates": [-32.400009, -3.836219]}, "properties": {"grau": 1}}, {"type": "Feature", "geometry": {"type": "Point", "coordinates": [-32.435872, -3.854803]}, "properties": {"grau": 1}}, {"type": "Feature", "geometry": {"type": "Point", "coordinates": [-32.427861, -3.865011]}, "properties": {"grau": 2}}, {"type": "Feature", "geometry": {"type": "Point", "coordinates": [-32.399671, -3.833318]}, "properties": {"grau": 1}}, {"type": "Feature", "geometry": {"type": "Point", "coordinates": [-32.398802, -3.833271]}, "properties": {"grau": 3}}, {"type": "Feature", "geometry": {"type": "Point", "coordinates": [-32.421216, -3.851079]}, "properties": {"grau": 1}}, {"type": "Feature", "geometry": {"type": "Point", "coordinates": [-32.423699, -3.853218]}, "properties": {"grau": 1}}, {"type": "Feature", "geometry": {"type": "Point", "coordinates": [-32.419762, -3.847954]}, "properties": {"grau": 1}}, {"type": "Feature", "geometry": {"type": "Point", "coordinates": [-32.419123, -3.84947]}, "properties": {"grau": 1}}, {"type": "Feature", "geometry": {"type": "Point", "coordinates": [-32.407925, -3.856155]}, "properties": {"grau": 2}}, {"type": "Feature", "geometry": {"type": "Point", "coordinates": [-32.400411, -3.834684]}, "properties": {"grau": 1}}, {"type": "Feature", "geometry": {"type": "Point", "coordinates": [-32.40024, -3.834229]}, "properties": {"grau": 1}}, {"type": "Feature", "geometry": {"type": "Point", "coordinates": [-32.416654, -3.848088]}, "properties": {"grau": 1}}, {"type": "Feature", "geometry": {"type": "Point", "coordinates": [-32.416934, -3.847649]}, "properties": {"grau": 1}}, {"type": "Feature", "geometry": {"type": "Point", "coordinates": [-32.415855, -3.847191]}, "properties": {"grau": 1}}, {"type": "Feature", "geometry": {"type": "Point", "coordinates": [-32.415555, -3.846747]}, "properties": {"grau": 1}}, {"type": "Feature", "geometry": {"type": "Point", "coordinates": [-32.415895, -3.847558]}, "properties": {"grau": 1}}, {"type": "Feature", "geometry": {"type": "Point", "coordinates": [-32.416009, -3.847271]}, "properties": {"grau": 1}}, {"type": "Feature", "geometry": {"type": "Point", "coordinates": [-32.415149, -3.846324]}, "properties": {"grau": 2}}, {"type": "Feature", "geometry": {"type": "Point", "coordinates": [-32.415717, -3.847854]}, "properties": {"grau": 1}}, {"type": "Feature", "geometry": {"type": "Point", "coordinates": [-32.427871, -3.856664]}, "properties": {"grau": 1}}, {"type": "Feature", "geometry": {"type": "Point", "coordinates": [-32.427707, -3.856843]}, "properties": {"grau": 1}}, {"type": "Feature", "geometry": {"type": "Point", "coordinates": [-32.427544, -3.855168]}, "properties": {"grau": 1}}, {"type": "Feature", "geometry": {"type": "Point", "coordinates": [-32.426909, -3.856157]}, "properties": {"grau": 1}}, {"type": "Feature", "geometry": {"type": "Point", "coordinates": [-32.428167, -3.856822]}, "properties": {"grau": 1}}, {"type": "Feature", "geometry": {"type": "Point", "coordinates": [-32.427865, -3.85647]}, "properties": {"grau": 1}}, {"type": "Feature", "geometry": {"type": "Point", "coordinates": [-32.411527, -3.839421]}, "properties": {"grau": 1}}, {"type": "Feature", "geometry": {"type": "Point", "coordinates": [-32.412208, -3.839825]}, "properties": {"grau": 2}}, {"type": "Feature", "geometry": {"type": "Point", "coordinates": [-32.429023, -3.856698]}, "properties": {"grau": 3}}, {"type": "Feature", "geometry": {"type": "Point", "coordinates": [-32.400242, -3.834939]}, "properties": {"grau": 2}}, {"type": "Feature", "geometry": {"type": "Point", "coordinates": [-32.406447, -3.844654]}, "properties": {"grau": 3}}, {"type": "Feature", "geometry": {"type": "Point", "coordinates": [-32.406816, -3.844538]}, "properties": {"grau": 3}}, {"type": "Feature", "geometry": {"type": "Point", "coordinates": [-32.428533, -3.863678]}, "properties": {"grau": 1}}, {"type": "Feature", "geometry": {"type": "Point", "coordinates": [-32.4285, -3.863532]}, "properties": {"grau": 1}}, {"type": "Feature", "geometry": {"type": "Point", "coordinates": [-32.410482, -3.842968]}, "properties": {"grau": 1}}, {"type": "Feature", "geometry": {"type": "Point", "coordinates": [-32.410556, -3.842997]}, "properties": {"grau": 1}}, {"type": "Feature", "geometry": {"type": "Point", "coordinates": [-32.410658, -3.84282]}, "properties": {"grau": 1}}, {"type": "Feature", "geometry": {"type": "Point", "coordinates": [-32.410512, -3.842788]}, "properties": {"grau": 1}}, {"type": "Feature", "geometry": {"type": "Point", "coordinates": [-32.428688, -3.846951]}, "properties": {"grau": 1}}, {"type": "Feature", "geometry": {"type": "Point", "coordinates": [-32.428156, -3.846615]}, "properties": {"grau": 1}}, {"type": "Feature", "geometry": {"type": "Point", "coordinates": [-32.428332, -3.863737]}, "properties": {"grau": 1}}, {"type": "Feature", "geometry": {"type": "Point", "coordinates": [-32.428377, -3.863654]}, "properties": {"grau": 1}}, {"type": "Feature", "geometry": {"type": "Point", "coordinates": [-32.428093, -3.861985]}, "properties": {"grau": 1}}, {"type": "Feature", "geometry": {"type": "Point", "coordinates": [-32.428598, -3.862331]}, "properties": {"grau": 1}}, {"type": "Feature", "geometry": {"type": "Point", "coordinates": [-32.428237, -3.85682]}, "properties": {"grau": 1}}, {"type": "Feature", "geometry": {"type": "Point", "coordinates": [-32.428218, -3.856553]}, "properties": {"grau": 2}}, {"type": "Feature", "geometry": {"type": "Point", "coordinates": [-32.428556, -3.856565]}, "properties": {"grau": 1}}, {"type": "Feature", "geometry": {"type": "Point", "coordinates": [-32.42856, -3.856612]}, "properties": {"grau": 1}}, {"type": "Feature", "geometry": {"type": "Point", "coordinates": [-32.428531, -3.856324]}, "properties": {"grau": 1}}, {"type": "Feature", "geometry": {"type": "Point", "coordinates": [-32.428532, -3.856351]}, "properties": {"grau": 1}}, {"type": "Feature", "geometry": {"type": "Point", "coordinates": [-32.413896, -3.847051]}, "properties": {"grau": 2}}, {"type": "Feature", "geometry": {"type": "Point", "coordinates": [-32.417591, -3.84162]}, "properties": {"grau": 1}}, {"type": "Feature", "geometry": {"type": "Point", "coordinates": [-32.417452, -3.842097]}, "properties": {"grau": 3}}, {"type": "Feature", "geometry": {"type": "Point", "coordinates": [-32.409184, -3.857022]}, "properties": {"grau": 1}}, {"type": "Feature", "geometry": {"type": "Point", "coordinates": [-32.429277, -3.845987]}, "properties": {"grau": 2}}, {"type": "Feature", "geometry": {"type": "Point", "coordinates": [-32.435086, -3.848364]}, "properties": {"grau": 1}}, {"type": "Feature", "geometry": {"type": "Point", "coordinates": [-32.406179, -3.845206]}, "properties": {"grau": 1}}, {"type": "Feature", "geometry": {"type": "Point", "coordinates": [-32.405657, -3.845067]}, "properties": {"grau": 1}}, {"type": "Feature", "geometry": {"type": "Point", "coordinates": [-32.408714, -3.844853]}, "properties": {"grau": 1}}, {"type": "Feature", "geometry": {"type": "Point", "coordinates": [-32.408422, -3.845425]}, "properties": {"grau": 1}}, {"type": "Feature", "geometry": {"type": "Point", "coordinates": [-32.40734, -3.844635]}, "properties": {"grau": 1}}, {"type": "Feature", "geometry": {"type": "Point", "coordinates": [-32.406593, -3.846198]}, "properties": {"grau": 1}}, {"type": "Feature", "geometry": {"type": "Point", "coordinates": [-32.404455, -3.848017]}, "properties": {"grau": 1}}, {"type": "Feature", "geometry": {"type": "Point", "coordinates": [-32.404744, -3.848168]}, "properties": {"grau": 1}}, {"type": "Feature", "geometry": {"type": "Point", "coordinates": [-32.404444, -3.848167]}, "properties": {"grau": 1}}, {"type": "Feature", "geometry": {"type": "Point", "coordinates": [-32.40449, -3.847854]}, "properties": {"grau": 1}}, {"type": "Feature", "geometry": {"type": "Point", "coordinates": [-32.410561, -3.843531]}, "properties": {"grau": 1}}, {"type": "Feature", "geometry": {"type": "Point", "coordinates": [-32.410508, -3.84353]}, "properties": {"grau": 1}}, {"type": "Feature", "geometry": {"type": "Point", "coordinates": [-32.410492, -3.841673]}, "properties": {"grau": 1}}, {"type": "Feature", "geometry": {"type": "Point", "coordinates": [-32.410517, -3.841898]}, "properties": {"grau": 1}}, {"type": "Feature", "geometry": {"type": "Point", "coordinates": [-32.410967, -3.844613]}, "properties": {"grau": 3}}, {"type": "Feature", "geometry": {"type": "Point", "coordinates": [-32.411213, -3.845358]}, "properties": {"grau": 2}}, {"type": "Feature", "geometry": {"type": "Point", "coordinates": [-32.413332, -3.844289]}, "properties": {"grau": 1}}, {"type": "Feature", "geometry": {"type": "Point", "coordinates": [-32.413219, -3.844535]}, "properties": {"grau": 1}}, {"type": "Feature", "geometry": {"type": "Point", "coordinates": [-32.411799, -3.845693]}, "properties": {"grau": 1}}, {"type": "Feature", "geometry": {"type": "Point", "coordinates": [-32.412105, -3.845802]}, "properties": {"grau": 1}}, {"type": "Feature", "geometry": {"type": "Point", "coordinates": [-32.409623, -3.84511]}, "properties": {"grau": 1}}, {"type": "Feature", "geometry": {"type": "Point", "coordinates": [-32.409915, -3.84525]}, "properties": {"grau": 3}}, {"type": "Feature", "geometry": {"type": "Point", "coordinates": [-32.457794, -3.878951]}, "properties": {"grau": 1}}, {"type": "Feature", "geometry": {"type": "Point", "coordinates": [-32.439854, -3.870084]}, "properties": {"grau": 2}}, {"type": "Feature", "geometry": {"type": "Point", "coordinates": [-32.398586, -3.85505]}, "properties": {"grau": 1}}, {"type": "Feature", "geometry": {"type": "Point", "coordinates": [-32.39766, -3.856104]}, "properties": {"grau": 1}}, {"type": "Feature", "geometry": {"type": "Point", "coordinates": [-32.425289, -3.875557]}, "properties": {"grau": 1}}, {"type": "Feature", "geometry": {"type": "Point", "coordinates": [-32.444472, -3.856661]}, "properties": {"grau": 1}}, {"type": "Feature", "geometry": {"type": "Point", "coordinates": [-32.444513, -3.856545]}, "properties": {"grau": 1}}, {"type": "Feature", "geometry": {"type": "Point", "coordinates": [-32.446478, -3.855612]}, "properties": {"grau": 1}}, {"type": "Feature", "geometry": {"type": "Point", "coordinates": [-32.446517, -3.855549]}, "properties": {"grau": 1}}, {"type": "Feature", "geometry": {"type": "Point", "coordinates": [-32.445685, -3.856319]}, "properties": {"grau": 1}}, {"type": "Feature", "geometry": {"type": "Point", "coordinates": [-32.445622, -3.856283]}, "properties": {"grau": 1}}, {"type": "Feature", "geometry": {"type": "Point", "coordinates": [-32.431321, -3.848962]}, "properties": {"grau": 1}}, {"type": "Feature", "geometry": {"type": "Point", "coordinates": [-32.42677, -3.849835]}, "properties": {"grau": 3}}, {"type": "Feature", "geometry": {"type": "Point", "coordinates": [-32.42847, -3.863404]}, "properties": {"grau": 1}}, {"type": "Feature", "geometry": {"type": "Point", "coordinates": [-32.428331, -3.862871]}, "properties": {"grau": 1}}, {"type": "Feature", "geometry": {"type": "Point", "coordinates": [-32.413347, -3.847363]}, "properties": {"grau": 1}}, {"type": "Feature", "geometry": {"type": "Point", "coordinates": [-32.411258, -3.848933]}, "properties": {"grau": 1}}, {"type": "Feature", "geometry": {"type": "Point", "coordinates": [-32.411998, -3.848481]}, "properties": {"grau": 1}}, {"type": "Feature", "geometry": {"type": "Point", "coordinates": [-32.412045, -3.848524]}, "properties": {"grau": 1}}, {"type": "Feature", "geometry": {"type": "Point", "coordinates": [-32.41079, -3.847704]}, "properties": {"grau": 1}}, {"type": "Feature", "geometry": {"type": "Point", "coordinates": [-32.410324, -3.848398]}, "properties": {"grau": 1}}, {"type": "Feature", "geometry": {"type": "Point", "coordinates": [-32.41126, -3.848022]}, "properties": {"grau": 1}}, {"type": "Feature", "geometry": {"type": "Point", "coordinates": [-32.410791, -3.847056]}, "properties": {"grau": 1}}, {"type": "Feature", "geometry": {"type": "Point", "coordinates": [-32.410385, -3.847074]}, "properties": {"grau": 1}}, {"type": "Feature", "geometry": {"type": "Point", "coordinates": [-32.410295, -3.845834]}, "properties": {"grau": 1}}, {"type": "Feature", "geometry": {"type": "Point", "coordinates": [-32.412017, -3.846041]}, "properties": {"grau": 3}}, {"type": "Feature", "geometry": {"type": "Point", "coordinates": [-32.406626, -3.844206]}, "properties": {"grau": 3}}, {"type": "Feature", "geometry": {"type": "Point", "coordinates": [-32.426045, -3.866603]}, "properties": {"grau": 1}}, {"type": "Feature", "geometry": {"type": "Point", "coordinates": [-32.42613, -3.866821]}, "properties": {"grau": 1}}, {"type": "Feature", "geometry": {"type": "Point", "coordinates": [-32.395682, -3.852018]}, "properties": {"grau": 1}}, {"type": "Feature", "geometry": {"type": "Point", "coordinates": [-32.395714, -3.852157]}, "properties": {"grau": 1}}, {"type": "Feature", "geometry": {"type": "Point", "coordinates": [-32.39388, -3.85092]}, "properties": {"grau": 2}}, {"type": "Feature", "geometry": {"type": "Point", "coordinates": [-32.428719, -3.856536]}, "properties": {"grau": 1}}, {"type": "Feature", "geometry": {"type": "Point", "coordinates": [-32.428731, -3.856581]}, "properties": {"grau": 1}}, {"type": "Feature", "geometry": {"type": "Point", "coordinates": [-32.428368, -3.86323]}, "properties": {"grau": 1}}, {"type": "Feature", "geometry": {"type": "Point", "coordinates": [-32.428346, -3.863145]}, "properties": {"grau": 1}}, {"type": "Feature", "geometry": {"type": "Point", "coordinates": [-32.426494, -3.866188]}, "properties": {"grau": 1}}, {"type": "Feature", "geometry": {"type": "Point", "coordinates": [-32.426542, -3.866141]}, "properties": {"grau": 1}}, {"type": "Feature", "geometry": {"type": "Point", "coordinates": [-32.426532, -3.866286]}, "properties": {"grau": 1}}, {"type": "Feature", "geometry": {"type": "Point", "coordinates": [-32.426471, -3.86634]}, "properties": {"grau": 1}}, {"type": "Feature", "geometry": {"type": "Point", "coordinates": [-32.410315, -3.85632]}, "properties": {"grau": 2}}, {"type": "Feature", "geometry": {"type": "Point", "coordinates": [-32.407947, -3.856063]}, "properties": {"grau": 2}}, {"type": "Feature", "geometry": {"type": "Point", "coordinates": [-32.428803, -3.850764]}, "properties": {"grau": 1}}, {"type": "Feature", "geometry": {"type": "Point", "coordinates": [-32.428321, -3.851391]}, "properties": {"grau": 1}}, {"type": "Feature", "geometry": {"type": "Point", "coordinates": [-32.412671, -3.847557]}, "properties": {"grau": 1}}, {"type": "Feature", "geometry": {"type": "Point", "coordinates": [-32.418168, -3.863343]}, "properties": {"grau": 1}}, {"type": "Feature", "geometry": {"type": "Point", "coordinates": [-32.413788, -3.863238]}, "properties": {"grau": 1}}, {"type": "Feature", "geometry": {"type": "Point", "coordinates": [-32.422894, -3.861311]}, "properties": {"grau": 1}}, {"type": "Feature", "geometry": {"type": "Point", "coordinates": [-32.418279, -3.847082]}, "properties": {"grau": 1}}, {"type": "Feature", "geometry": {"type": "Point", "coordinates": [-32.411941, -3.841635]}, "properties": {"grau": 1}}, {"type": "Feature", "geometry": {"type": "Point", "coordinates": [-32.438341, -3.850846]}, "properties": {"grau": 1}}, {"type": "Feature", "geometry": {"type": "Point", "coordinates": [-32.439252, -3.850206]}, "properties": {"grau": 1}}, {"type": "Feature", "geometry": {"type": "Point", "coordinates": [-32.41167, -3.839901]}, "properties": {"grau": 3}}, {"type": "Feature", "geometry": {"type": "Point", "coordinates": [-32.413072, -3.840781]}, "properties": {"grau": 1}}, {"type": "Feature", "geometry": {"type": "Point", "coordinates": [-32.407442, -3.840831]}, "properties": {"grau": 1}}, {"type": "Feature", "geometry": {"type": "Point", "coordinates": [-32.404502, -3.838706]}, "properties": {"grau": 1}}, {"type": "Feature", "geometry": {"type": "Point", "coordinates": [-32.399077, -3.830693]}, "properties": {"grau": 2}}, {"type": "Feature", "geometry": {"type": "Point", "coordinates": [-32.397407, -3.832936]}, "properties": {"grau": 1}}, {"type": "Feature", "geometry": {"type": "Point", "coordinates": [-32.398528, -3.834965]}, "properties": {"grau": 1}}, {"type": "Feature", "geometry": {"type": "Point", "coordinates": [-32.410757, -3.841745]}, "properties": {"grau": 3}}, {"type": "Feature", "geometry": {"type": "Point", "coordinates": [-32.411649, -3.841161]}, "properties": {"grau": 2}}, {"type": "Feature", "geometry": {"type": "Point", "coordinates": [-32.411676, -3.840684]}, "properties": {"grau": 1}}, {"type": "Feature", "geometry": {"type": "Point", "coordinates": [-32.410973, -3.847711]}, "properties": {"grau": 1}}, {"type": "Feature", "geometry": {"type": "Point", "coordinates": [-32.411384, -3.847604]}, "properties": {"grau": 1}}, {"type": "Feature", "geometry": {"type": "Point", "coordinates": [-32.411977, -3.845826]}, "properties": {"grau": 1}}, {"type": "Feature", "geometry": {"type": "Point", "coordinates": [-32.442919, -3.855415]}, "properties": {"grau": 1}}, {"type": "Feature", "geometry": {"type": "Point", "coordinates": [-32.442953, -3.855367]}, "properties": {"grau": 1}}, {"type": "Feature", "geometry": {"type": "Point", "coordinates": [-32.428696, -3.86779]}, "properties": {"grau": 1}}, {"type": "Feature", "geometry": {"type": "Point", "coordinates": [-32.435802, -3.869593]}, "properties": {"grau": 2}}, {"type": "Feature", "geometry": {"type": "Point", "coordinates": [-32.413759, -3.848815]}, "properties": {"grau": 1}}, {"type": "Feature", "geometry": {"type": "Point", "coordinates": [-32.412162, -3.848952]}, "properties": {"grau": 1}}, {"type": "Feature", "geometry": {"type": "Point", "coordinates": [-32.412957, -3.846605]}, "properties": {"grau": 2}}, {"type": "Feature", "geometry": {"type": "Point", "coordinates": [-32.41264, -3.847608]}, "properties": {"grau": 2}}, {"type": "Feature", "geometry": {"type": "Point", "coordinates": [-32.412906, -3.846534]}, "properties": {"grau": 2}}, {"type": "Feature", "geometry": {"type": "Point", "coordinates": [-32.412279, -3.846228]}, "properties": {"grau": 2}}, {"type": "Feature", "geometry": {"type": "Point", "coordinates": [-32.412148, -3.846625]}, "properties": {"grau": 1}}, {"type": "Feature", "geometry": {"type": "Point", "coordinates": [-32.411925, -3.848649]}, "properties": {"grau": 1}}, {"type": "Feature", "geometry": {"type": "Point", "coordinates": [-32.412134, -3.848967]}, "properties": {"grau": 1}}, {"type": "Feature", "geometry": {"type": "Point", "coordinates": [-32.404146, -3.847043]}, "properties": {"grau": 1}}, {"type": "Feature", "geometry": {"type": "Point", "coordinates": [-32.406702, -3.847424]}, "properties": {"grau": 1}}, {"type": "Feature", "geometry": {"type": "Point", "coordinates": [-32.412626, -3.844325]}, "properties": {"grau": 1}}, {"type": "Feature", "geometry": {"type": "Point", "coordinates": [-32.412305, -3.844505]}, "properties": {"grau": 1}}, {"type": "Feature", "geometry": {"type": "Point", "coordinates": [-32.426949, -3.856087]}, "properties": {"grau": 1}}, {"type": "Feature", "geometry": {"type": "Point", "coordinates": [-32.426484, -3.85624]}, "properties": {"grau": 2}}, {"type": "Feature", "geometry": {"type": "Point", "coordinates": [-32.42772, -3.865083]}, "properties": {"grau": 2}}, {"type": "Feature", "geometry": {"type": "Point", "coordinates": [-32.428342, -3.861961]}, "properties": {"grau": 2}}, {"type": "Feature", "geometry": {"type": "Point", "coordinates": [-32.428508, -3.861841]}, "properties": {"grau": 1}}, {"type": "Feature", "geometry": {"type": "Point", "coordinates": [-32.428832, -3.861675]}, "properties": {"grau": 1}}, {"type": "Feature", "geometry": {"type": "Point", "coordinates": [-32.427683, -3.860372]}, "properties": {"grau": 1}}, {"type": "Feature", "geometry": {"type": "Point", "coordinates": [-32.428206, -3.860997]}, "properties": {"grau": 1}}, {"type": "Feature", "geometry": {"type": "Point", "coordinates": [-32.425887, -3.849553]}, "properties": {"grau": 1}}, {"type": "Feature", "geometry": {"type": "Point", "coordinates": [-32.422413, -3.850041]}, "properties": {"grau": 1}}, {"type": "Feature", "geometry": {"type": "Point", "coordinates": [-32.421734, -3.850039]}, "properties": {"grau": 1}}, {"type": "Feature", "geometry": {"type": "Point", "coordinates": [-32.419928, -3.850458]}, "properties": {"grau": 1}}, {"type": "Feature", "geometry": {"type": "Point", "coordinates": [-32.419995, -3.850316]}, "properties": {"grau": 1}}, {"type": "Feature", "geometry": {"type": "Point", "coordinates": [-32.420525, -3.850468]}, "properties": {"grau": 1}}, {"type": "Feature", "geometry": {"type": "Point", "coordinates": [-32.41978, -3.850127]}, "properties": {"grau": 1}}, {"type": "Feature", "geometry": {"type": "Point", "coordinates": [-32.417569, -3.849169]}, "properties": {"grau": 1}}, {"type": "Feature", "geometry": {"type": "Point", "coordinates": [-32.417349, -3.847604]}, "properties": {"grau": 1}}, {"type": "Feature", "geometry": {"type": "Point", "coordinates": [-32.416374, -3.848479]}, "properties": {"grau": 1}}, {"type": "Feature", "geometry": {"type": "Point", "coordinates": [-32.416183, -3.849034]}, "properties": {"grau": 1}}, {"type": "Feature", "geometry": {"type": "Point", "coordinates": [-32.414559, -3.847391]}, "properties": {"grau": 1}}, {"type": "Feature", "geometry": {"type": "Point", "coordinates": [-32.414509, -3.847477]}, "properties": {"grau": 1}}, {"type": "Feature", "geometry": {"type": "Point", "coordinates": [-32.414198, -3.847221]}, "properties": {"grau": 1}}, {"type": "Feature", "geometry": {"type": "Point", "coordinates": [-32.412937, -3.84649]}, "properties": {"grau": 2}}, {"type": "Feature", "geometry": {"type": "Point", "coordinates": [-32.412965, -3.846445]}, "properties": {"grau": 1}}, {"type": "Feature", "geometry": {"type": "Point", "coordinates": [-32.410002, -3.845143]}, "properties": {"grau": 1}}, {"type": "Feature", "geometry": {"type": "Point", "coordinates": [-32.409976, -3.845194]}, "properties": {"grau": 1}}, {"type": "Feature", "geometry": {"type": "Point", "coordinates": [-32.410364, -3.84572]}, "properties": {"grau": 1}}, {"type": "Feature", "geometry": {"type": "Point", "coordinates": [-32.409686, -3.845067]}, "properties": {"grau": 1}}, {"type": "Feature", "geometry": {"type": "Point", "coordinates": [-32.40672, -3.843663]}, "properties": {"grau": 1}}, {"type": "Feature", "geometry": {"type": "Point", "coordinates": [-32.407058, -3.843418]}, "properties": {"grau": 1}}, {"type": "Feature", "geometry": {"type": "Point", "coordinates": [-32.406748, -3.843788]}, "properties": {"grau": 1}}, {"type": "Feature", "geometry": {"type": "Point", "coordinates": [-32.406677, -3.843509]}, "properties": {"grau": 1}}, {"type": "Feature", "geometry": {"type": "Point", "coordinates": [-32.406507, -3.840437]}, "properties": {"grau": 1}}, {"type": "Feature", "geometry": {"type": "Point", "coordinates": [-32.41031, -3.839852]}, "properties": {"grau": 2}}, {"type": "Feature", "geometry": {"type": "Point", "coordinates": [-32.406648, -3.840496]}, "properties": {"grau": 2}}, {"type": "Feature", "geometry": {"type": "Point", "coordinates": [-32.400381, -3.834619]}, "properties": {"grau": 1}}, {"type": "Feature", "geometry": {"type": "Point", "coordinates": [-32.4006, -3.834157]}, "properties": {"grau": 2}}, {"type": "Feature", "geometry": {"type": "Point", "coordinates": [-32.40036, -3.833939]}, "properties": {"grau": 1}}, {"type": "Feature", "geometry": {"type": "Point", "coordinates": [-32.400699, -3.834238]}, "properties": {"grau": 1}}, {"type": "Feature", "geometry": {"type": "Point", "coordinates": [-32.40052, -3.834738]}, "properties": {"grau": 1}}, {"type": "Feature", "geometry": {"type": "Point", "coordinates": [-32.40042, -3.83516]}, "properties": {"grau": 1}}, {"type": "Feature", "geometry": {"type": "Point", "coordinates": [-32.400096, -3.834697]}, "properties": {"grau": 1}}, {"type": "Feature", "geometry": {"type": "Point", "coordinates": [-32.399066, -3.833353]}, "properties": {"grau": 1}}, {"type": "Feature", "geometry": {"type": "Point", "coordinates": [-32.398759, -3.833515]}, "properties": {"grau": 1}}, {"type": "Feature", "geometry": {"type": "Point", "coordinates": [-32.410401, -3.839887]}, "properties": {"grau": 1}}, {"type": "Feature", "geometry": {"type": "Point", "coordinates": [-32.411081, -3.839375]}, "properties": {"grau": 1}}, {"type": "Feature", "geometry": {"type": "Point", "coordinates": [-32.411142, -3.839401]}, "properties": {"grau": 1}}, {"type": "Feature", "geometry": {"type": "Point", "coordinates": [-32.410933, -3.838652]}, "properties": {"grau": 1}}, {"type": "Feature", "geometry": {"type": "Point", "coordinates": [-32.411153, -3.839272]}, "properties": {"grau": 1}}, {"type": "Feature", "geometry": {"type": "Point", "coordinates": [-32.410373, -3.840514]}, "properties": {"grau": 1}}, {"type": "Feature", "geometry": {"type": "Point", "coordinates": [-32.414822, -3.839618]}, "properties": {"grau": 1}}, {"type": "Feature", "geometry": {"type": "Point", "coordinates": [-32.414831, -3.839451]}, "properties": {"grau": 1}}, {"type": "Feature", "geometry": {"type": "Point", "coordinates": [-32.416219, -3.841913]}, "properties": {"grau": 2}}, {"type": "Feature", "geometry": {"type": "Point", "coordinates": [-32.417124, -3.841863]}, "properties": {"grau": 3}}, {"type": "Feature", "geometry": {"type": "Point", "coordinates": [-32.417338, -3.841546]}, "properties": {"grau": 1}}, {"type": "Feature", "geometry": {"type": "Point", "coordinates": [-32.417278, -3.841983]}, "properties": {"grau": 2}}, {"type": "Feature", "geometry": {"type": "Point", "coordinates": [-32.411186, -3.841486]}, "properties": {"grau": 1}}, {"type": "Feature", "geometry": {"type": "Point", "coordinates": [-32.410817, -3.841469]}, "properties": {"grau": 1}}, {"type": "Feature", "geometry": {"type": "Point", "coordinates": [-32.410711, -3.841767]}, "properties": {"grau": 1}}, {"type": "Feature", "geometry": {"type": "Point", "coordinates": [-32.410507, -3.841755]}, "properties": {"grau": 1}}, {"type": "Feature", "geometry": {"type": "Point", "coordinates": [-32.409436, -3.841736]}, "properties": {"grau": 1}}, {"type": "Feature", "geometry": {"type": "Point", "coordinates": [-32.409359, -3.841958]}, "properties": {"grau": 1}}, {"type": "Feature", "geometry": {"type": "Point", "coordinates": [-32.410488, -3.842404]}, "properties": {"grau": 1}}, {"type": "Feature", "geometry": {"type": "Point", "coordinates": [-32.409509, -3.844989]}, "properties": {"grau": 1}}, {"type": "Feature", "geometry": {"type": "Point", "coordinates": [-32.410273, -3.842789]}, "properties": {"grau": 1}}, {"type": "Feature", "geometry": {"type": "Point", "coordinates": [-32.410465, -3.842002]}, "properties": {"grau": 1}}, {"type": "Feature", "geometry": {"type": "Point", "coordinates": [-32.405519, -3.845323]}, "properties": {"grau": 1}}, {"type": "Feature", "geometry": {"type": "Point", "coordinates": [-32.421639, -3.851242]}, "properties": {"grau": 1}}, {"type": "Feature", "geometry": {"type": "Point", "coordinates": [-32.421561, -3.85093]}, "properties": {"grau": 1}}, {"type": "Feature", "geometry": {"type": "Point", "coordinates": [-32.425997, -3.852097]}, "properties": {"grau": 2}}, {"type": "Feature", "geometry": {"type": "Point", "coordinates": [-32.42607, -3.849843]}, "properties": {"grau": 1}}, {"type": "Feature", "geometry": {"type": "Point", "coordinates": [-32.426559, -3.849473]}, "properties": {"grau": 1}}, {"type": "Feature", "geometry": {"type": "Point", "coordinates": [-32.427369, -3.84815]}, "properties": {"grau": 1}}, {"type": "Feature", "geometry": {"type": "Point", "coordinates": [-32.426916, -3.848087]}, "properties": {"grau": 1}}, {"type": "Feature", "geometry": {"type": "Point", "coordinates": [-32.428134, -3.847532]}, "properties": {"grau": 1}}, {"type": "Feature", "geometry": {"type": "Point", "coordinates": [-32.428527, -3.847732]}, "properties": {"grau": 1}}, {"type": "Feature", "geometry": {"type": "Point", "coordinates": [-32.431471, -3.846866]}, "properties": {"grau": 1}}, {"type": "Feature", "geometry": {"type": "Point", "coordinates": [-32.431541, -3.848851]}, "properties": {"grau": 2}}, {"type": "Feature", "geometry": {"type": "Point", "coordinates": [-32.433837, -3.85068]}, "properties": {"grau": 1}}, {"type": "Feature", "geometry": {"type": "Point", "coordinates": [-32.43276, -3.851536]}, "properties": {"grau": 1}}, {"type": "Feature", "geometry": {"type": "Point", "coordinates": [-32.433157, -3.851128]}, "properties": {"grau": 1}}, {"type": "Feature", "geometry": {"type": "Point", "coordinates": [-32.439442, -3.855757]}, "properties": {"grau": 1}}, {"type": "Feature", "geometry": {"type": "Point", "coordinates": [-32.438999, -3.856894]}, "properties": {"grau": 1}}, {"type": "Feature", "geometry": {"type": "Point", "coordinates": [-32.43374, -3.847632]}, "properties": {"grau": 2}}, {"type": "Feature", "geometry": {"type": "Point", "coordinates": [-32.433848, -3.847337]}, "properties": {"grau": 1}}, {"type": "Feature", "geometry": {"type": "Point", "coordinates": [-32.433312, -3.847684]}, "properties": {"grau": 1}}, {"type": "Feature", "geometry": {"type": "Point", "coordinates": [-32.411636, -3.843775]}, "properties": {"grau": 1}}, {"type": "Feature", "geometry": {"type": "Point", "coordinates": [-32.4122, -3.843399]}, "properties": {"grau": 1}}, {"type": "Feature", "geometry": {"type": "Point", "coordinates": [-32.397805, -3.832597]}, "properties": {"grau": 1}}, {"type": "Feature", "geometry": {"type": "Point", "coordinates": [-32.400219, -3.835038]}, "properties": {"grau": 1}}, {"type": "Feature", "geometry": {"type": "Point", "coordinates": [-32.399216, -3.835663]}, "properties": {"grau": 1}}, {"type": "Feature", "geometry": {"type": "Point", "coordinates": [-32.432233, -3.8487]}, "properties": {"grau": 1}}, {"type": "Feature", "geometry": {"type": "Point", "coordinates": [-32.431862, -3.848115]}, "properties": {"grau": 1}}, {"type": "Feature", "geometry": {"type": "Point", "coordinates": [-32.416591, -3.842192]}, "properties": {"grau": 1}}, {"type": "Feature", "geometry": {"type": "Point", "coordinates": [-32.415274, -3.843548]}, "properties": {"grau": 1}}, {"type": "Feature", "geometry": {"type": "Point", "coordinates": [-32.416968, -3.843517]}, "properties": {"grau": 1}}, {"type": "Feature", "geometry": {"type": "Point", "coordinates": [-32.426489, -3.849542]}, "properties": {"grau": 1}}, {"type": "Feature", "geometry": {"type": "Point", "coordinates": [-32.426462, -3.849687]}, "properties": {"grau": 1}}, {"type": "Feature", "geometry": {"type": "Point", "coordinates": [-32.424373, -3.849314]}, "properties": {"grau": 1}}, {"type": "Feature", "geometry": {"type": "Point", "coordinates": [-32.424304, -3.849915]}, "properties": {"grau": 1}}, {"type": "Feature", "geometry": {"type": "Point", "coordinates": [-32.427527, -3.847651]}, "properties": {"grau": 1}}, {"type": "Feature", "geometry": {"type": "Point", "coordinates": [-32.427701, -3.84786]}, "properties": {"grau": 1}}, {"type": "Feature", "geometry": {"type": "Point", "coordinates": [-32.423937, -3.851786]}, "properties": {"grau": 1}}, {"type": "Feature", "geometry": {"type": "Point", "coordinates": [-32.424345, -3.852694]}, "properties": {"grau": 2}}, {"type": "Feature", "geometry": {"type": "Point", "coordinates": [-32.430393, -3.850986]}, "properties": {"grau": 1}}, {"type": "Feature", "geometry": {"type": "Point", "coordinates": [-32.43052, -3.852526]}, "properties": {"grau": 1}}, {"type": "Feature", "geometry": {"type": "Point", "coordinates": [-32.430461, -3.857578]}, "properties": {"grau": 1}}, {"type": "Feature", "geometry": {"type": "Point", "coordinates": [-32.39906, -3.83098]}, "properties": {"grau": 1}}, {"type": "Feature", "geometry": {"type": "Point", "coordinates": [-32.418949, -3.849991]}, "properties": {"grau": 1}}, {"type": "Feature", "geometry": {"type": "Point", "coordinates": [-32.407851, -3.856086]}, "properties": {"grau": 2}}, {"type": "Feature", "geometry": {"type": "Point", "coordinates": [-32.407743, -3.856125]}, "properties": {"grau": 1}}, {"type": "Feature", "geometry": {"type": "Point", "coordinates": [-32.409966, -3.845154]}, "properties": {"grau": 1}}, {"type": "Feature", "geometry": {"type": "Point", "coordinates": [-32.428668, -3.856649]}, "properties": {"grau": 1}}, {"type": "Feature", "geometry": {"type": "Point", "coordinates": [-32.42881, -3.856376]}, "properties": {"grau": 1}}, {"type": "Feature", "geometry": {"type": "Point", "coordinates": [-32.428208, -3.856419]}, "properties": {"grau": 1}}, {"type": "Feature", "geometry": {"type": "Point", "coordinates": [-32.401719, -3.833785]}, "properties": {"grau": 1}}, {"type": "Feature", "geometry": {"type": "Point", "coordinates": [-32.407107, -3.841134]}, "properties": {"grau": 1}}, {"type": "Feature", "geometry": {"type": "Point", "coordinates": [-32.407137, -3.841045]}, "properties": {"grau": 1}}, {"type": "Feature", "geometry": {"type": "Point", "coordinates": [-32.410433, -3.85634]}, "properties": {"grau": 1}}, {"type": "Feature", "geometry": {"type": "Point", "coordinates": [-32.40894, -3.855808]}, "properties": {"grau": 1}}, {"type": "Feature", "geometry": {"type": "Point", "coordinates": [-32.429252, -3.845985]}, "properties": {"grau": 2}}, {"type": "Feature", "geometry": {"type": "Point", "coordinates": [-32.429226, -3.846142]}, "properties": {"grau": 2}}, {"type": "Feature", "geometry": {"type": "Point", "coordinates": [-32.429231, -3.84608]}, "properties": {"grau": 1}}, {"type": "Feature", "geometry": {"type": "Point", "coordinates": [-32.429212, -3.84596]}, "properties": {"grau": 1}}, {"type": "Feature", "geometry": {"type": "Point", "coordinates": [-32.424671, -3.871563]}, "properties": {"grau": 1}}, {"type": "Feature", "geometry": {"type": "Point", "coordinates": [-32.423526, -3.87245]}, "properties": {"grau": 1}}, {"type": "Feature", "geometry": {"type": "Point", "coordinates": [-32.42708, -3.866128]}, "properties": {"grau": 1}}, {"type": "Feature", "geometry": {"type": "Point", "coordinates": [-32.426917, -3.866137]}, "properties": {"grau": 1}}, {"type": "Feature", "geometry": {"type": "Point", "coordinates": [-32.433984, -3.869689]}, "properties": {"grau": 1}}, {"type": "Feature", "geometry": {"type": "Point", "coordinates": [-32.426316, -3.866446]}, "properties": {"grau": 2}}, {"type": "Feature", "geometry": {"type": "Point", "coordinates": [-32.433132, -3.856432]}, "properties": {"grau": 1}}, {"type": "Feature", "geometry": {"type": "Point", "coordinates": [-32.432523, -3.856427]}, "properties": {"grau": 1}}, {"type": "Feature", "geometry": {"type": "Point", "coordinates": [-32.428458, -3.861516]}, "properties": {"grau": 1}}, {"type": "Feature", "geometry": {"type": "Point", "coordinates": [-32.428878, -3.860571]}, "properties": {"grau": 2}}, {"type": "Feature", "geometry": {"type": "Point", "coordinates": [-32.429376, -3.860762]}, "properties": {"grau": 1}}, {"type": "Feature", "geometry": {"type": "Point", "coordinates": [-32.439419, -3.855707]}, "properties": {"grau": 1}}, {"type": "Feature", "geometry": {"type": "Point", "coordinates": [-32.447945, -3.867635]}, "properties": {"grau": 1}}, {"type": "Feature", "geometry": {"type": "Point", "coordinates": [-32.448071, -3.867916]}, "properties": {"grau": 1}}, {"type": "Feature", "geometry": {"type": "Point", "coordinates": [-32.44418, -3.856776]}, "properties": {"grau": 2}}, {"type": "Feature", "geometry": {"type": "Point", "coordinates": [-32.442174, -3.852171]}, "properties": {"grau": 1}}, {"type": "Feature", "geometry": {"type": "Point", "coordinates": [-32.442349, -3.854325]}, "properties": {"grau": 2}}, {"type": "Feature", "geometry": {"type": "Point", "coordinates": [-32.442351, -3.854306]}, "properties": {"grau": 2}}, {"type": "Feature", "geometry": {"type": "Point", "coordinates": [-32.442321, -3.854551]}, "properties": {"grau": 1}}, {"type": "Feature", "geometry": {"type": "Point", "coordinates": [-32.442163, -3.854429]}, "properties": {"grau": 1}}, {"type": "Feature", "geometry": {"type": "Point", "coordinates": [-32.442339, -3.854364]}, "properties": {"grau": 2}}, {"type": "Feature", "geometry": {"type": "Point", "coordinates": [-32.439876, -3.855158]}, "properties": {"grau": 2}}, {"type": "Feature", "geometry": {"type": "Point", "coordinates": [-32.439909, -3.855072]}, "properties": {"grau": 2}}, {"type": "Feature", "geometry": {"type": "Point", "coordinates": [-32.439805, -3.855061]}, "properties": {"grau": 1}}, {"type": "Feature", "geometry": {"type": "Point", "coordinates": [-32.442722, -3.854375]}, "properties": {"grau": 1}}, {"type": "Feature", "geometry": {"type": "Point", "coordinates": [-32.446604, -3.858308]}, "properties": {"grau": 1}}, {"type": "Feature", "geometry": {"type": "Point", "coordinates": [-32.42491, -3.852614]}, "properties": {"grau": 1}}, {"type": "Feature", "geometry": {"type": "Point", "coordinates": [-32.431665, -3.848088]}, "properties": {"grau": 1}}]}