{"type": "FeatureCollection", "features": [{"type": "Feature", "properties": {"nome": "gravata"}, "geometry": {"type": "Polygon", "coordinates": [[[-37.1, -10.9], [-37.0, -10.8], [-37.1, -10.8], [-37.0, -10.9], [-37.1, -10.9]]]}}, {"type": "Feature", "properties": {"nome": "ok"}, "geometry": {"type": "Polygon", "coordinates": [[[-37.3, -10.9], [-37.2, -10.9], [-37.2, -10.8], [-37.3, -10.8], [-37.3, -10.9]]]}}, {"type": "Feature", "properties": {"nome": "anel_nao_fechado_e_duplicado"}, "geometry": {"type": "Polygon", "coordinates": [[[-37.5, -10.9], [-37.4, -10.9], [-37.4, -10.9], [-37.4, -10.8], [-37.5, -10.8]]]}}]}