{
"type": "FeatureCollection",
"name": "pontos_municipais_ap_rr",
"crs": { "type": "name", "properties": { "name": "urn:ogc:def:crs:OGC:1.3:CRS84" } },
"features": [
{ "type": "Feature", "properties": { "cd_mun": "1400027", "nome": "Amajari", "cd_uf": "14" }, "geometry": { "type": "Point", "coordinates": [ -61.810255344668434, 3.724796750000053 ] } },
{ "type": "Feature", "properties": { "cd_mun": "1400050", "nome": "Alto Alegre", "cd_uf": "14" }, "geometry": { "type": "Point", "coordinates": [ -62.60912002484622, 3.103715050000034 ] } },
{ "type": "Feature", "properties": { "cd_mun": "1400100", "nome": "Boa Vista", "cd_uf": "14" }, "geometry": { "type": "Point", "coordinates": [ -60.744283030355611, 3.01751955000006 ] } },
{ "type": "Feature", "properties": { "cd_mun": "1400159", "nome": "Bonfim", "cd_uf": "14" }, "geometry": { "type": "Point", "coordinates": [ -60.175028601949762, 2.793621350000052 ] } },
{ "type": "Feature", "properties": { "cd_mun": "1400175", "nome": "Cantá", "cd_uf": "14" }, "geometry": { "type": "Point", "coordinates": [ -60.536611023222108, 2.295396650000072 ] } },
{ "type": "Feature", "properties": { "cd_mun": "1400209", "nome": "Caracaraí", "cd_uf": "14" }, "geometry": { "type": "Point", "coordinates": [ -62.108495013594961, 0.311564700000048 ] } },
{ "type": "Feature", "properties": { "cd_mun": "1400233", "nome": "Caroebe", "cd_uf": "14" }, "geometry": { "type": "Point", "coordinates": [ -59.325772590753154, 0.962390850000048 ] } },
{ "type": "Feature", "properties": { "cd_mun": "1400282", "nome": "Iracema", "cd_uf": "14" }, "geometry": { "type": "Point", "coordinates": [ -61.668343134914579, 2.175014150000067 ] } },
{ "type": "Feature", "properties": { "cd_mun": "1400308", "nome": "Mucajaí", "cd_uf": "14" }, "geometry": { "type": "Point", "coordinates": [ -61.995661833624752, 2.52575 ] } },
{ "type": "Feature", "properties": { "cd_mun": "1400407", "nome": "Normandia", "cd_uf": "14" }, "geometry": { "type": "Point", "coordinates": [ -60.032152305275531, 3.836214500000068 ] } },
{ "type": "Feature", "properties": { "cd_mun": "1400456", "nome": "Pacaraima", "cd_uf": "14" }, "geometry": { "type": "Point", "coordinates": [ -60.887367313125104, 4.166427600000048 ] } },
{ "type": "Feature", "properties": { "cd_mun": "1400472", "nome": "Rorainópolis", "cd_uf": "14" }, "geometry": { "type": "Point", "coordinates": [ -61.061475808419601, -0.216786849999949 ] } },
{ "type": "Feature", "properties": { "cd_mun": "1400506", "nome": "São João da Baliza", "cd_uf": "14" }, "geometry": { "type": "Point", "coordinates": [ -59.921165048082202, 0.769359800000046 ] } },
{ "type": "Feature", "properties": { "cd_mun": "1400605", "nome": "São Luiz", "cd_uf": "14" }, "geometry": { "type": "Point", "coordinates": [ -60.144584741947142, 0.846404450000051 ] } },
{ "type": "Feature", "properties": { "cd_mun": "1400704", "nome": "Uiramutã", "cd_uf": "14" }, "geometry": { "type": "Point", "coordinates": [ -60.335405886366345, 4.71630760000005 ] } },
{ "type": "Feature", "properties": { "cd_mun": "1600055", "nome": "Serra do Navio", "cd_uf": "16" }, "geometry": { "type": "Point", "coordinates": [ -52.270261743490238, 1.642439900000056 ] } },
{ "type": "Feature", "properties": { "cd_mun": "1600105", "nome": "Amapá", "cd_uf": "16" }, "geometry": { "type": "Point", "coordinates": [ -50.248501271856313, 1.673569450000059 ] } },
{ "type": "Feature", "properties": { "cd_mun": "1600154", "nome": "Pedra Branca do Amapari", "cd_uf": "16" }, "geometry": { "type": "Point", "coordinates": [ -52.687445335837324, 1.232296200000064 ] } },
{ "type": "Feature", "properties": { "cd_mun": "1600204", "nome": "Calçoene", "cd_uf": "16" }, "geometry": { "type": "Point", "coordinates": [ -51.243596276110608, 2.61496635000006 ] } },
{ "type": "Feature", "properties": { "cd_mun": "1600212", "nome": "Cutias", "cd_uf": "16" }, "geometry": { "type": "Point", "coordinates": [ -50.339094900155352, 1.066151900000051 ] } },
{ "type": "Feature", "properties": { "cd_mun": "1600238", "nome": "Ferreira Gomes", "cd_uf": "16" }, "geometry": { "type": "Point", "coordinates": [ -51.224683823019326, 0.873597400000051 ] } },
{ "type": "Feature", "properties": { "cd_mun": "1600253", "nome": "Itaubal", "cd_uf": "16" }, "geometry": { "type": "Point", "coordinates": [ -50.61388744282938, 0.490261100000055 ] } },
{ "type": "Feature", "properties": { "cd_mun": "1600279", "nome": "Laranjal do Jari", "cd_uf": "16" }, "geometry": { "type": "Point", "coordinates": [ -52.95202217101415, 0.774346400000042 ] } },
{ "type": "Feature", "properties": { "cd_mun": "1600303", "nome": "Macapá", "cd_uf": "16" }, "geometry": { "type": "Point", "coordinates": [ -50.953103107085923, 0.571554 ] } },
{ "type": "Feature", "properties": { "cd_mun": "1600402", "nome": "Mazagão", "cd_uf": "16" }, "geometry": { "type": "Point", "coordinates": [ -51.975894120124607, -0.043153099999955 ] } },
{ "type": "Feature", "properties": { "cd_mun": "1600501", "nome": "Oiapoque", "cd_uf": "16" }, "geometry": { "type": "Point", "coordinates": [ -51.743012496065944, 3.225426350000049 ] } },
{ "type": "Feature", "properties": { "cd_mun": "1600535", "nome": "Porto Grande", "cd_uf": "16" }, "geometry": { "type": "Point", "coordinates": [ -51.501888059981496, 0.614708300000046 ] } },
{ "type": "Feature", "properties": { "cd_mun": "1600550", "nome": "Pracuúba", "cd_uf": "16" }, "geometry": { "type": "Point", "coordinates": [ -50.734587202025352, 1.606715800000046 ] } },
{ "type": "Feature", "properties": { "cd_mun": "1600600", "nome": "Santana", "cd_uf": "16" }, "geometry": { "type": "Point", "coordinates": [ -51.421042547980818, 0.175621200000023 ] } },
{ "type": "Feature", "properties": { "cd_mun": "1600709", "nome": "Tartarugalzinho", "cd_uf": "16" }, "geometry": { "type": "Point", "coordinates": [ -50.932899399704908, 1.311514750000043 ] } },
{ "type": "Feature", "properties": { "cd_mun": "1600808", "nome": "Vitória do Jari", "cd_uf": "16" }, "geometry": { "type": "Point", "coordinates": [ -52.050232933264667, -1.016838574499957 ] } }
]
}
