{
"type": "FeatureCollection",
"name": "rodovias_federais_ac",
"crs": { "type": "name", "properties": { "name": "urn:ogc:def:crs:EPSG::4674" } },
"features": [
{ "type": "Feature", "properties": { "codigo_br": "307", "uf": "AC", "sigla_tipo_trecho": "B", "local_inicio": "ENTR BR-307/364/AC-307", "local_fim": "ENTR BR-307/364 (INÍCIO TRAVESSIA RIO JURUÁ)", "km_ini": 156.6, "km_fim": 179.0, "extensao": 22.4, "superficie_federal": "PAV", "versao_snv": "202607A" }, "geometry": { "type": "MultiLineString", "coordinates": [ [ [ -72.44323958, -7.7464273 ], [ -72.44730765, -7.74576222 ], [ -72.45376029, -7.74270326 ], [ -72.45641736, -7.74205673 ], [ -72.45881671, -7.74205767 ], [ -72.46518937, -7.74351083 ], [ -72.46727798, -7.74363605 ], [ -72.47930221, -7.74227629 ], [ -72.4848134, -7.74124873 ], [ -72.4964751, -7.74018782 ], [ -72.64336584, -7.72207075 ] ] ] } },
{ "type": "Feature", "properties": { "codigo_br": "307", "uf": "AC", "sigla_tipo_trecho": "B", "local_inicio": "ENTR BR-307/364 (INÍCIO TRAVESSIA RIO JURUÁ)", "local_fim": "INÍCIO PONTE S/RIO JURUÁ", "km_ini": 179.0, "km_fim": 189.6, "extensao": 10.6, "superficie_federal": "PAV", "versao_snv": "202607A" }, "geometry": { "type": "MultiLineString", "coordinates": [ [ [ -72.64336584, -7.72207075 ], [ -72.64137772, -7.71080462 ], [ -72.64013597, -7.70158858 ], [ -72.63924825, -7.68633331 ], [ -72.63976064, -7.68441439 ], [ -72.63993085, -7.67725051 ], [ -72.6392184, -7.67309501 ], [ -72.64082622, -7.66840952 ], [ -72.64308906, -7.66330097 ], [ -72.64638216, -7.66154126 ], [ -72.64762322, -7.66003945 ], [ -72.64852443, -7.65498882 ], [ -72.64842112, -7.65035362 ], [ -72.65083093, -7.64895018 ], [ -72.65340308, -7.64636076 ], [ -72.65800221, -7.64447921 ], [ -72.66527675, -7.64404617 ], [ -72.66659437, -7.64271449 ] ] ] } },
{ "type": "Feature", "properties": { "codigo_br": "307", "uf": "AC", "sigla_tipo_trecho": "B", "local_inicio": "INÍCIO PONTE S/RIO JURUÁ", "local_fim": "FIM PONTE S/RIO JURUÁ (CRUZEIRO DO SUL)", "km_ini": 189.6, "km_fim": 190.2, "extensao": 0.6, "superficie_federal": "PAV", "versao_snv": "202607A" }, "geometry": { "type": "MultiLineString", "coordinates": [ [ [ -72.66659437, -7.64271449 ], [ -72.66918343, -7.63846525 ] ] ] } },
{ "type": "Feature", "properties": { "codigo_br": "307", "uf": "AC", "sigla_tipo_trecho": "B", "local_inicio": "FIM PONTE S/RIO JURUÁ (CRUZEIRO DO SUL)", "local_fim": "ROTATÓRIA AV.COPACABANA (CRUZEIRO DO SUL)", "km_ini": 190.2, "km_fim": 192.4, "extensao": 2.2, "superficie_federal": "PLA", "versao_snv": "202607A" }, "geometry": { "type": "MultiLineString", "coordinates": [ [ [ -72.66918343, -7.63846525 ], [ -72.67531117, -7.62871839 ], [ -72.67685033, -7.62696123 ], [ -72.67794308, -7.6240398 ], [ -72.67916613, -7.62205069 ], [ -72.67851037, -7.62163038 ] ] ] } },
{ "type": "Feature", "properties": { "codigo_br": "307", "uf": "AC", "sigla_tipo_trecho": "B", "local_inicio": "ROTATÓRIA AV.COPACABANA (CRUZEIRO DO SUL)", "local_fim": "INÍCIO PISTA DUPLA (61º BIS) (CRUZEIRO DO SUL)", "km_ini": 192.4, "km_fim": 193.7, "extensao": 1.3, "superficie_federal": "PLA", "versao_snv": "202607A" }, "geometry": { "type": "MultiLineString", "coordinates": [ [ [ -72.67851037, -7.62163038 ], [ -72.68107133, -7.61703385 ], [ -72.68137914, -7.61222531 ], [ -72.68077409, -7.61069415 ] ] ] } },
{ "type": "Feature", "properties": { "codigo_br": "307", "uf": "AC", "sigla_tipo_trecho": "B", "local_inicio": "INÍCIO PISTA DUPLA (61º BIS) (CRUZEIRO DO SUL)", "local_fim": "ROTATÓRIA ESTRADA DO BALNEÁRIO CANELA FINA (CRUZEIRO DO SUL)", "km_ini": 193.7, "km_fim": 199.7, "extensao": 6.0, "superficie_federal": "PLA", "versao_snv": "202607A" }, "geometry": { "type": "MultiLineString", "coordinates": [ [ [ -72.68077409, -7.61069415 ], [ -72.68163788, -7.60369827 ], [ -72.68277917, -7.60210986 ], [ -72.68344329, -7.5990773 ], [ -72.68320614, -7.59740981 ], [ -72.68124491, -7.59275899 ], [ -72.68130944, -7.59217418 ], [ -72.68306388, -7.58922209 ], [ -72.68545319, -7.58829942 ], [ -72.69111898, -7.59154461 ], [ -72.69498946, -7.58985065 ], [ -72.69702082, -7.59040408 ], [ -72.70244921, -7.58680037 ], [ -72.70586929, -7.58516535 ], [ -72.70986816, -7.58396072 ], [ -72.71380997, -7.58091303 ] ] ] } },
{ "type": "Feature", "properties": { "codigo_br": "307", "uf": "AC", "sigla_tipo_trecho": "B", "local_inicio": "ROTATÓRIA ESTRADA DO BALNEÁRIO CANELA FINA (CRUZEIRO DO SUL)", "local_fim": "DIV AC/AM", "km_ini": 199.7, "km_fim": 209.2, "extensao": 9.5, "superficie_federal": "PLA", "versao_snv": "202607A" }, "geometry": { "type": "MultiLineString", "coordinates": [ [ [ -72.71380997, -7.58091303 ], [ -72.71611838, -7.57011442 ], [ -72.71871654, -7.56787128 ], [ -72.72116772, -7.56666964 ], [ -72.72265122, -7.56254235 ], [ -72.72298543, -7.5592783 ], [ -72.72406295, -7.55750746 ], [ -72.72425903, -7.55529857 ], [ -72.72571512, -7.54894859 ], [ -72.72518264, -7.54702432 ], [ -72.72367047, -7.54492389 ], [ -72.72023228, -7.54124045 ], [ -72.71566104, -7.53885861 ], [ -72.7134463, -7.5370308 ], [ -72.71198137, -7.53533071 ], [ -72.71042931, -7.52974018 ], [ -72.70989025, -7.52149601 ], [ -72.71196939, -7.5152703 ], [ -72.71211414, -7.51263493 ], [ -72.71174974, -7.50978414 ], [ -72.71315077, -7.50545972 ] ] ] } },
{ "type": "Feature", "properties": { "codigo_br": "307", "uf": "AC", "sigla_tipo_trecho": "B", "local_inicio": "ENTR AC-190/378 (MARECHAL TAUMATURGO)", "local_fim": "ENTR AC-090 (PORTO VALTER)", "km_ini": 0.0, "km_fim": 80.4, "extensao": 80.4, "superficie_federal": "PLA", "versao_snv": "202607A" }, "geometry": { "type": "MultiLineString", "coordinates": [ [ [ -72.8026736, -8.93811551 ], [ -72.77129531, -8.26997143 ] ] ] } },
{ "type": "Feature", "properties": { "codigo_br": "307", "uf": "AC", "sigla_tipo_trecho": "B", "local_inicio": "ENTR AC-090 (PORTO VALTER)", "local_fim": "INÍCIO TRECHO IMPLANTADO", "km_ini": 80.4, "km_fim": 116.0, "extensao": 35.6, "superficie_federal": "PLA", "versao_snv": "202607A" }, "geometry": { "type": "MultiLineString", "coordinates": [ [ [ -72.77129531, -8.26997143 ], [ -72.40260285, -8.02400507 ] ] ] } },
{ "type": "Feature", "properties": { "codigo_br": "307", "uf": "AC", "sigla_tipo_trecho": "B", "local_inicio": "INÍCIO TRECHO IMPLANTADO", "local_fim": "ENTR RAMAL 03", "km_ini": 116.0, "km_fim": 121.7, "extensao": 5.7, "superficie_federal": "PLA", "versao_snv": "202607A" }, "geometry": { "type": "MultiLineString", "coordinates": [ [ [ -72.40260285, -8.02400507 ], [ -72.4094959, -7.98464053 ] ] ] } },
{ "type": "Feature", "properties": { "codigo_br": "307", "uf": "AC", "sigla_tipo_trecho": "B", "local_inicio": "ENTR RAMAL 03", "local_fim": "INÍCIO TRECHO PAVIMENTADO", "km_ini": 121.7, "km_fim": 131.2, "extensao": 9.5, "superficie_federal": "PLA", "versao_snv": "202607A" }, "geometry": { "type": "MultiLineString", "coordinates": [ [ [ -72.4094959, -7.98464053 ], [ -72.42098433, -7.91903295 ] ] ] } },
{ "type": "Feature", "properties": { "codigo_br": "307", "uf": "AC", "sigla_tipo_trecho": "B", "local_inicio": "INÍCIO TRECHO PAVIMENTADO", "local_fim": "ENTR BR-307/364/AC-307", "km_ini": 131.2, "km_fim": 156.6, "extensao": 25.4, "superficie_federal": "PLA", "versao_snv": "202607A" }, "geometry": { "type": "MultiLineString", "coordinates": [ [ [ -72.42098433, -7.91903295 ], [ -72.44800921, -7.76470046 ], [ -72.44482617, -7.76456566 ], [ -72.44353078, -7.75280615 ], [ -72.44323958, -7.7464273 ] ] ] } },
{ "type": "Feature", "properties": { "codigo_br": "317", "uf": "AC", "sigla_tipo_trecho": "B", "local_inicio": "INÍCIO DUPLICAÇÃO (VILA CAPIXABA)", "local_fim": "FIM DUPLICAÇÃO (VILA CAPIXABA)", "km_ini": 143.4, "km_fim": 144.8, "extensao": 1.4, "superficie_federal": "DUP", "versao_snv": "202607A" }, "geometry": { "type": "MultiLineString", "coordinates": [ [ [ -67.6756031, -10.56907635 ], [ -67.67509367, -10.57226962 ], [ -67.67555642, -10.57446129 ], [ -67.68038814, -10.57974401 ] ] ] } },
{ "type": "Feature", "properties": { "codigo_br": "317", "uf": "AC", "sigla_tipo_trecho": "B", "local_inicio": "FIM DUPLICAÇÃO (VILA CAPIXABA)", "local_fim": "ENTR AC-485 (P/XAPURÍ)", "km_ini": 144.8, "km_fim": 237.5, "extensao": 92.7, "superficie_federal": "PAV", "versao_snv": "202607A" }, "geometry": { "type": "MultiLineString", "coordinates": [ [ [ -67.68038814, -10.57974401 ], [ -67.68135717, -10.58047287 ], [ -67.6825231, -10.5808294 ], [ -67.69298502, -10.58081662 ], [ -67.6942636, -10.5811545 ], [ -67.70542672, -10.59134968 ], [ -67.71853876, -10.60118371 ], [ -67.71969318, -10.60174992 ], [ -67.73219595, -10.60275943 ], [ -67.78944826, -10.60329074 ], [ -67.79196207, -10.60395407 ], [ -67.80523837, -10.61029964 ], [ -67.80759839, -10.61083079 ], [ -67.8096182, -10.61065763 ], [ -67.81157411, -10.60989583 ], [ -67.82176897, -10.60248849 ], [ -67.83541845, -10.58492039 ], [ -67.83728412, -10.58348813 ], [ -67.83941299, -10.58285025 ], [ -67.88147824, -10.58554957 ], [ -67.89444903, -10.5895091 ], [ -67.95662168, -10.59578266 ], [ -67.96019773, -10.59521906 ], [ -67.97200011, -10.59022373 ], [ -67.97476679, -10.58976048 ], [ -67.97729674, -10.58995925 ], [ -67.98062822, -10.59117889 ], [ -67.98686114, -10.5955587 ], [ -67.98925114, -10.59668232 ], [ -68.02097246, -10.60345117 ], [ -68.02287273, -10.60414705 ], [ -68.02471197, -10.60538609 ], [ -68.04474723, -10.6225467 ], [ -68.04678428, -10.62372875 ], [ -68.04959413, -10.62420441 ], [ -68.06045928, -10.62320576 ], [ -68.06224658, -10.62351701 ], [ -68.06407381, -10.62437671 ], [ -68.11868929, -10.68105309 ], [ -68.14404332, -10.6944418 ], [ -68.15069456, -10.70093886 ], [ -68.15233546, -10.70183436 ], [ -68.18436222, -10.7022017 ], [ -68.18700011, -10.70186136 ], [ -68.25682762, -10.66828729 ], [ -68.25895885, -10.66758164 ], [ -68.2613984, -10.66743336 ], [ -68.3140252, -10.673079 ], [ -68.34998487, -10.68159635 ], [ -68.37205064, -10.69521996 ], [ -68.42508882, -10.7145938 ], [ -68.42721248, -10.71655598 ], [ -68.42984589, -10.72511261 ] ] ] } },
{ "type": "Feature", "properties": { "codigo_br": "317", "uf": "AC", "sigla_tipo_trecho": "B", "local_inicio": "ACESSO LESTE EPITACIOLÂNDIA", "local_fim": "ACESSO NORTE BRASILÉIA", "km_ini": 289.3, "km_fim": 298.3, "extensao": 9.0, "superficie_federal": "PLA", "versao_snv": "202607A" }, "geometry": { "type": "MultiLineString", "coordinates": [ [ [ -68.71474366, -11.03687562 ], [ -68.71989505, -11.01616367 ], [ -68.73366525, -10.9856787 ], [ -68.7413731, -10.98273412 ], [ -68.75442004, -10.97925467 ], [ -68.7582793, -10.97962729 ], [ -68.76169022, -10.98406064 ] ] ] } },
{ "type": "Feature", "properties": { "codigo_br": "317", "uf": "AC", "sigla_tipo_trecho": "B", "local_inicio": "ENTR AC-485 (P/XAPURÍ)", "local_fim": "ACESSO LESTE EPITACIOLÂNDIA", "km_ini": 237.5, "km_fim": 289.3, "extensao": 51.8, "superficie_federal": "PAV", "versao_snv": "202607A" }, "geometry": { "type": "MultiLineString", "coordinates": [ [ [ -68.42984589, -10.72511261 ], [ -68.43427649, -10.73963076 ], [ -68.43414066, -10.74131676 ], [ -68.43230201, -10.74706967 ], [ -68.43270931, -10.75233936 ], [ -68.45282448, -10.78550012 ], [ -68.4570569, -10.81328207 ], [ -68.45790307, -10.81459275 ], [ -68.4714422, -10.83027916 ], [ -68.48062648, -10.83704321 ], [ -68.48183362, -10.83829364 ], [ -68.49351998, -10.86611182 ], [ -68.50204051, -10.87612461 ], [ -68.50443274, -10.87774324 ], [ -68.53949453, -10.88954274 ], [ -68.5552921, -10.89985586 ], [ -68.56167692, -10.90559306 ], [ -68.56764348, -10.91142767 ], [ -68.5730475, -10.91792678 ], [ -68.57524731, -10.92660456 ], [ -68.58549659, -10.94981544 ], [ -68.58701054, -10.95230809 ], [ -68.59337854, -10.96038686 ], [ -68.60369187, -10.96701799 ], [ -68.63657303, -10.97385776 ], [ -68.63765744, -10.97440871 ], [ -68.63960961, -10.97727058 ], [ -68.64015721, -10.97887955 ], [ -68.64027739, -10.99240396 ], [ -68.64910463, -11.00315383 ], [ -68.65260983, -11.00574185 ], [ -68.65439113, -11.00764019 ], [ -68.6549742, -11.00886675 ], [ -68.65674164, -11.01584784 ], [ -68.65745583, -11.01713509 ], [ -68.65850463, -11.0181935 ], [ -68.65989292, -11.01892668 ], [ -68.66625559, -11.02070968 ], [ -68.67565222, -11.02021367 ], [ -68.68355707, -11.02118739 ], [ -68.71474366, -11.03687562 ] ] ] } },
{ "type": "Feature", "properties": { "codigo_br": "317", "uf": "AC", "sigla_tipo_trecho": "B", "local_inicio": "ACESSO NORTE BRASILÉIA", "local_fim": "TRILHA CHICO MENDES (RAMAL SANTA LUZIA)", "km_ini": 298.3, "km_fim": 379.3, "extensao": 81.0, "superficie_federal": "PAV", "versao_snv": "202607A" }, "geometry": { "type": "MultiLineString", "coordinates": [ [ [ -68.76169022, -10.98406064 ], [ -68.76194926, -10.98221364 ], [ -68.76395267, -10.97648183 ], [ -68.76907424, -10.96937016 ], [ -68.77226916, -10.96691384 ], [ -68.77348046, -10.9665485 ], [ -68.77487002, -10.96670875 ], [ -68.77998013, -10.96998027 ], [ -68.78164827, -10.97029241 ], [ -68.78332295, -10.9696532 ], [ -68.78998695, -10.96396586 ], [ -68.79417824, -10.96245388 ], [ -68.7962485, -10.96234328 ], [ -68.80226151, -10.96339275 ], [ -68.80579369, -10.96490918 ], [ -68.80911495, -10.96400192 ], [ -68.81275209, -10.96230591 ], [ -68.81448219, -10.96054663 ], [ -68.82102857, -10.94531559 ], [ -68.82228873, -10.94430221 ], [ -68.82665492, -10.94279334 ], [ -68.8304913, -10.93815695 ], [ -68.83181259, -10.9376935 ], [ -68.83322437, -10.93787091 ], [ -68.84084582, -10.94224902 ], [ -68.84792715, -10.9446409 ], [ -68.84953054, -10.94458209 ], [ -68.85138414, -10.9432459 ], [ -68.85833284, -10.93444148 ], [ -68.86268303, -10.93056013 ], [ -68.86434713, -10.92979335 ], [ -68.86589384, -10.92983565 ], [ -68.88165148, -10.93256318 ], [ -68.89190259, -10.93850917 ], [ -68.90578597, -10.94117403 ], [ -68.90710203, -10.94211443 ], [ -68.90898707, -10.94544651 ], [ -68.90995078, -10.94629662 ], [ -68.92400586, -10.95066561 ], [ -68.92769312, -10.95275885 ], [ -68.92915393, -10.95265235 ], [ -68.93350646, -10.95031904 ], [ -68.93496115, -10.9499677 ], [ -68.94720011, -10.95398466 ], [ -68.94837158, -10.95380943 ], [ -68.94944003, -10.95318795 ], [ -68.9642416, -10.93814958 ], [ -68.96586376, -10.93723645 ], [ -68.96803931, -10.9375582 ], [ -68.97603528, -10.94369106 ], [ -68.98872315, -10.94493835 ], [ -68.99011176, -10.94456055 ], [ -68.99113491, -10.94360648 ], [ -68.9942158, -10.93689432 ], [ -68.99513545, -10.93583399 ], [ -69.00677316, -10.9321396 ], [ -69.00826291, -10.93198708 ], [ -69.0147887, -10.93334537 ], [ -69.01907804, -10.93577627 ], [ -69.02026075, -10.93596192 ], [ -69.02150625, -10.93570281 ], [ -69.03323798, -10.93065092 ], [ -69.034175, -10.92990578 ], [ -69.03479361, -10.92888908 ], [ -69.04089948, -10.91306686 ], [ -69.04087752, -10.91159054 ], [ -69.03930738, -10.90564127 ], [ -69.03860707, -10.8953907 ], [ -69.03900823, -10.89414073 ], [ -69.04204532, -10.88890336 ], [ -69.06060673, -10.878618 ], [ -69.06150184, -10.8774464 ], [ -69.06294127, -10.87286561 ], [ -69.06428522, -10.8715014 ], [ -69.07807374, -10.86765958 ], [ -69.07926774, -10.86704719 ], [ -69.08006365, -10.86609323 ], [ -69.08041167, -10.86508126 ], [ -69.08006026, -10.85980438 ], [ -69.08064699, -10.85801163 ], [ -69.08914062, -10.85190853 ], [ -69.0936811, -10.85083949 ], [ -69.09826957, -10.8521077 ], [ -69.10093201, -10.851644 ], [ -69.11402567, -10.84581362 ], [ -69.13542025, -10.83089408 ], [ -69.14455715, -10.82797716 ], [ -69.15585017, -10.82664365 ], [ -69.19572794, -10.82318225 ], [ -69.21633344, -10.82188161 ], [ -69.23327024, -10.81845555 ], [ -69.24605822, -10.81760128 ], [ -69.2958543, -10.81113725 ], [ -69.33383901, -10.81193598 ], [ -69.3437217, -10.81016229 ], [ -69.36490244, -10.80916466 ] ] ] } },
{ "type": "Feature", "properties": { "codigo_br": "317", "uf": "AC", "sigla_tipo_trecho": "B", "local_inicio": "TRILHA CHICO MENDES (RAMAL SANTA LUZIA)", "local_fim": "POSTO ALFANDEGÁRIO BRASIL - PERU (ASSIS BRASIL)", "km_ini": 379.3, "km_fim": 407.1, "extensao": 27.8, "superficie_federal": "PAV", "versao_snv": "202607A" }, "geometry": { "type": "MultiLineString", "coordinates": [ [ [ -69.36490244, -10.80916466 ], [ -69.37251362, -10.8088096 ], [ -69.37441839, -10.80846707 ], [ -69.38251248, -10.80539248 ], [ -69.38897053, -10.80222292 ], [ -69.39156275, -10.80183655 ], [ -69.3988139, -10.80346767 ], [ -69.41042245, -10.80770706 ], [ -69.41518106, -10.80878392 ], [ -69.42667216, -10.8133624 ], [ -69.47863955, -10.85958296 ], [ -69.48981833, -10.87057573 ], [ -69.49251209, -10.87271966 ], [ -69.49998437, -10.88013964 ], [ -69.50438707, -10.88386068 ], [ -69.50719412, -10.88696021 ], [ -69.51229333, -10.89130662 ], [ -69.51912208, -10.89564273 ], [ -69.52506034, -10.90178069 ], [ -69.53075896, -10.90487442 ], [ -69.55508041, -10.92447016 ], [ -69.55614827, -10.92578202 ], [ -69.55849898, -10.93096901 ], [ -69.55919059, -10.93112056 ], [ -69.56127491, -10.93016638 ], [ -69.56223397, -10.93021726 ], [ -69.5655845, -10.93346145 ] ] ] } },
{ "type": "Feature", "properties": { "codigo_br": "317", "uf": "AC", "sigla_tipo_trecho": "B", "local_inicio": "POSTO ALFANDEGÁRIO BRASIL - PERU (ASSIS BRASIL)", "local_fim": "FRONTEIRA BRASIL/PERÚ", "km_ini": 407.1, "km_fim": 408.9, "extensao": 1.8, "superficie_federal": "PAV", "versao_snv": "202607A" }, "geometry": { "type": "MultiLineString", "coordinates": [ [ [ -69.5655845, -10.93346145 ], [ -69.56681653, -10.93535767 ], [ -69.56732469, -10.93567224 ], [ -69.57079124, -10.93542733 ], [ -69.57355424, -10.93628983 ], [ -69.57647296, -10.93938782 ], [ -69.5770674, -10.94144513 ] ] ] } },
{ "type": "Feature", "properties": { "codigo_br": "317", "uf": "AC", "sigla_tipo_trecho": "A", "local_inicio": "ACESSO NORTE BRASILÉIA", "local_fim": "INÍCIO PONTE S/RIO ACRE", "km_ini": 0.0, "km_fim": 4.0, "extensao": 4.0, "superficie_federal": "PAV", "versao_snv": "202607A" }, "geometry": { "type": "MultiLineString", "coordinates": [ [ [ -68.76169022, -10.98406064 ], [ -68.76159357, -10.98760104 ], [ -68.76098449, -10.98911017 ], [ -68.74847756, -11.00251821 ], [ -68.74588923, -11.00448048 ], [ -68.74554333, -11.00676097 ], [ -68.74241905, -11.00920344 ], [ -68.74204738, -11.01025916 ], [ -68.74186928, -11.01289802 ], [ -68.74433705, -11.01598047 ], [ -68.74418873, -11.01654433 ] ] ] } },
{ "type": "Feature", "properties": { "codigo_br": "317", "uf": "AC", "sigla_tipo_trecho": "B", "local_inicio": "DIV AM/AC", "local_fim": "ENTR AC-445 (VILA PIA)", "km_ini": 0.0, "km_fim": 38.6, "extensao": 38.6, "superficie_federal": "PAV", "versao_snv": "202607A" }, "geometry": { "type": "MultiLineString", "coordinates": [ [ [ -67.32727348, -9.59568789 ], [ -67.32805767, -9.59698141 ], [ -67.3280011, -9.59774175 ], [ -67.32924287, -9.59895606 ], [ -67.33334731, -9.60598987 ], [ -67.33962843, -9.62315123 ], [ -67.33911742, -9.62503927 ], [ -67.32748605, -9.64201125 ], [ -67.32574237, -9.6615719 ], [ -67.32626769, -9.66412156 ], [ -67.33679343, -9.68191759 ], [ -67.33716106, -9.68297912 ], [ -67.33454478, -9.70025064 ], [ -67.33613135, -9.71050157 ], [ -67.33301479, -9.71951067 ], [ -67.33308923, -9.72145076 ], [ -67.35140369, -9.75162678 ], [ -67.36227473, -9.76498403 ], [ -67.36279947, -9.76669582 ], [ -67.36310776, -9.77376278 ], [ -67.36805457, -9.78211324 ], [ -67.40716233, -9.80460956 ], [ -67.40799756, -9.80554903 ], [ -67.41947, -9.82462478 ], [ -67.43678492, -9.83447123 ], [ -67.43800393, -9.83561751 ], [ -67.4413353, -9.84410603 ], [ -67.4415455, -9.84607074 ], [ -67.44156635, -9.8700713 ], [ -67.43757993, -9.87944519 ], [ -67.43754331, -9.88095889 ], [ -67.43827301, -9.88269398 ] ] ] } },
{ "type": "Feature", "properties": { "codigo_br": "317", "uf": "AC", "sigla_tipo_trecho": "B", "local_inicio": "ENTR AC-445 (VILA PIA)", "local_fim": "IGARAPÉ BAGAÇO", "km_ini": 38.6, "km_fim": 48.5, "extensao": 9.9, "superficie_federal": "PAV", "versao_snv": "202607A" }, "geometry": { "type": "MultiLineString", "coordinates": [ [ [ -67.43827301, -9.88269398 ], [ -67.44642879, -9.90003558 ], [ -67.44702405, -9.90353774 ], [ -67.44623315, -9.91058064 ], [ -67.44869983, -9.91712926 ], [ -67.44968143, -9.91786516 ], [ -67.45094625, -9.91807056 ], [ -67.46801316, -9.91495215 ], [ -67.47013063, -9.91540356 ], [ -67.48126169, -9.92472787 ], [ -67.48509511, -9.9343623 ], [ -67.4902378, -9.94334254 ] ] ] } },
{ "type": "Feature", "properties": { "codigo_br": "317", "uf": "AC", "sigla_tipo_trecho": "B", "local_inicio": "IGARAPÉ BAGAÇO", "local_fim": "ENTR BR-317/364 (QUATRO BOCAS)", "km_ini": 48.5, "km_fim": 69.5, "extensao": 21.0, "superficie_federal": "PAV", "versao_snv": "202607A" }, "geometry": { "type": "MultiLineString", "coordinates": [ [ [ -67.4902378, -9.94334254 ], [ -67.49311689, -9.94929778 ], [ -67.49347648, -9.96033919 ], [ -67.49695179, -9.96652385 ], [ -67.49733821, -9.96810468 ], [ -67.49661159, -9.97382762 ], [ -67.49737692, -9.97685942 ], [ -67.4972198, -9.97831332 ], [ -67.49055078, -9.98663999 ], [ -67.48991918, -9.98791655 ], [ -67.48999967, -9.98925878 ], [ -67.4915755, -9.99288426 ], [ -67.49102252, -9.99811758 ], [ -67.49158393, -9.99953386 ], [ -67.49311752, -10.00172975 ], [ -67.49796125, -10.00287532 ], [ -67.49942581, -10.00421253 ], [ -67.50140415, -10.01139855 ], [ -67.50107241, -10.01799006 ], [ -67.50231485, -10.02165041 ], [ -67.50329632, -10.02253188 ], [ -67.50880675, -10.02563269 ], [ -67.51030661, -10.0260229 ], [ -67.52718888, -10.02171123 ], [ -67.52844249, -10.02174101 ], [ -67.52947663, -10.02215209 ], [ -67.53074, -10.02357309 ], [ -67.53398272, -10.03301057 ], [ -67.53531678, -10.03492697 ], [ -67.55225562, -10.04424824 ], [ -67.55321306, -10.04543465 ], [ -67.55940136, -10.05625129 ], [ -67.56073294, -10.05770796 ], [ -67.58072629, -10.06866111 ], [ -67.58187085, -10.06954655 ] ] ] } },
{ "type": "Feature", "properties": { "codigo_br": "317", "uf": "AC", "sigla_tipo_trecho": "B", "local_inicio": "ENTR BR-317/364 (QUATRO BOCAS)", "local_fim": "ENTR AC-040 (P/ SEN. GUIOMARD)", "km_ini": 69.5, "km_fim": 91.0, "extensao": 21.5, "superficie_federal": "PAV", "versao_snv": "202607A" }, "geometry": { "type": "MultiLineString", "coordinates": [ [ [ -67.58187085, -10.06954655 ], [ -67.58247977, -10.06962139 ], [ -67.5879035, -10.07253869 ], [ -67.58944833, -10.07368308 ], [ -67.59016356, -10.07501265 ], [ -67.59213425, -10.08165761 ], [ -67.59361458, -10.08379962 ], [ -67.61454702, -10.1009062 ], [ -67.61624222, -10.10194413 ], [ -67.63577645, -10.1052976 ], [ -67.64883356, -10.1096295 ], [ -67.65041374, -10.10991159 ], [ -67.65247906, -10.1095855 ], [ -67.66881829, -10.10345895 ], [ -67.67091222, -10.10322801 ], [ -67.67256229, -10.10376732 ], [ -67.68677883, -10.1110781 ], [ -67.68803153, -10.11223506 ], [ -67.68882795, -10.1136224 ], [ -67.69300647, -10.12747781 ], [ -67.69438988, -10.12862112 ], [ -67.70056611, -10.13030953 ], [ -67.70247824, -10.1316531 ], [ -67.71170769, -10.15180813 ], [ -67.72506279, -10.16528614 ] ] ] } },
{ "type": "Feature", "properties": { "codigo_br": "317", "uf": "AC", "sigla_tipo_trecho": "B", "local_inicio": "ENTR AC-040 (P/ SEN. GUIOMARD)", "local_fim": "ENTR AC-040 (P/PLÁCIDO DE CASTRO)", "km_ini": 91.0, "km_fim": 97.5, "extensao": 6.5, "superficie_federal": "PAV", "versao_snv": "202607A" }, "geometry": { "type": "MultiLineString", "coordinates": [ [ [ -67.72506279, -10.16528614 ], [ -67.72227887, -10.16722619 ], [ -67.72142914, -10.16829597 ], [ -67.7212178, -10.1693896 ], [ -67.72142579, -10.17329121 ], [ -67.72059672, -10.17495517 ], [ -67.7134645, -10.18139738 ], [ -67.70531557, -10.18493807 ], [ -67.70416023, -10.18599502 ], [ -67.69961531, -10.19507499 ], [ -67.69635686, -10.21119681 ] ] ] } },
{ "type": "Feature", "properties": { "codigo_br": "317", "uf": "AC", "sigla_tipo_trecho": "B", "local_inicio": "ENTR AC-040 (P/PLÁCIDO DE CASTRO)", "local_fim": "COLÔNIA CIDADE HORTIGRANJEIRA", "km_ini": 97.5, "km_fim": 127.7, "extensao": 30.2, "superficie_federal": "PAV", "versao_snv": "202607A" }, "geometry": { "type": "MultiLineString", "coordinates": [ [ [ -67.69635686, -10.21119681 ], [ -67.70604869, -10.22722341 ], [ -67.70830976, -10.23503958 ], [ -67.70829053, -10.23703565 ], [ -67.70468159, -10.2556072 ], [ -67.70745441, -10.27565404 ], [ -67.70706786, -10.27679788 ], [ -67.70632406, -10.27759225 ], [ -67.69691126, -10.28365067 ], [ -67.69586916, -10.28497418 ], [ -67.69350019, -10.28945341 ], [ -67.69324126, -10.29468105 ], [ -67.69149618, -10.298126 ], [ -67.69124815, -10.29959342 ], [ -67.69379223, -10.30639268 ], [ -67.6939564, -10.30824328 ], [ -67.69355372, -10.30973828 ], [ -67.69016051, -10.31702196 ], [ -67.68950306, -10.32324343 ], [ -67.68785924, -10.32956128 ], [ -67.68800815, -10.3526538 ], [ -67.68746878, -10.35404801 ], [ -67.68457223, -10.35783246 ], [ -67.68443641, -10.3600178 ], [ -67.68499603, -10.36111731 ], [ -67.68608236, -10.36176717 ], [ -67.7001557, -10.36447805 ], [ -67.70183318, -10.36412855 ], [ -67.70623364, -10.36130905 ], [ -67.70735846, -10.36132553 ], [ -67.70827326, -10.36194253 ], [ -67.71303687, -10.38147508 ], [ -67.71557826, -10.38689137 ], [ -67.72102185, -10.40617383 ], [ -67.72168166, -10.40754211 ], [ -67.72451378, -10.41114114 ], [ -67.72501639, -10.41287358 ], [ -67.71842342, -10.43282643 ], [ -67.70588148, -10.44877281 ] ] ] } },
{ "type": "Feature", "properties": { "codigo_br": "317", "uf": "AC", "sigla_tipo_trecho": "B", "local_inicio": "COLÔNIA CIDADE HORTIGRANJEIRA", "local_fim": "INÍCIO DUPLICAÇÃO (VILA CAPIXABA)", "km_ini": 127.7, "km_fim": 143.4, "extensao": 15.7, "superficie_federal": "PAV", "versao_snv": "202607A" }, "geometry": { "type": "MultiLineString", "coordinates": [ [ [ -67.70588148, -10.44877281 ], [ -67.69973018, -10.45643962 ], [ -67.67550288, -10.48215976 ], [ -67.67469151, -10.48480387 ], [ -67.67336618, -10.50728197 ], [ -67.67287639, -10.50847664 ], [ -67.66782331, -10.51638555 ], [ -67.66332073, -10.52474677 ], [ -67.66331359, -10.52763757 ], [ -67.66408342, -10.52964866 ], [ -67.66992579, -10.53635334 ], [ -67.6766441, -10.54457209 ], [ -67.67723242, -10.54567412 ], [ -67.67774453, -10.55719492 ], [ -67.6756031, -10.56907635 ] ] ] } },
{ "type": "Feature", "properties": { "codigo_br": "364", "uf": "AC", "sigla_tipo_trecho": "B", "local_inicio": "FIM DE TRECHO NAVEGÁVEL", "local_fim": "FRONTEIRA BRASIL/PERU (BOQUEIRÃO DA ESPERANÇA)", "km_ini": 813.6, "km_fim": 887.6, "extensao": 74.0, "superficie_federal": "PLA", "versao_snv": "202607A" }, "geometry": { "type": "MultiLineString", "coordinates": [ [ [ -73.09533647, -7.67441938 ], [ -73.42604959, -7.84041551 ], [ -73.7050736, -7.95321551 ] ] ] } },
{ "type": "Feature", "properties": { "codigo_br": "364", "uf": "AC", "sigla_tipo_trecho": "B", "local_inicio": "IGARAPÉ SÃO SALVADOR", "local_fim": "INÍCIO PONTE S/RIO TARAUACÁ", "km_ini": 522.3, "km_fim": 535.5, "extensao": 13.2, "superficie_federal": "PAV", "versao_snv": "202607A" }, "geometry": { "type": "MultiLineString", "coordinates": [ [ [ -70.63217881, -8.1818012 ], [ -70.66870564, -8.17327627 ], [ -70.68647004, -8.1685714 ], [ -70.7007926, -8.16821493 ], [ -70.72276865, -8.15879085 ], [ -70.7237509, -8.15787396 ], [ -70.72756553, -8.15269463 ], [ -70.72940201, -8.15162836 ], [ -70.74567151, -8.15201638 ] ] ] } },
{ "type": "Feature", "properties": { "codigo_br": "364", "uf": "AC", "sigla_tipo_trecho": "B", "local_inicio": "ENTR AC-405 (ACESSO NORTE STA ROSA)", "local_fim": "ENTR AC-405 (MÂNCIO LIMA)", "km_ini": 777.0, "km_fim": 787.6, "extensao": 10.6, "superficie_federal": "PLA", "versao_snv": "202607A" }, "geometry": { "type": "MultiLineString", "coordinates": [ [ [ -72.82050515, -7.65617626 ], [ -72.82162124, -7.65624099 ], [ -72.83374367, -7.65076563 ], [ -72.84010402, -7.64676406 ], [ -72.85030908, -7.64454485 ], [ -72.85645846, -7.64042406 ], [ -72.87225534, -7.63245422 ], [ -72.88040046, -7.62606075 ], [ -72.88969045, -7.62460314 ], [ -72.8916668, -7.62371285 ], [ -72.90009486, -7.6172358 ], [ -72.90205162, -7.61358286 ], [ -72.90432321, -7.61281529 ] ] ] } },
{ "type": "Feature", "properties": { "codigo_br": "364", "uf": "AC", "sigla_tipo_trecho": "B", "local_inicio": "ENTR AC-405 (MÂNCIO LIMA)", "local_fim": "FIM DA PAVIMENTAÇÃO", "km_ini": 787.6, "km_fim": 792.3, "extensao": 4.7, "superficie_federal": "PLA", "versao_snv": "202607A" }, "geometry": { "type": "MultiLineString", "coordinates": [ [ [ -72.90432321, -7.61281529 ], [ -72.90321968, -7.60853108 ], [ -72.91133686, -7.60608151 ], [ -72.91588643, -7.60353139 ], [ -72.91695361, -7.60277076 ], [ -72.92144504, -7.59757971 ], [ -72.92763507, -7.59274872 ], [ -72.93289436, -7.59908005 ] ] ] } },
{ "type": "Feature", "properties": { "codigo_br": "364", "uf": "AC", "sigla_tipo_trecho": "B", "local_inicio": "FIM DA PAVIMENTAÇÃO", "local_fim": "FIM DE TRECHO NAVEGÁVEL", "km_ini": 792.3, "km_fim": 813.6, "extensao": 21.3, "superficie_federal": "PLA", "versao_snv": "202607A" }, "geometry": { "type": "MultiLineString", "coordinates": [ [ [ -72.93289436, -7.59908005 ], [ -72.93609529, -7.59975905 ], [ -72.94077756, -7.59836381 ], [ -72.94234748, -7.59822379 ], [ -72.94552925, -7.59650473 ], [ -72.94657117, -7.59704949 ], [ -72.95035825, -7.59744432 ], [ -72.95254648, -7.59600459 ], [ -72.95320692, -7.59511889 ], [ -72.95392978, -7.5950589 ], [ -72.95496595, -7.59551404 ], [ -72.95867522, -7.5953269 ], [ -72.96064836, -7.59573558 ], [ -72.96602234, -7.59868703 ], [ -72.96794805, -7.59906775 ], [ -72.97008509, -7.60002582 ], [ -72.97460654, -7.60331949 ], [ -72.976271, -7.60614697 ], [ -72.98216634, -7.60898638 ], [ -72.98605712, -7.6094985 ], [ -72.98951985, -7.61112956 ], [ -72.99915883, -7.61900097 ], [ -73.00746613, -7.62351919 ], [ -73.01021551, -7.62538679 ], [ -73.01350354, -7.628721 ], [ -73.01459263, -7.62945285 ], [ -73.01565761, -7.63121936 ], [ -73.01837641, -7.63381478 ], [ -73.02346145, -7.63612664 ], [ -73.02556395, -7.63600181 ], [ -73.02764507, -7.6374444 ], [ -73.03090132, -7.6386257 ], [ -73.03323171, -7.64065889 ], [ -73.03471934, -7.64121893 ], [ -73.03710372, -7.64343529 ], [ -73.03963427, -7.64453094 ], [ -73.04211701, -7.64707872 ], [ -73.04483284, -7.64845344 ], [ -73.04750286, -7.65045178 ], [ -73.04946253, -7.65134116 ], [ -73.0497826, -7.65220844 ], [ -73.04947901, -7.65435374 ], [ -73.05162363, -7.65424036 ], [ -73.0581832, -7.65730232 ], [ -73.06105666, -7.65665593 ], [ -73.06480127, -7.65737853 ], [ -73.0659233, -7.65838484 ], [ -73.07086457, -7.65897713 ], [ -73.0746693, -7.6581688 ], [ -73.07604365, -7.66473566 ], [ -73.09533647, -7.67441938 ] ] ] } },
{ "type": "Feature", "properties": { "codigo_br": "364", "uf": "AC", "sigla_tipo_trecho": "A", "local_inicio": "ACESSO OESTE MANUEL URBANO", "local_fim": "MANOEL URBANO", "km_ini": 0.0, "km_fim": 6.4, "extensao": 6.4, "superficie_federal": "PAV", "versao_snv": "202607A" }, "geometry": { "type": "MultiLineString", "coordinates": [ [ [ -69.32026215, -8.83905972 ], [ -69.31672622, -8.83766082 ], [ -69.31400613, -8.83751141 ], [ -69.30802741, -8.83458673 ], [ -69.30253618, -8.83128972 ], [ -69.29973574, -8.82836294 ], [ -69.29576986, -8.82623126 ], [ -69.29485857, -8.82541927 ], [ -69.29304977, -8.82471279 ], [ -69.28512246, -8.82707208 ], [ -69.28304329, -8.82837714 ], [ -69.27994172, -8.82839943 ], [ -69.27472864, -8.82936866 ], [ -69.26927562, -8.83165209 ] ] ] } },
{ "type": "Feature", "properties": { "codigo_br": "364", "uf": "AC", "sigla_tipo_trecho": "B", "local_inicio": "DIV RO/AC", "local_fim": "ENTR AC-475 (P/ ACRELÂNDIA)", "km_ini": 0.0, "km_fim": 31.1, "extensao": 31.1, "superficie_federal": "PAV", "versao_snv": "202607A" }, "geometry": { "type": "MultiLineString", "coordinates": [ [ [ -66.80216619, -9.77057433 ], [ -66.81398939, -9.77331409 ], [ -66.87342318, -9.82107536 ], [ -66.87744408, -9.82377453 ], [ -66.87912214, -9.82567175 ], [ -66.8918645, -9.83598442 ], [ -66.90969599, -9.86101146 ], [ -66.97744225, -9.9360737 ], [ -66.97975218, -9.93736561 ], [ -66.9821729, -9.93785633 ], [ -67.01525581, -9.93818473 ] ] ] } },
{ "type": "Feature", "properties": { "codigo_br": "364", "uf": "AC", "sigla_tipo_trecho": "B", "local_inicio": "ENTR AC-475 (P/ ACRELÂNDIA)", "local_fim": "ENTR BR-317/364 (QUATRO BOCAS)", "km_ini": 31.1, "km_fim": 98.6, "extensao": 67.5, "superficie_federal": "PAV", "versao_snv": "202607A" }, "geometry": { "type": "MultiLineString", "coordinates": [ [ [ -67.01525581, -9.93818473 ], [ -67.03747846, -9.93839233 ], [ -67.03986353, -9.93874552 ], [ -67.16533371, -9.98466906 ], [ -67.18421259, -9.9954602 ], [ -67.25079039, -10.02750942 ], [ -67.26725227, -10.04112111 ], [ -67.27696047, -10.04616723 ], [ -67.2858838, -10.0542713 ], [ -67.29803876, -10.06208717 ], [ -67.30060136, -10.06244154 ], [ -67.32014781, -10.0602613 ], [ -67.34618215, -10.06162571 ], [ -67.46886184, -10.11295455 ], [ -67.47103352, -10.11309695 ], [ -67.4730282, -10.11254933 ], [ -67.53939411, -10.08097659 ], [ -67.55811443, -10.07280537 ], [ -67.55969669, -10.07243432 ], [ -67.56132371, -10.07249366 ], [ -67.57055888, -10.07503142 ], [ -67.57278328, -10.07512171 ], [ -67.57524092, -10.07423146 ], [ -67.57964495, -10.07107824 ], [ -67.58061727, -10.0707559 ], [ -67.58187085, -10.06954655 ] ] ] } },
{ "type": "Feature", "properties": { "codigo_br": "364", "uf": "AC", "sigla_tipo_trecho": "B", "local_inicio": "ENTR BR-317/364 (QUATRO BOCAS)", "local_fim": "POSTO DA POLÍCIA RODOVIÁRIA FEDERAL", "km_ini": 98.6, "km_fim": 115.3, "extensao": 16.7, "superficie_federal": "PAV", "versao_snv": "202607A" }, "geometry": { "type": "MultiLineString", "coordinates": [ [ [ -67.58187085, -10.06954655 ], [ -67.58335042, -10.06883107 ], [ -67.58463759, -10.06749102 ], [ -67.6565433, -10.01583076 ], [ -67.65849693, -10.01469606 ], [ -67.66131674, -10.0141025 ], [ -67.71376072, -10.01305685 ] ] ] } },
{ "type": "Feature", "properties": { "codigo_br": "364", "uf": "AC", "sigla_tipo_trecho": "B", "local_inicio": "FIM PONTE S/RIO ACRE", "local_fim": "ENTR AC-090/ESTRADA DA SOBRAL (RIO BRANCO)", "km_ini": 131.3, "km_fim": 131.9, "extensao": 0.6, "superficie_federal": "PAV", "versao_snv": "202607A" }, "geometry": { "type": "MultiLineString", "coordinates": [ [ [ -67.84427193, -10.0111973 ], [ -67.84530602, -10.01039773 ], [ -67.84646954, -10.00836932 ], [ -67.8482423, -10.00685111 ] ] ] } },
{ "type": "Feature", "properties": { "codigo_br": "364", "uf": "AC", "sigla_tipo_trecho": "B", "local_inicio": "FIM PONTE S/RIO TARAUACÁ", "local_fim": "R. CAP. HIPÓLITO (TARAUACÁ)", "km_ini": 535.8, "km_fim": 536.8, "extensao": 1.0, "superficie_federal": "PAV", "versao_snv": "202607A" }, "geometry": { "type": "MultiLineString", "coordinates": [ [ [ -70.74864667, -8.15210537 ], [ -70.75146343, -8.15217612 ], [ -70.75342156, -8.15177979 ], [ -70.75506539, -8.1510134 ], [ -70.7573852, -8.14924536 ] ] ] } },
{ "type": "Feature", "properties": { "codigo_br": "364", "uf": "AC", "sigla_tipo_trecho": "B", "local_inicio": "POSTO DA POLÍCIA RODOVIÁRIA FEDERAL", "local_fim": "INÍCIO DUPLICAÇÃO", "km_ini": 115.3, "km_fim": 121.0, "extensao": 5.7, "superficie_federal": "PAV", "versao_snv": "202607A" }, "geometry": { "type": "MultiLineString", "coordinates": [ [ [ -67.71376072, -10.01305685 ], [ -67.77049945, -10.01179429 ] ] ] } },
{ "type": "Feature", "properties": { "codigo_br": "364", "uf": "AC", "sigla_tipo_trecho": "B", "local_inicio": "ACESSO AO AEROPORTO", "local_fim": "INÍCIO PONTE S/RIOZINHO DO ANDIRÁ", "km_ini": 149.5, "km_fim": 178.8, "extensao": 29.3, "superficie_federal": "PAV", "versao_snv": "202607A" }, "geometry": { "type": "MultiLineString", "coordinates": [ [ [ -67.91041682, -9.87113771 ], [ -67.92477177, -9.84934589 ], [ -67.92718598, -9.84696369 ], [ -68.12880515, -9.72264697 ] ] ] } },
{ "type": "Feature", "properties": { "codigo_br": "364", "uf": "AC", "sigla_tipo_trecho": "B", "local_inicio": "INÍCIO PONTE S/RIOZINHO DO ANDIRÁ", "local_fim": "INÍCIO PONTE S/RIO ANTIMARI", "km_ini": 178.8, "km_fim": 214.8, "extensao": 36.0, "superficie_federal": "PAV", "versao_snv": "202607A" }, "geometry": { "type": "MultiLineString", "coordinates": [ [ [ -68.12880515, -9.72264697 ], [ -68.1646757, -9.70053011 ], [ -68.16682858, -9.69887505 ], [ -68.35595134, -9.48928757 ] ] ] } },
{ "type": "Feature", "properties": { "codigo_br": "364", "uf": "AC", "sigla_tipo_trecho": "B", "local_inicio": "INÍCIO PONTE S/RIO ANTIMARI", "local_fim": "R. MARANHÃO (SENA MADUREIRA)", "km_ini": 214.8, "km_fim": 272.9, "extensao": 58.1, "superficie_federal": "PAV", "versao_snv": "202607A" }, "geometry": { "type": "MultiLineString", "coordinates": [ [ [ -68.35595134, -9.48928757 ], [ -68.44838194, -9.38731888 ], [ -68.50817603, -9.24862185 ], [ -68.55904376, -9.18199794 ], [ -68.62762505, -9.08911463 ], [ -68.62921792, -9.08761242 ], [ -68.63118864, -9.08674648 ], [ -68.66286931, -9.0808437 ], [ -68.66425304, -9.08036594 ] ] ] } },
{ "type": "Feature", "properties": { "codigo_br": "364", "uf": "AC", "sigla_tipo_trecho": "B", "local_inicio": "R. MARANHÃO (SENA MADUREIRA)", "local_fim": "ACESSO OESTE MANUEL URBANO", "km_ini": 272.9, "km_fim": 351.4, "extensao": 78.5, "superficie_federal": "PAV", "versao_snv": "202607A" }, "geometry": { "type": "MultiLineString", "coordinates": [ [ [ -68.66425304, -9.08036594 ], [ -68.69208102, -9.075484 ], [ -68.73039844, -9.07051904 ], [ -68.74318563, -9.06405434 ], [ -68.74476542, -9.06283648 ], [ -68.74759685, -9.05970223 ], [ -68.75180384, -9.05867335 ], [ -68.81428297, -9.01948045 ], [ -68.82498067, -9.0130344 ], [ -68.82710524, -9.01218491 ], [ -69.09462651, -8.95885931 ], [ -69.19463086, -8.93807294 ], [ -69.29793695, -8.8747861 ], [ -69.29937475, -8.87295921 ], [ -69.32026215, -8.83905972 ] ] ] } },
{ "type": "Feature", "properties": { "codigo_br": "364", "uf": "AC", "sigla_tipo_trecho": "B", "local_inicio": "ACESSO OESTE MANUEL URBANO", "local_fim": "INÍCIO PONTE S/RIO MACAPÁ", "km_ini": 351.4, "km_fim": 370.7, "extensao": 19.3, "superficie_federal": "PAV", "versao_snv": "202607A" }, "geometry": { "type": "MultiLineString", "coordinates": [ [ [ -69.32026215, -8.83905972 ], [ -69.32222633, -8.83616919 ], [ -69.32441279, -8.83456364 ], [ -69.47458085, -8.75487876 ] ] ] } },
{ "type": "Feature", "properties": { "codigo_br": "364", "uf": "AC", "sigla_tipo_trecho": "B", "local_inicio": "INÍCIO PONTE S/RIO MACAPÁ", "local_fim": "INÍCIO PONTE S/RIO JURUPARI", "km_ini": 370.7, "km_fim": 425.6, "extensao": 54.9, "superficie_federal": "PAV", "versao_snv": "202607A" }, "geometry": { "type": "MultiLineString", "coordinates": [ [ [ -69.47458085, -8.75487876 ], [ -69.48557162, -8.74915068 ], [ -69.5363125, -8.72121077 ], [ -69.60627926, -8.68445235 ], [ -69.69251794, -8.64046661 ], [ -69.73837613, -8.61822244 ], [ -69.80881544, -8.59360722 ], [ -69.81163049, -8.59285344 ], [ -69.82189277, -8.58905384 ], [ -69.90551627, -8.56124741 ], [ -69.93083741, -8.55236438 ] ] ] } },
{ "type": "Feature", "properties": { "codigo_br": "364", "uf": "AC", "sigla_tipo_trecho": "B", "local_inicio": "INÍCIO PONTE S/RIO JURUPARI", "local_fim": "AV. MAL. DEODORO (FEIJÓ)", "km_ini": 425.6, "km_fim": 490.6, "extensao": 65.0, "superficie_federal": "PAV", "versao_snv": "202607A" }, "geometry": { "type": "MultiLineString", "coordinates": [ [ [ -69.93083741, -8.55236438 ], [ -69.9438813, -8.54788898 ], [ -69.94675694, -8.54716165 ], [ -69.94852344, -8.5461225 ], [ -69.95615383, -8.54395452 ], [ -69.95692356, -8.54342401 ], [ -69.95791593, -8.543335 ], [ -69.96275663, -8.54139369 ], [ -69.96388092, -8.54122324 ], [ -69.96634453, -8.5399031 ], [ -69.97152796, -8.53831171 ], [ -69.97223478, -8.53779345 ], [ -69.97450353, -8.53730319 ], [ -70.02949978, -8.51823404 ], [ -70.03954115, -8.51504817 ], [ -70.09944408, -8.49420198 ], [ -70.13689822, -8.48179323 ], [ -70.15046656, -8.47704973 ], [ -70.1529727, -8.47561025 ], [ -70.15430792, -8.47402707 ], [ -70.15774177, -8.46748403 ], [ -70.17447713, -8.43238263 ], [ -70.17501636, -8.4306945 ], [ -70.17757166, -8.41676605 ], [ -70.17892499, -8.41441065 ], [ -70.22283028, -8.35278415 ], [ -70.29612013, -8.25126482 ], [ -70.32822138, -8.21724266 ], [ -70.34821934, -8.1892213 ], [ -70.34953013, -8.18817359 ], [ -70.35716554, -8.184162 ] ] ] } },
{ "type": "Feature", "properties": { "codigo_br": "364", "uf": "AC", "sigla_tipo_trecho": "B", "local_inicio": "AV. MAL. DEODORO (FEIJÓ)", "local_fim": "IGARAPÉ SÃO SALVADOR", "km_ini": 490.6, "km_fim": 522.3, "extensao": 31.7, "superficie_federal": "PAV", "versao_snv": "202607A" }, "geometry": { "type": "MultiLineString", "coordinates": [ [ [ -70.35716554, -8.184162 ], [ -70.36184319, -8.1816492 ], [ -70.36493388, -8.17940954 ], [ -70.37301458, -8.17582721 ], [ -70.3772481, -8.17174935 ], [ -70.38318436, -8.17026313 ], [ -70.40293251, -8.15964125 ], [ -70.40573068, -8.15858696 ], [ -70.44197028, -8.15900549 ], [ -70.44370132, -8.1592502 ], [ -70.49230741, -8.17877228 ], [ -70.49552631, -8.180625 ], [ -70.49827861, -8.18122168 ], [ -70.52725065, -8.19282703 ], [ -70.61578838, -8.18546613 ], [ -70.63217881, -8.1818012 ] ] ] } },
{ "type": "Feature", "properties": { "codigo_br": "364", "uf": "AC", "sigla_tipo_trecho": "B", "local_inicio": "INÍCIO DUPLICAÇÃO", "local_fim": "ESTRADA DO AMAPÁ/VIA VERDE", "km_ini": 121.0, "km_fim": 125.5, "extensao": 4.5, "superficie_federal": "DUP", "versao_snv": "202607A" }, "geometry": { "type": "MultiLineString", "coordinates": [ [ [ -67.77049945, -10.01179429 ], [ -67.79735821, -10.01136349 ], [ -67.80118007, -10.01341298 ], [ -67.80235969, -10.0137415 ], [ -67.80368419, -10.01368062 ], [ -67.80691131, -10.0127999 ], [ -67.80874683, -10.0128225 ] ] ] } },
{ "type": "Feature", "properties": { "codigo_br": "364", "uf": "AC", "sigla_tipo_trecho": "B", "local_inicio": "INÍCIO PONTE S/RIO TARAUACÁ", "local_fim": "FIM PONTE S/RIO TARAUACÁ", "km_ini": 535.5, "km_fim": 535.8, "extensao": 0.3, "superficie_federal": "PAV", "versao_snv": "202607A" }, "geometry": { "type": "MultiLineString", "coordinates": [ [ [ -70.74567151, -8.15201638 ], [ -70.74864667, -8.15210537 ] ] ] } },
{ "type": "Feature", "properties": { "codigo_br": "364", "uf": "AC", "sigla_tipo_trecho": "B", "local_inicio": "ESTRADA DO AMAPÁ/VIA VERDE", "local_fim": "INÍCIO PONTE S/RIO ACRE", "km_ini": 125.5, "km_fim": 131.0, "extensao": 5.5, "superficie_federal": "PAV", "versao_snv": "202607A" }, "geometry": { "type": "MultiLineString", "coordinates": [ [ [ -67.80874683, -10.0128225 ], [ -67.81192605, -10.01524487 ], [ -67.81451144, -10.02006971 ], [ -67.82032776, -10.0261457 ], [ -67.82362567, -10.02817575 ], [ -67.82586389, -10.02879988 ], [ -67.82795475, -10.02894688 ], [ -67.8301598, -10.0286674 ], [ -67.83228278, -10.02793515 ], [ -67.83458831, -10.02654956 ], [ -67.83608443, -10.0252067 ], [ -67.8394332, -10.02048291 ], [ -67.84089783, -10.01619764 ], [ -67.84114897, -10.01339689 ], [ -67.84168034, -10.01265371 ], [ -67.84261317, -10.01209779 ] ] ] } },
{ "type": "Feature", "properties": { "codigo_br": "364", "uf": "AC", "sigla_tipo_trecho": "B", "local_inicio": "INÍCIO PONTE S/RIO ACRE", "local_fim": "FIM PONTE S/RIO ACRE", "km_ini": 131.0, "km_fim": 131.3, "extensao": 0.3, "superficie_federal": "PAV", "versao_snv": "202607A" }, "geometry": { "type": "MultiLineString", "coordinates": [ [ [ -67.84261317, -10.01209779 ], [ -67.84427193, -10.0111973 ] ] ] } },
{ "type": "Feature", "properties": { "codigo_br": "364", "uf": "AC", "sigla_tipo_trecho": "B", "local_inicio": "ENTR AC-090/ESTRADA DA SOBRAL (RIO BRANCO)", "local_fim": "AV. CEARÁ (RIO BRANCO)", "km_ini": 131.9, "km_fim": 137.5, "extensao": 5.6, "superficie_federal": "DUP", "versao_snv": "202607A" }, "geometry": { "type": "MultiLineString", "coordinates": [ [ [ -67.8482423, -10.00685111 ], [ -67.84884288, -10.00616576 ], [ -67.8497458, -10.00116802 ], [ -67.84864749, -9.99331366 ], [ -67.84766785, -9.98932557 ], [ -67.84489806, -9.98657298 ], [ -67.85662676, -9.9604665 ] ] ] } },
{ "type": "Feature", "properties": { "codigo_br": "364", "uf": "AC", "sigla_tipo_trecho": "B", "local_inicio": "AV. CEARÁ (RIO BRANCO)", "local_fim": "ACESSO AO AEROPORTO", "km_ini": 137.5, "km_fim": 149.5, "extensao": 12.0, "superficie_federal": "DUP", "versao_snv": "202607A" }, "geometry": { "type": "MultiLineString", "coordinates": [ [ [ -67.85662676, -9.9604665 ], [ -67.85863298, -9.95642421 ], [ -67.86033668, -9.95431827 ], [ -67.87562725, -9.94158612 ], [ -67.87635913, -9.94065241 ], [ -67.87703977, -9.9403922 ], [ -67.88262178, -9.93571887 ], [ -67.8843694, -9.93366546 ], [ -67.88524947, -9.93141186 ], [ -67.89301465, -9.89830373 ], [ -67.91041682, -9.87113771 ] ] ] } },
{ "type": "Feature", "properties": { "codigo_br": "364", "uf": "AC", "sigla_tipo_trecho": "B", "local_inicio": "R. CAP. HIPÓLITO (TARAUACÁ)", "local_fim": "AV. AVELINO LEAL (TARAUACÁ)", "km_ini": 536.8, "km_fim": 540.3, "extensao": 3.5, "superficie_federal": "PAV", "versao_snv": "202607A" }, "geometry": { "type": "MultiLineString", "coordinates": [ [ [ -70.7573852, -8.14924536 ], [ -70.76156845, -8.14484634 ], [ -70.76485658, -8.1420554 ], [ -70.76624607, -8.14144959 ], [ -70.76813971, -8.14134245 ], [ -70.77199901, -8.14240752 ], [ -70.78568207, -8.14186591 ] ] ] } },
{ "type": "Feature", "properties": { "codigo_br": "364", "uf": "AC", "sigla_tipo_trecho": "B", "local_inicio": "AV. AVELINO LEAL (TARAUACÁ)", "local_fim": "INÍCIO PONTE S/RIO GREGÓRIO", "km_ini": 540.3, "km_fim": 620.9, "extensao": 80.6, "superficie_federal": "PAV", "versao_snv": "202607A" }, "geometry": { "type": "MultiLineString", "coordinates": [ [ [ -70.78568207, -8.14186591 ], [ -70.82454294, -8.13819506 ], [ -70.88380502, -8.13333925 ], [ -70.88899785, -8.13176789 ], [ -70.89426753, -8.13256749 ], [ -70.89781213, -8.13180393 ], [ -70.90390464, -8.13180322 ], [ -70.9123031, -8.13092042 ], [ -70.91582737, -8.13144366 ], [ -70.91789225, -8.13135155 ], [ -70.92649451, -8.12861409 ], [ -70.92797874, -8.12840251 ], [ -70.93039664, -8.12829694 ], [ -70.93435697, -8.12903643 ], [ -70.94217298, -8.12851186 ], [ -70.99005506, -8.12430211 ], [ -71.00663898, -8.12325505 ], [ -71.01626213, -8.12208292 ], [ -71.08199972, -8.08932867 ], [ -71.08975859, -8.08579341 ], [ -71.13549887, -8.07987347 ], [ -71.17259796, -8.07444493 ], [ -71.17603602, -8.07288491 ], [ -71.1984583, -8.06040015 ], [ -71.20151135, -8.05937634 ], [ -71.24728909, -8.05750555 ], [ -71.25517262, -8.05522305 ], [ -71.25850823, -8.05516854 ], [ -71.26539656, -8.05214986 ], [ -71.28191555, -8.0472769 ], [ -71.2856459, -8.04677327 ], [ -71.28993105, -8.04702828 ], [ -71.2944783, -8.04393633 ], [ -71.30645596, -8.03933121 ], [ -71.35723822, -8.00619513 ], [ -71.36077927, -8.00493192 ], [ -71.36295245, -8.00252079 ], [ -71.37891914, -7.99213931 ], [ -71.46625428, -7.95683539 ], [ -71.4808162, -7.95414092 ] ] ] } },
{ "type": "Feature", "properties": { "codigo_br": "364", "uf": "AC", "sigla_tipo_trecho": "B", "local_inicio": "INÍCIO PONTE S/RIO GREGÓRIO", "local_fim": "INÍCIO PONTE S/RIO LIBERDADE", "km_ini": 620.9, "km_fim": 682.9, "extensao": 62.0, "superficie_federal": "PAV", "versao_snv": "202607A" }, "geometry": { "type": "MultiLineString", "coordinates": [ [ [ -71.4808162, -7.95414092 ], [ -71.54954139, -7.94191701 ], [ -71.56376553, -7.93390001 ], [ -71.58732869, -7.91428628 ], [ -71.61151999, -7.90349458 ], [ -71.63181585, -7.89739098 ], [ -71.69965966, -7.88315714 ], [ -71.78438413, -7.85474477 ], [ -71.79801465, -7.85117482 ], [ -71.80542754, -7.85011093 ], [ -71.81141418, -7.84989284 ], [ -71.82776333, -7.84794917 ], [ -71.86300939, -7.83748139 ], [ -71.99696801, -7.8090504 ], [ -72.02066394, -7.80000861 ] ] ] } },
{ "type": "Feature", "properties": { "codigo_br": "364", "uf": "AC", "sigla_tipo_trecho": "B", "local_inicio": "INÍCIO PONTE S/RIO LIBERDADE", "local_fim": "ENTR BR-307/364/AC-307", "km_ini": 682.9, "km_fim": 730.1, "extensao": 47.2, "superficie_federal": "PAV", "versao_snv": "202607A" }, "geometry": { "type": "MultiLineString", "coordinates": [ [ [ -72.02066394, -7.80000861 ], [ -72.04002669, -7.79245069 ], [ -72.04267008, -7.79182895 ], [ -72.23663021, -7.76971577 ], [ -72.25874816, -7.76958237 ], [ -72.26113147, -7.76895497 ], [ -72.26522731, -7.76663924 ], [ -72.2673118, -7.76615518 ], [ -72.38255224, -7.75266863 ], [ -72.44323958, -7.7464273 ] ] ] } },
{ "type": "Feature", "properties": { "codigo_br": "364", "uf": "AC", "sigla_tipo_trecho": "B", "local_inicio": "ENTR BR-307/364/AC-307", "local_fim": "ENTR BR-307/364 (INÍCIO TRAVESSIA RIO JURUÁ)", "km_ini": 730.1, "km_fim": 752.5, "extensao": 22.4, "superficie_federal": "PAV", "versao_snv": "202607A" }, "geometry": { "type": "MultiLineString", "coordinates": [ [ [ -72.44323958, -7.7464273 ], [ -72.44730765, -7.74576222 ], [ -72.45376029, -7.74270326 ], [ -72.45641736, -7.74205673 ], [ -72.45881671, -7.74205767 ], [ -72.46518937, -7.74351083 ], [ -72.46727798, -7.74363605 ], [ -72.47930221, -7.74227629 ], [ -72.4848134, -7.74124873 ], [ -72.4964751, -7.74018782 ], [ -72.64336584, -7.72207075 ] ] ] } },
{ "type": "Feature", "properties": { "codigo_br": "364", "uf": "AC", "sigla_tipo_trecho": "B", "local_inicio": "ENTR BR-307/364 (INÍCIO TRAVESSIA RIO JURUÁ)", "local_fim": "ENTR AC-407 (FIM TRAVESSIA RIO JURUÁ)", "km_ini": 752.5, "km_fim": 752.7, "extensao": 0.2, "superficie_federal": "TRV", "versao_snv": "202607A" }, "geometry": { "type": "MultiLineString", "coordinates": [ [ [ -72.64336584, -7.72207075 ], [ -72.64552993, -7.72165905 ] ] ] } },
{ "type": "Feature", "properties": { "codigo_br": "364", "uf": "AC", "sigla_tipo_trecho": "B", "local_inicio": "ENTR AC-407 (FIM TRAVESSIA RIO JURUÁ)", "local_fim": "ACESSO OESTE RODRIGUES ALVES", "km_ini": 752.7, "km_fim": 757.6, "extensao": 4.9, "superficie_federal": "PLA", "versao_snv": "202607A" }, "geometry": { "type": "MultiLineString", "coordinates": [ [ [ -72.64552993, -7.72165905 ], [ -72.649617, -7.720773 ], [ -72.656449, -7.71743 ], [ -72.657779, -7.717178 ], [ -72.659124, -7.71733 ], [ -72.6851951, -7.7312879 ] ] ] } },
{ "type": "Feature", "properties": { "codigo_br": "364", "uf": "AC", "sigla_tipo_trecho": "B", "local_inicio": "ACESSO OESTE RODRIGUES ALVES", "local_fim": "ENTR AC-405 (ACESSO NORTE STA ROSA)", "km_ini": 757.6, "km_fim": 777.0, "extensao": 19.4, "superficie_federal": "PLA", "versao_snv": "202607A" }, "geometry": { "type": "MultiLineString", "coordinates": [ [ [ -72.6851951, -7.7312879 ], [ -72.69023466, -7.73683496 ], [ -72.69150138, -7.73764955 ], [ -72.69486373, -7.73898157 ], [ -72.70137777, -7.73876282 ], [ -72.7035351, -7.73758283 ], [ -72.70600274, -7.73690541 ], [ -72.71426363, -7.73545081 ], [ -72.71610792, -7.73336402 ], [ -72.71928695, -7.72822275 ], [ -72.72225357, -7.72546156 ], [ -72.72903535, -7.72560871 ], [ -72.73284037, -7.72520781 ], [ -72.74101487, -7.72513531 ], [ -72.7962535, -7.68740073 ], [ -72.8049609, -7.68552015 ], [ -72.80578375, -7.68510354 ], [ -72.80701952, -7.68350237 ], [ -72.81246771, -7.66467963 ], [ -72.81388715, -7.660864 ], [ -72.81710615, -7.65757744 ], [ -72.82050515, -7.65617626 ] ] ] } },
{ "type": "Feature", "properties": { "codigo_br": "409", "uf": "AC", "sigla_tipo_trecho": "B", "local_inicio": "ENTR AC-329", "local_fim": "ENTR AC-090 (SANTA ROSA)", "km_ini": 122.0, "km_fim": 152.0, "extensao": 30.0, "superficie_federal": "PLA", "versao_snv": "202607A" }, "geometry": { "type": "MultiLineString", "coordinates": [ [ [ -70.46339245, -9.18580177 ], [ -70.4765736, -9.43321551 ] ] ] } },
{ "type": "Feature", "properties": { "codigo_br": "409", "uf": "AC", "sigla_tipo_trecho": "B", "local_inicio": "IGARAPÉ CONSULTA", "local_fim": "ENTR AC-329", "km_ini": 32.0, "km_fim": 122.0, "extensao": 90.0, "superficie_federal": "PLA", "versao_snv": "202607A" }, "geometry": { "type": "MultiLineString", "coordinates": [ [ [ -70.39056211, -8.44630655 ], [ -70.4543736, -9.01651551 ], [ -70.46339245, -9.18580177 ] ] ] } },
{ "type": "Feature", "properties": { "codigo_br": "409", "uf": "AC", "sigla_tipo_trecho": "B", "local_inicio": "AV. MAL. DEODORO (FEIJÓ)", "local_fim": "IGARAPÉ CONSULTA", "km_ini": 0.0, "km_fim": 32.0, "extensao": 32.0, "superficie_federal": "PLA", "versao_snv": "202607A" }, "geometry": { "type": "MultiLineString", "coordinates": [ [ [ -70.35716554, -8.184162 ], [ -70.37929097, -8.34558947 ], [ -70.39056211, -8.44630655 ] ] ] } }
]
}
