{
"type": "FeatureCollection",
"name": "rodovias_federais_rr",
"crs": { "type": "name", "properties": { "name": "urn:ogc:def:crs:EPSG::4674" } },
"features": [
{ "type": "Feature", "properties": { "codigo_br": "174", "uf": "RR", "sigla_tipo_trecho": "B", "local_inicio": "INÍCIO PONTE S/RIO CAUAMÉ", "local_fim": "ACESSO NORTE BOA VISTA", "km_ini": 514.5, "km_fim": 522.5, "extensao": 8.0, "superficie_federal": "PAV", "versao_snv": "202607A" }, "geometry": { "type": "MultiLineString", "coordinates": [ [ [ -60.77448126, 2.90440912 ], [ -60.76993834, 2.91151637 ], [ -60.76673919, 2.91570168 ], [ -60.76600311, 2.91776038 ], [ -60.76546298, 2.92357268 ], [ -60.76478204, 2.92489665 ], [ -60.76086887, 2.92963321 ], [ -60.74914345, 2.94941415 ], [ -60.74356533, 2.95977893 ], [ -60.73973571, 2.96565515 ] ] ] } },
{ "type": "Feature", "properties": { "codigo_br": "174", "uf": "RR", "sigla_tipo_trecho": "B", "local_inicio": "INÍCIO PONTE S/IGARAPÉ SGT. ÁVILA", "local_fim": "FRONT BRASIL/VENEZUELA (MARCO BV8)", "km_ini": 709.4, "km_fim": 714.8, "extensao": 5.4, "superficie_federal": "PAV", "versao_snv": "202607A" }, "geometry": { "type": "MultiLineString", "coordinates": [ [ [ -61.12474909, 4.44508822 ], [ -61.12752023, 4.44751806 ], [ -61.12914963, 4.45035771 ], [ -61.12992021, 4.45085877 ], [ -61.13211806, 4.45145737 ], [ -61.13330118, 4.45267955 ], [ -61.1335781, 4.45352329 ], [ -61.13325951, 4.45637703 ], [ -61.1340417, 4.45774713 ], [ -61.13696104, 4.46036053 ], [ -61.14195087, 4.46207757 ], [ -61.14315096, 4.46295429 ], [ -61.14377618, 4.46544613 ], [ -61.14466982, 4.46747961 ], [ -61.14750275, 4.47202574 ], [ -61.14843619, 4.48259898 ] ] ] } },
{ "type": "Feature", "properties": { "codigo_br": "174", "uf": "RR", "sigla_tipo_trecho": "B", "local_inicio": "COMUNIDADE SOROCAIMA", "local_fim": "INÍCIO PONTE S/IGARAPÉ SGT. ÁVILA", "km_ini": 701.1, "km_fim": 709.4, "extensao": 8.3, "superficie_federal": "PAV", "versao_snv": "202607A" }, "geometry": { "type": "MultiLineString", "coordinates": [ [ [ -61.15690902, 4.41957789 ], [ -61.15396366, 4.42266492 ], [ -61.15211817, 4.4238188 ], [ -61.15056809, 4.42419596 ], [ -61.14800416, 4.42409265 ], [ -61.14485912, 4.4245332 ], [ -61.12962831, 4.43025945 ], [ -61.12230109, 4.43054269 ], [ -61.12032028, 4.42896908 ], [ -61.1144111, 4.42817305 ], [ -61.11376204, 4.42829567 ], [ -61.11274013, 4.42910462 ], [ -61.11104013, 4.42938679 ], [ -61.10908587, 4.43039232 ], [ -61.10892059, 4.43108602 ], [ -61.10920455, 4.43160564 ], [ -61.12474909, 4.44508822 ] ] ] } },
{ "type": "Feature", "properties": { "codigo_br": "174", "uf": "RR", "sigla_tipo_trecho": "B", "local_inicio": "RIO SURUMU", "local_fim": "COMUNIDADE SOROCAIMA", "km_ini": 675.1, "km_fim": 701.1, "extensao": 26.0, "superficie_federal": "PAV", "versao_snv": "202607A" }, "geometry": { "type": "MultiLineString", "coordinates": [ [ [ -61.0344664, 4.25451079 ], [ -61.03434591, 4.25690242 ], [ -61.03508454, 4.25790251 ], [ -61.03877767, 4.25910175 ], [ -61.04769312, 4.26096991 ], [ -61.05123654, 4.26282665 ], [ -61.05290327, 4.26453996 ], [ -61.06432615, 4.28101459 ], [ -61.06540967, 4.28169879 ], [ -61.07080941, 4.28341252 ], [ -61.07169312, 4.28399031 ], [ -61.08092148, 4.30128425 ], [ -61.08059275, 4.30643047 ], [ -61.08076986, 4.30814976 ], [ -61.08297908, 4.31084491 ], [ -61.08602478, 4.31364166 ], [ -61.08729704, 4.3144345 ], [ -61.09588234, 4.3173941 ], [ -61.09722376, 4.31815652 ], [ -61.11046173, 4.33337525 ], [ -61.1120399, 4.33472944 ], [ -61.13647082, 4.34079956 ], [ -61.13830865, 4.34166272 ], [ -61.13976972, 4.34308863 ], [ -61.14051982, 4.34443151 ], [ -61.14117253, 4.34666338 ], [ -61.15190644, 4.38801346 ], [ -61.15368906, 4.39055802 ], [ -61.16074145, 4.39620605 ], [ -61.16156427, 4.39771947 ], [ -61.16388659, 4.40481348 ], [ -61.16404651, 4.4065714 ], [ -61.16352192, 4.40844031 ], [ -61.15690902, 4.41957789 ] ] ] } },
{ "type": "Feature", "properties": { "codigo_br": "174", "uf": "RR", "sigla_tipo_trecho": "B", "local_inicio": "ENTR BR-174/433 (COMUNIDADE INDÍGENA ENTROCAMENTO)", "local_fim": "RIO SURUMU", "km_ini": 671.0, "km_fim": 675.1, "extensao": 4.1, "superficie_federal": "PAV", "versao_snv": "202607A" }, "geometry": { "type": "MultiLineString", "coordinates": [ [ [ -61.01554472, 4.23050079 ], [ -61.0171094, 4.23434871 ], [ -61.01993301, 4.23722241 ], [ -61.0221957, 4.23839058 ], [ -61.03513101, 4.24309039 ], [ -61.03602747, 4.24373222 ], [ -61.03631071, 4.24503134 ], [ -61.03496501, 4.24849617 ], [ -61.0344664, 4.25451079 ] ] ] } },
{ "type": "Feature", "properties": { "codigo_br": "174", "uf": "RR", "sigla_tipo_trecho": "B", "local_inicio": "RIO CAUARUAUA", "local_fim": "IGARAPÉ ANINGAL", "km_ini": 608.7, "km_fim": 613.8, "extensao": 5.1, "superficie_federal": "PAV", "versao_snv": "202607A" }, "geometry": { "type": "MultiLineString", "coordinates": [ [ [ -60.98599314, 3.6919231 ], [ -60.99814073, 3.73594341 ] ] ] } },
{ "type": "Feature", "properties": { "codigo_br": "174", "uf": "RR", "sigla_tipo_trecho": "B", "local_inicio": "ENTR RR-203 (TRÊS CORAÇÕES)", "local_fim": "RIO CAUARUAUA", "km_ini": 603.3, "km_fim": 608.7, "extensao": 5.4, "superficie_federal": "PAV", "versao_snv": "202607A" }, "geometry": { "type": "MultiLineString", "coordinates": [ [ [ -60.97303512, 3.64424566 ], [ -60.98599314, 3.6919231 ] ] ] } },
{ "type": "Feature", "properties": { "codigo_br": "174", "uf": "RR", "sigla_tipo_trecho": "B", "local_inicio": "RIO URARICOERA", "local_fim": "ENTR RR-203 (TRÊS CORAÇÕES)", "km_ini": 581.5, "km_fim": 603.3, "extensao": 21.8, "superficie_federal": "PAV", "versao_snv": "202607A" }, "geometry": { "type": "MultiLineString", "coordinates": [ [ [ -60.91016579, 3.45958488 ], [ -60.91489436, 3.49175619 ], [ -60.92861189, 3.53823878 ], [ -60.93979486, 3.56126116 ], [ -60.96074697, 3.60219784 ], [ -60.96468423, 3.61472612 ], [ -60.97303512, 3.64424566 ] ] ] } },
{ "type": "Feature", "properties": { "codigo_br": "174", "uf": "RR", "sigla_tipo_trecho": "B", "local_inicio": "IGARAPÉ TRUARÚ", "local_fim": "RIO URARICOERA", "km_ini": 560.5, "km_fim": 581.5, "extensao": 21.0, "superficie_federal": "PAV", "versao_snv": "202607A" }, "geometry": { "type": "MultiLineString", "coordinates": [ [ [ -60.85027681, 3.28164337 ], [ -60.87396714, 3.35847284 ], [ -60.89275192, 3.41622844 ], [ -60.89387842, 3.41834564 ], [ -60.90583437, 3.43408885 ], [ -60.90673726, 3.43580606 ], [ -60.91016579, 3.45958488 ] ] ] } },
{ "type": "Feature", "properties": { "codigo_br": "174", "uf": "RR", "sigla_tipo_trecho": "B", "local_inicio": "IGARAPÉ SAÚBA", "local_fim": "IGARAPÉ TRUARÚ", "km_ini": 552.3, "km_fim": 560.5, "extensao": 8.2, "superficie_federal": "PAV", "versao_snv": "202607A" }, "geometry": { "type": "MultiLineString", "coordinates": [ [ [ -60.83670714, 3.20893669 ], [ -60.84430408, 3.26163554 ], [ -60.85027681, 3.28164337 ] ] ] } },
{ "type": "Feature", "properties": { "codigo_br": "174", "uf": "RR", "sigla_tipo_trecho": "B", "local_inicio": "RIO PARICARANÃ", "local_fim": "ENTR BR-174/433 (COMUNIDADE INDÍGENA ENTROCAMENTO)", "km_ini": 658.3, "km_fim": 671.0, "extensao": 12.7, "superficie_federal": "PAV", "versao_snv": "202607A" }, "geometry": { "type": "MultiLineString", "coordinates": [ [ [ -61.03691668, 4.12940318 ], [ -61.03563218, 4.13601395 ], [ -61.03483892, 4.13784156 ], [ -61.03361511, 4.13961025 ], [ -61.00938192, 4.15939859 ], [ -61.00780823, 4.16135064 ], [ -61.00694338, 4.16369329 ], [ -61.00682265, 4.16597798 ], [ -61.01554472, 4.23050079 ] ] ] } },
{ "type": "Feature", "properties": { "codigo_br": "174", "uf": "RR", "sigla_tipo_trecho": "B", "local_inicio": "RIO PARIMÉ", "local_fim": "RIO PARICARANÃ", "km_ini": 646.4, "km_fim": 658.3, "extensao": 11.9, "superficie_federal": "PAV", "versao_snv": "202607A" }, "geometry": { "type": "MultiLineString", "coordinates": [ [ [ -61.04290185, 4.02240122 ], [ -61.04287751, 4.02575975 ], [ -61.04212174, 4.03253178 ], [ -61.04133341, 4.05371337 ], [ -61.03921306, 4.08636381 ], [ -61.03926301, 4.11568869 ], [ -61.03691668, 4.12940318 ] ] ] } },
{ "type": "Feature", "properties": { "codigo_br": "174", "uf": "RR", "sigla_tipo_trecho": "B", "local_inicio": "ENTR RR-400 (P/PEDRA PINTADA)", "local_fim": "RIO PARIMÉ", "km_ini": 627.9, "km_fim": 646.4, "extensao": 18.5, "superficie_federal": "PAV", "versao_snv": "202607A" }, "geometry": { "type": "MultiLineString", "coordinates": [ [ [ -61.00008294, 3.86380807 ], [ -61.00192685, 3.88227722 ], [ -61.00313993, 3.88763124 ], [ -61.03840934, 3.98644796 ], [ -61.04288079, 3.99710145 ], [ -61.04323092, 3.99991634 ], [ -61.04290185, 4.02240122 ] ] ] } },
{ "type": "Feature", "properties": { "codigo_br": "174", "uf": "RR", "sigla_tipo_trecho": "B", "local_inicio": "IGARAPÉ JAUARÍ", "local_fim": "ENTR RR-400 (P/PEDRA PINTADA)", "km_ini": 616.2, "km_fim": 627.9, "extensao": 11.7, "superficie_federal": "PAV", "versao_snv": "202607A" }, "geometry": { "type": "MultiLineString", "coordinates": [ [ [ -60.99761462, 3.7574302 ], [ -60.99417832, 3.79197059 ], [ -60.99406159, 3.79548643 ], [ -60.99668569, 3.82965008 ], [ -61.00008294, 3.86380807 ] ] ] } },
{ "type": "Feature", "properties": { "codigo_br": "174", "uf": "RR", "sigla_tipo_trecho": "B", "local_inicio": "IGARAPÉ ANINGAL", "local_fim": "IGARAPÉ JAUARÍ", "km_ini": 613.8, "km_fim": 616.2, "extensao": 2.4, "superficie_federal": "PAV", "versao_snv": "202607A" }, "geometry": { "type": "MultiLineString", "coordinates": [ [ [ -60.99814073, 3.73594341 ], [ -60.9989173, 3.73927184 ], [ -60.99901633, 3.74176881 ], [ -60.99761462, 3.7574302 ] ] ] } },
{ "type": "Feature", "properties": { "codigo_br": "174", "uf": "RR", "sigla_tipo_trecho": "B", "local_inicio": "IGARAPÉ JACITARA", "local_fim": "IGARAPÉ SAÚBA", "km_ini": 542.6, "km_fim": 552.3, "extensao": 9.7, "superficie_federal": "PAV", "versao_snv": "202607A" }, "geometry": { "type": "MultiLineString", "coordinates": [ [ [ -60.82831271, 3.1222373 ], [ -60.83279812, 3.14044955 ], [ -60.83094325, 3.16773186 ], [ -60.83670714, 3.20893669 ] ] ] } },
{ "type": "Feature", "properties": { "codigo_br": "174", "uf": "RR", "sigla_tipo_trecho": "B", "local_inicio": "ENTR RR-342 (OÁSIS)", "local_fim": "IGARAPÉ JACITARA", "km_ini": 539.7, "km_fim": 542.6, "extensao": 2.9, "superficie_federal": "PAV", "versao_snv": "202607A" }, "geometry": { "type": "MultiLineString", "coordinates": [ [ [ -60.81860273, 3.09745039 ], [ -60.82550095, 3.1113034 ], [ -60.82831271, 3.1222373 ] ] ] } },
{ "type": "Feature", "properties": { "codigo_br": "174", "uf": "RR", "sigla_tipo_trecho": "B", "local_inicio": "IGARAPÉ MURUPÚ", "local_fim": "ENTR RR-342 (OÁSIS)", "km_ini": 529.8, "km_fim": 539.7, "extensao": 9.9, "superficie_federal": "PAV", "versao_snv": "202607A" }, "geometry": { "type": "MultiLineString", "coordinates": [ [ [ -60.77543466, 3.02034703 ], [ -60.78029473, 3.02545547 ], [ -60.79540232, 3.05078138 ], [ -60.81860273, 3.09745039 ] ] ] } },
{ "type": "Feature", "properties": { "codigo_br": "174", "uf": "RR", "sigla_tipo_trecho": "B", "local_inicio": "ACESSO NORTE BOA VISTA", "local_fim": "IGARAPÉ MURUPÚ", "km_ini": 522.5, "km_fim": 529.8, "extensao": 7.3, "superficie_federal": "PAV", "versao_snv": "202607A" }, "geometry": { "type": "MultiLineString", "coordinates": [ [ [ -60.73973571, 2.96565515 ], [ -60.74481768, 2.97164498 ], [ -60.76463689, 3.00902641 ], [ -60.77543466, 3.02034703 ] ] ] } },
{ "type": "Feature", "properties": { "codigo_br": "174", "uf": "RR", "sigla_tipo_trecho": "B", "local_inicio": "IGARAPÉ ÁGUA BOA", "local_fim": "IGARAPÉ AÍ GRANDE", "km_ini": 485.4, "km_fim": 493.0, "extensao": 7.6, "superficie_federal": "PAV", "versao_snv": "202607A" }, "geometry": { "type": "MultiLineString", "coordinates": [ [ [ -60.81166045, 2.72583236 ], [ -60.80456631, 2.72431633 ], [ -60.80113977, 2.72463334 ], [ -60.76027902, 2.74137648 ], [ -60.75812065, 2.74196206 ], [ -60.75255106, 2.74250016 ], [ -60.75103356, 2.74320399 ], [ -60.7490662, 2.74469886 ] ] ] } },
{ "type": "Feature", "properties": { "codigo_br": "174", "uf": "RR", "sigla_tipo_trecho": "B", "local_inicio": "RIO MUCAJAÍ", "local_fim": "IGARAPÉ ÁGUA BOA", "km_ini": 451.8, "km_fim": 485.4, "extensao": 33.6, "superficie_federal": "PAV", "versao_snv": "202607A" }, "geometry": { "type": "MultiLineString", "coordinates": [ [ [ -60.91607123, 2.47192237 ], [ -60.91302327, 2.4726571 ], [ -60.9092272, 2.47572135 ], [ -60.90732703, 2.47828251 ], [ -60.90615543, 2.47923606 ], [ -60.88688458, 2.48931732 ], [ -60.88535723, 2.49081921 ], [ -60.88458185, 2.49271139 ], [ -60.87705618, 2.53243475 ], [ -60.87694103, 2.63256714 ], [ -60.87051779, 2.67647811 ], [ -60.86934497, 2.68284416 ], [ -60.86796266, 2.68488191 ], [ -60.85922231, 2.69259106 ], [ -60.85510699, 2.69953186 ], [ -60.85363967, 2.70111097 ], [ -60.82903314, 2.71683657 ], [ -60.81709683, 2.72558754 ], [ -60.81455584, 2.72631645 ], [ -60.81166045, 2.72583236 ] ] ] } },
{ "type": "Feature", "properties": { "codigo_br": "174", "uf": "RR", "sigla_tipo_trecho": "B", "local_inicio": "FIM DA DUPLICAÇÃO", "local_fim": "RIO MUCAJAÍ", "km_ini": 449.2, "km_fim": 451.8, "extensao": 2.6, "superficie_federal": "PAV", "versao_snv": "202607A" }, "geometry": { "type": "MultiLineString", "coordinates": [ [ [ -60.9184775, 2.45118955 ], [ -60.91838297, 2.45819241 ], [ -60.92041348, 2.46290898 ], [ -60.92060356, 2.46432773 ], [ -60.9188863, 2.47083557 ], [ -60.91801214, 2.47156774 ], [ -60.91607123, 2.47192237 ] ] ] } },
{ "type": "Feature", "properties": { "codigo_br": "174", "uf": "RR", "sigla_tipo_trecho": "B", "local_inicio": "ENTR RR-325 (MUCAJAÍ)", "local_fim": "FIM DA DUPLICAÇÃO", "km_ini": 448.0, "km_fim": 449.2, "extensao": 1.2, "superficie_federal": "DUP", "versao_snv": "202607A" }, "geometry": { "type": "MultiLineString", "coordinates": [ [ [ -60.91867085, 2.44011541 ], [ -60.9184775, 2.45118955 ] ] ] } },
{ "type": "Feature", "properties": { "codigo_br": "174", "uf": "RR", "sigla_tipo_trecho": "B", "local_inicio": "ENTR VICINAL 01 (IRACEMA)", "local_fim": "IGARAPÉ BRANCO", "km_ini": 410.4, "km_fim": 430.6, "extensao": 20.2, "superficie_federal": "PAV", "versao_snv": "202607A" }, "geometry": { "type": "MultiLineString", "coordinates": [ [ [ -61.05494907, 2.17001502 ], [ -61.02480656, 2.20015117 ], [ -61.01510777, 2.20908661 ], [ -60.97888978, 2.24675761 ], [ -60.97773219, 2.24878033 ], [ -60.97252595, 2.26315652 ], [ -60.96834925, 2.27278076 ], [ -60.96742749, 2.27419024 ], [ -60.94150998, 2.29462224 ], [ -60.92929939, 2.29910771 ] ] ] } },
{ "type": "Feature", "properties": { "codigo_br": "174", "uf": "RR", "sigla_tipo_trecho": "B", "local_inicio": "IGARAPÉ DAS COBRAS", "local_fim": "ENTR VICINAL 01 (IRACEMA)", "km_ini": 391.0, "km_fim": 410.4, "extensao": 19.4, "superficie_federal": "PAV", "versao_snv": "202607A" }, "geometry": { "type": "MultiLineString", "coordinates": [ [ [ -61.07950804, 2.01697819 ], [ -61.08880327, 2.03372642 ], [ -61.08935319, 2.03601223 ], [ -61.09143286, 2.05212371 ], [ -61.09110533, 2.05507433 ], [ -61.08806129, 2.06429903 ], [ -61.07996497, 2.08013597 ], [ -61.07947547, 2.08220234 ], [ -61.08201209, 2.09966434 ], [ -61.08195488, 2.10997688 ], [ -61.08709604, 2.12517627 ], [ -61.08838826, 2.13476113 ], [ -61.08833635, 2.136558 ], [ -61.08771452, 2.13846491 ], [ -61.08650463, 2.14011234 ], [ -61.05494907, 2.17001502 ] ] ] } },
{ "type": "Feature", "properties": { "codigo_br": "174", "uf": "RR", "sigla_tipo_trecho": "B", "local_inicio": "ENTR BR-174/210/RR-327/347", "local_fim": "IGARAPÉ DAS COBRAS", "km_ini": 377.2, "km_fim": 391.0, "extensao": 13.8, "superficie_federal": "PAV", "versao_snv": "202607A" }, "geometry": { "type": "MultiLineString", "coordinates": [ [ [ -61.10847285, 1.91203117 ], [ -61.10715339, 1.91301438 ], [ -61.1027561, 1.91455127 ], [ -61.10104096, 1.91574134 ], [ -61.09604227, 1.9224018 ], [ -61.07395279, 1.94189654 ], [ -61.07267754, 1.94338119 ], [ -61.07198363, 1.94496996 ], [ -61.06899245, 1.99763426 ], [ -61.06958081, 1.99982022 ], [ -61.07950804, 2.01697819 ] ] ] } },
{ "type": "Feature", "properties": { "codigo_br": "174", "uf": "RR", "sigla_tipo_trecho": "B", "local_inicio": "R.SEN. HÉLIO CAMPOS (CARACARAÍ)", "local_fim": "ENTR BR-174/210/RR-327/347", "km_ini": 367.1, "km_fim": 377.2, "extensao": 10.1, "superficie_federal": "PAV", "versao_snv": "202607A" }, "geometry": { "type": "MultiLineString", "coordinates": [ [ [ -61.13101879, 1.82795648 ], [ -61.12097963, 1.83554169 ], [ -61.1172627, 1.84228362 ], [ -61.11622374, 1.84473794 ], [ -61.11577276, 1.8475495 ], [ -61.11441317, 1.87040629 ], [ -61.11543873, 1.88862324 ], [ -61.10943122, 1.91026959 ], [ -61.10847285, 1.91203117 ] ] ] } },
{ "type": "Feature", "properties": { "codigo_br": "174", "uf": "RR", "sigla_tipo_trecho": "B", "local_inicio": "INÍCIO PONTE S/RIO BRANCO (VISTA ALEGRE)", "local_fim": "R.SEN. HÉLIO CAMPOS (CARACARAÍ)", "km_ini": 355.6, "km_fim": 367.1, "extensao": 11.5, "superficie_federal": "PAV", "versao_snv": "202607A" }, "geometry": { "type": "MultiLineString", "coordinates": [ [ [ -61.14030831, 1.73873312 ], [ -61.14835221, 1.74531583 ], [ -61.15057448, 1.7535333 ], [ -61.15625394, 1.76691252 ], [ -61.15671519, 1.77000979 ], [ -61.1558231, 1.78384941 ], [ -61.15372426, 1.79729453 ], [ -61.14777997, 1.81457048 ], [ -61.14651676, 1.81608876 ], [ -61.13101879, 1.82795648 ] ] ] } },
{ "type": "Feature", "properties": { "codigo_br": "174", "uf": "RR", "sigla_tipo_trecho": "B", "local_inicio": "VILA PETROLINA", "local_fim": "INÍCIO PONTE S/RIO BRANCO (VISTA ALEGRE)", "km_ini": 329.8, "km_fim": 355.6, "extensao": 25.8, "superficie_federal": "PAV", "versao_snv": "202607A" }, "geometry": { "type": "MultiLineString", "coordinates": [ [ [ -60.98899926, 1.56213619 ], [ -61.00774631, 1.59521826 ], [ -61.02317117, 1.62150265 ], [ -61.05440499, 1.65176044 ], [ -61.06358588, 1.65883657 ], [ -61.08734795, 1.67842379 ], [ -61.11789309, 1.70542603 ], [ -61.14030831, 1.73873312 ] ] ] } },
{ "type": "Feature", "properties": { "codigo_br": "174", "uf": "RR", "sigla_tipo_trecho": "B", "local_inicio": "RIO BARAUANA", "local_fim": "VILA PETROLINA", "km_ini": 309.4, "km_fim": 329.8, "extensao": 20.4, "superficie_federal": "PAV", "versao_snv": "202607A" }, "geometry": { "type": "MultiLineString", "coordinates": [ [ [ -60.8636103, 1.47621118 ], [ -60.86615854, 1.4758757 ], [ -60.88409817, 1.47597565 ], [ -60.90047787, 1.47935905 ], [ -60.9411295, 1.49671514 ], [ -60.97096126, 1.49712469 ], [ -60.97233477, 1.49750179 ], [ -60.97309415, 1.49868549 ], [ -60.98469122, 1.55367161 ], [ -60.98542771, 1.55561325 ], [ -60.98899926, 1.56213619 ] ] ] } },
{ "type": "Feature", "properties": { "codigo_br": "174", "uf": "RR", "sigla_tipo_trecho": "B", "local_inicio": "IGARAPÉ LAGOA", "local_fim": "RIO BARAUANA", "km_ini": 305.8, "km_fim": 309.4, "extensao": 3.6, "superficie_federal": "PAV", "versao_snv": "202607A" }, "geometry": { "type": "MultiLineString", "coordinates": [ [ [ -60.83142683, 1.4822175 ], [ -60.8636103, 1.47621118 ] ] ] } },
{ "type": "Feature", "properties": { "codigo_br": "174", "uf": "RR", "sigla_tipo_trecho": "B", "local_inicio": "RIO ITÃ", "local_fim": "IGARAPÉ SECO", "km_ini": 296.0, "km_fim": 304.7, "extensao": 8.7, "superficie_federal": "PAV", "versao_snv": "202607A" }, "geometry": { "type": "MultiLineString", "coordinates": [ [ [ -60.75218406, 1.45224261 ], [ -60.75756625, 1.45657183 ], [ -60.75902446, 1.45737619 ], [ -60.7800166, 1.46296835 ], [ -60.81236104, 1.48212874 ], [ -60.81953391, 1.48403564 ], [ -60.82171653, 1.48407887 ] ] ] } },
{ "type": "Feature", "properties": { "codigo_br": "174", "uf": "RR", "sigla_tipo_trecho": "B", "local_inicio": "IGARAPÉ KALL", "local_fim": "RIO ITÃ", "km_ini": 288.7, "km_fim": 296.0, "extensao": 7.3, "superficie_federal": "PAV", "versao_snv": "202607A" }, "geometry": { "type": "MultiLineString", "coordinates": [ [ [ -60.69320533, 1.42642044 ], [ -60.69914214, 1.42861346 ], [ -60.71733141, 1.4320182 ], [ -60.72510062, 1.43183977 ], [ -60.72698727, 1.43218047 ], [ -60.72886779, 1.43334534 ], [ -60.75218406, 1.45224261 ] ] ] } },
{ "type": "Feature", "properties": { "codigo_br": "174", "uf": "RR", "sigla_tipo_trecho": "B", "local_inicio": "IGARAPÉ CALEFFI", "local_fim": "IGARAPÉ KALL", "km_ini": 281.7, "km_fim": 288.7, "extensao": 7.0, "superficie_federal": "PAV", "versao_snv": "202607A" }, "geometry": { "type": "MultiLineString", "coordinates": [ [ [ -60.64377113, 1.39191457 ], [ -60.65284058, 1.40666326 ], [ -60.65390609, 1.40777103 ], [ -60.6736896, 1.41886219 ], [ -60.69320533, 1.42642044 ] ] ] } },
{ "type": "Feature", "properties": { "codigo_br": "174", "uf": "RR", "sigla_tipo_trecho": "B", "local_inicio": "IGARAPÉ SECO", "local_fim": "IGARAPÉ LAGOA", "km_ini": 304.7, "km_fim": 305.8, "extensao": 1.1, "superficie_federal": "PAV", "versao_snv": "202607A" }, "geometry": { "type": "MultiLineString", "coordinates": [ [ [ -60.82171653, 1.48407887 ], [ -60.83142683, 1.4822175 ] ] ] } },
{ "type": "Feature", "properties": { "codigo_br": "174", "uf": "RR", "sigla_tipo_trecho": "B", "local_inicio": "IGARAPÉ TAMANDARÉ", "local_fim": "IGARAPÉ CALEFFI", "km_ini": 269.0, "km_fim": 281.7, "extensao": 12.7, "superficie_federal": "PAV", "versao_snv": "202607A" }, "geometry": { "type": "MultiLineString", "coordinates": [ [ [ -60.56905169, 1.30559886 ], [ -60.59298687, 1.33699888 ], [ -60.63496236, 1.37771889 ], [ -60.64377113, 1.39191457 ] ] ] } },
{ "type": "Feature", "properties": { "codigo_br": "174", "uf": "RR", "sigla_tipo_trecho": "B", "local_inicio": "IGARAPÉ NELSON RIBEIRO", "local_fim": "IGARAPÉ TAMANDARÉ", "km_ini": 265.5, "km_fim": 269.0, "extensao": 3.5, "superficie_federal": "PAV", "versao_snv": "202607A" }, "geometry": { "type": "MultiLineString", "coordinates": [ [ [ -60.54391697, 1.2899342 ], [ -60.55731424, 1.29254878 ], [ -60.55928721, 1.29330936 ], [ -60.5608012, 1.29465987 ], [ -60.56905169, 1.30559886 ] ] ] } },
{ "type": "Feature", "properties": { "codigo_br": "174", "uf": "RR", "sigla_tipo_trecho": "B", "local_inicio": "ENTR BR-174/210/432 (VILA NOVO PARAÍSO)", "local_fim": "RIO DIAS", "km_ini": 245.7, "km_fim": 261.2, "extensao": 15.5, "superficie_federal": "PAV", "versao_snv": "202607A" }, "geometry": { "type": "MultiLineString", "coordinates": [ [ [ -60.38500004, 1.22351365 ], [ -60.39638216, 1.22966723 ], [ -60.43929126, 1.24306353 ], [ -60.46676597, 1.24579814 ], [ -60.48602853, 1.25230717 ], [ -60.50023249, 1.26235636 ], [ -60.50138819, 1.26401946 ], [ -60.50353076, 1.26952766 ], [ -60.50994565, 1.27593128 ] ] ] } },
{ "type": "Feature", "properties": { "codigo_br": "174", "uf": "RR", "sigla_tipo_trecho": "B", "local_inicio": "RIO ANAUÁ", "local_fim": "ENTR BR-174/210/432 (VILA NOVO PARAÍSO)", "km_ini": 234.2, "km_fim": 245.7, "extensao": 11.5, "superficie_federal": "PAV", "versao_snv": "202607A" }, "geometry": { "type": "MultiLineString", "coordinates": [ [ [ -60.40066059, 1.13011479 ], [ -60.40957384, 1.15933716 ], [ -60.40722803, 1.1841703 ], [ -60.40284223, 1.20565242 ], [ -60.40192371, 1.2085894 ], [ -60.40018152, 1.21052336 ], [ -60.38839673, 1.21826031 ], [ -60.38693998, 1.22003088 ], [ -60.38500004, 1.22351365 ] ] ] } },
{ "type": "Feature", "properties": { "codigo_br": "174", "uf": "RR", "sigla_tipo_trecho": "B", "local_inicio": "IGARAPÉ BISPO", "local_fim": "RIO ANAUÁ", "km_ini": 233.4, "km_fim": 234.2, "extensao": 0.8, "superficie_federal": "PAV", "versao_snv": "202607A" }, "geometry": { "type": "MultiLineString", "coordinates": [ [ [ -60.39834232, 1.12262605 ], [ -60.40066059, 1.13011479 ] ] ] } },
{ "type": "Feature", "properties": { "codigo_br": "174", "uf": "RR", "sigla_tipo_trecho": "B", "local_inicio": "IGARAPÉ TENENTE BARRETO", "local_fim": "IGARAPÉ BISPO", "km_ini": 229.8, "km_fim": 233.4, "extensao": 3.6, "superficie_federal": "PAV", "versao_snv": "202607A" }, "geometry": { "type": "MultiLineString", "coordinates": [ [ [ -60.38755185, 1.09274198 ], [ -60.39834232, 1.12262605 ] ] ] } },
{ "type": "Feature", "properties": { "codigo_br": "174", "uf": "RR", "sigla_tipo_trecho": "A", "local_inicio": "ACESSO NORTE BOA VISTA", "local_fim": "FIM PONTE S/RIO CAUAMÉ", "km_ini": 0.0, "km_fim": 12.0, "extensao": 12.0, "superficie_federal": "PAV", "versao_snv": "202607A" }, "geometry": { "type": "MultiLineString", "coordinates": [ [ [ -60.73973571, 2.96565515 ], [ -60.71899254, 2.942105 ], [ -60.71802992, 2.94060554 ], [ -60.69952385, 2.88460157 ], [ -60.69671509, 2.86858781 ] ] ] } },
{ "type": "Feature", "properties": { "codigo_br": "174", "uf": "RR", "sigla_tipo_trecho": "B", "local_inicio": "RIO TRAIRÍ", "local_fim": "IGARAPÉ EVARISTO", "km_ini": 143.6, "km_fim": 151.3, "extensao": 7.7, "superficie_federal": "PAV", "versao_snv": "202607A" }, "geometry": { "type": "MultiLineString", "coordinates": [ [ [ -60.51572563, 0.34665727 ], [ -60.51495393, 0.3503927 ], [ -60.51426608, 0.3519724 ], [ -60.50656843, 0.36064279 ], [ -60.48554228, 0.40906474 ] ] ] } },
{ "type": "Feature", "properties": { "codigo_br": "174", "uf": "RR", "sigla_tipo_trecho": "B", "local_inicio": "FIM PONTE S/RIO ALALAÚ (DIV AM/RR)", "local_fim": "IGARAPÉ PIAIA", "km_ini": 0.0, "km_fim": 30.5, "extensao": 30.5, "superficie_federal": "PAV", "versao_snv": "202607A" }, "geometry": { "type": "MultiLineString", "coordinates": [ [ [ -60.52012538, -0.85927885 ], [ -60.52268284, -0.85594532 ], [ -60.52369807, -0.8538141 ], [ -60.54913201, -0.7722356 ], [ -60.5769858, -0.70625931 ], [ -60.59685444, -0.64800585 ], [ -60.60641753, -0.61055128 ], [ -60.61086007, -0.59923691 ] ] ] } },
{ "type": "Feature", "properties": { "codigo_br": "174", "uf": "RR", "sigla_tipo_trecho": "B", "local_inicio": "IGARAPÉ PIAIA", "local_fim": "IGARAPÉ KAMAA", "km_ini": 30.5, "km_fim": 42.0, "extensao": 11.5, "superficie_federal": "PAV", "versao_snv": "202607A" }, "geometry": { "type": "MultiLineString", "coordinates": [ [ [ -60.61086007, -0.59923691 ], [ -60.62886267, -0.5555411 ], [ -60.6444896, -0.50727509 ], [ -60.64674036, -0.50133236 ] ] ] } },
{ "type": "Feature", "properties": { "codigo_br": "174", "uf": "RR", "sigla_tipo_trecho": "B", "local_inicio": "IGARAPÉ KAMAA", "local_fim": "IGARAPÉ XERI", "km_ini": 42.0, "km_fim": 66.5, "extensao": 24.5, "superficie_federal": "PAV", "versao_snv": "202607A" }, "geometry": { "type": "MultiLineString", "coordinates": [ [ [ -60.64674036, -0.50133236 ], [ -60.66451054, -0.45338142 ], [ -60.67666203, -0.41922706 ], [ -60.68814593, -0.34888585 ], [ -60.68995627, -0.32350018 ], [ -60.68804514, -0.31303504 ], [ -60.68790662, -0.31085371 ], [ -60.68873031, -0.30127052 ], [ -60.69208967, -0.29340343 ], [ -60.69261525, -0.28763561 ] ] ] } },
{ "type": "Feature", "properties": { "codigo_br": "174", "uf": "RR", "sigla_tipo_trecho": "B", "local_inicio": "IGARAPÉ XERI", "local_fim": "INÍCIO PONTE S/IGARAPÉ XIKIPI", "km_ini": 66.5, "km_fim": 73.0, "extensao": 6.5, "superficie_federal": "PAV", "versao_snv": "202607A" }, "geometry": { "type": "MultiLineString", "coordinates": [ [ [ -60.69261525, -0.28763561 ], [ -60.69334118, -0.27638457 ], [ -60.6900806, -0.25902709 ], [ -60.69200998, -0.22857829 ] ] ] } },
{ "type": "Feature", "properties": { "codigo_br": "174", "uf": "RR", "sigla_tipo_trecho": "B", "local_inicio": "INÍCIO PONTE S/IGARAPÉ XIKIPI", "local_fim": "ENTR BR-174/431 (VILA JUNDIÁ)", "km_ini": 73.0, "km_fim": 75.6, "extensao": 2.6, "superficie_federal": "PAV", "versao_snv": "202607A" }, "geometry": { "type": "MultiLineString", "coordinates": [ [ [ -60.69200998, -0.22857829 ], [ -60.6930105, -0.20716749 ] ] ] } },
{ "type": "Feature", "properties": { "codigo_br": "174", "uf": "RR", "sigla_tipo_trecho": "B", "local_inicio": "ENTR BR-174/431 (VILA JUNDIÁ)", "local_fim": "RIO BRANQUINHO", "km_ini": 75.6, "km_fim": 88.5, "extensao": 12.9, "superficie_federal": "PAV", "versao_snv": "202607A" }, "geometry": { "type": "MultiLineString", "coordinates": [ [ [ -60.6930105, -0.20716749 ], [ -60.69303708, -0.2029864 ], [ -60.68752196, -0.18102953 ], [ -60.68475404, -0.16355753 ], [ -60.68575455, -0.13569505 ], [ -60.6863797, -0.13294547 ], [ -60.6922694, -0.11838629 ], [ -60.69784122, -0.10892413 ], [ -60.69878508, -0.09247378 ] ] ] } },
{ "type": "Feature", "properties": { "codigo_br": "174", "uf": "RR", "sigla_tipo_trecho": "B", "local_inicio": "RIO BRANQUINHO", "local_fim": "MARCO DA LINHA DO EQUADOR", "km_ini": 88.5, "km_fim": 100.7, "extensao": 12.2, "superficie_federal": "PAV", "versao_snv": "202607A" }, "geometry": { "type": "MultiLineString", "coordinates": [ [ [ -60.69878508, -0.09247378 ], [ -60.69943173, -0.08183933 ], [ -60.6991933, -0.07981669 ], [ -60.69165504, -0.05970338 ], [ -60.68016038, -0.0306175 ], [ -60.67925856, -0.02938193 ], [ -60.67790292, -0.02826888 ], [ -60.66701584, -0.02274203 ], [ -60.66571401, -0.02181099 ], [ -60.64914637, -0.00003913 ] ] ] } },
{ "type": "Feature", "properties": { "codigo_br": "174", "uf": "RR", "sigla_tipo_trecho": "B", "local_inicio": "MARCO DA LINHA DO EQUADOR", "local_fim": "IGARAPÉ ARRUDA", "km_ini": 100.7, "km_fim": 102.8, "extensao": 2.1, "superficie_federal": "PAV", "versao_snv": "202607A" }, "geometry": { "type": "MultiLineString", "coordinates": [ [ [ -60.64914637, -0.00003913 ], [ -60.6483092, 0.00174575 ], [ -60.64334943, 0.01820511 ] ] ] } },
{ "type": "Feature", "properties": { "codigo_br": "174", "uf": "RR", "sigla_tipo_trecho": "B", "local_inicio": "IGARAPÉ ARRUDA", "local_fim": "IGARAPÉ JUNQUEIRA", "km_ini": 102.8, "km_fim": 108.5, "extensao": 5.7, "superficie_federal": "PAV", "versao_snv": "202607A" }, "geometry": { "type": "MultiLineString", "coordinates": [ [ [ -60.64334943, 0.01820511 ], [ -60.63368883, 0.04985413 ], [ -60.63255336, 0.05141857 ], [ -60.61948696, 0.06275011 ] ] ] } },
{ "type": "Feature", "properties": { "codigo_br": "174", "uf": "RR", "sigla_tipo_trecho": "B", "local_inicio": "IGARAPÉ JUNQUEIRA", "local_fim": "ENTR VIC 01/02 (VILA DO EQUADOR)", "km_ini": 108.5, "km_fim": 118.0, "extensao": 9.5, "superficie_federal": "PAV", "versao_snv": "202607A" }, "geometry": { "type": "MultiLineString", "coordinates": [ [ [ -60.61948696, 0.06275011 ], [ -60.61715119, 0.06486881 ], [ -60.61032538, 0.07219291 ], [ -60.60380666, 0.08705273 ], [ -60.60283262, 0.08870265 ], [ -60.58135663, 0.11363369 ], [ -60.56979134, 0.13061973 ] ] ] } },
{ "type": "Feature", "properties": { "codigo_br": "174", "uf": "RR", "sigla_tipo_trecho": "B", "local_inicio": "ENTR VIC 01/02 (VILA DO EQUADOR)", "local_fim": "IGARAPÉ MATIM", "km_ini": 118.0, "km_fim": 121.0, "extensao": 3.0, "superficie_federal": "PAV", "versao_snv": "202607A" }, "geometry": { "type": "MultiLineString", "coordinates": [ [ [ -60.56979134, 0.13061973 ], [ -60.56082806, 0.13970783 ], [ -60.55228146, 0.15222892 ] ] ] } },
{ "type": "Feature", "properties": { "codigo_br": "174", "uf": "RR", "sigla_tipo_trecho": "B", "local_inicio": "IGARAPÉ MATIM", "local_fim": "IGARAPÉ TENENTE BARREIRO", "km_ini": 121.0, "km_fim": 123.2, "extensao": 2.2, "superficie_federal": "PAV", "versao_snv": "202607A" }, "geometry": { "type": "MultiLineString", "coordinates": [ [ [ -60.55228146, 0.15222892 ], [ -60.54334799, 0.1653014 ], [ -60.54222757, 0.16799073 ] ] ] } },
{ "type": "Feature", "properties": { "codigo_br": "174", "uf": "RR", "sigla_tipo_trecho": "B", "local_inicio": "IGARAPÉ TENENTE BARREIRO", "local_fim": "IGARAPÉ DOS PEIXES", "km_ini": 123.2, "km_fim": 137.7, "extensao": 14.5, "superficie_federal": "PAV", "versao_snv": "202607A" }, "geometry": { "type": "MultiLineString", "coordinates": [ [ [ -60.54222757, 0.16799073 ], [ -60.5313763, 0.20451277 ], [ -60.51619242, 0.25279634 ], [ -60.5201773, 0.28668774 ], [ -60.52152774, 0.29193759 ], [ -60.52146812, 0.29473836 ] ] ] } },
{ "type": "Feature", "properties": { "codigo_br": "174", "uf": "RR", "sigla_tipo_trecho": "B", "local_inicio": "IGARAPÉ DOS PEIXES", "local_fim": "RIO TRAIRÍ", "km_ini": 137.7, "km_fim": 143.6, "extensao": 5.9, "superficie_federal": "PAV", "versao_snv": "202607A" }, "geometry": { "type": "MultiLineString", "coordinates": [ [ [ -60.52146812, 0.29473836 ], [ -60.5213407, 0.29723761 ], [ -60.52394986, 0.32575642 ], [ -60.52352036, 0.32747838 ], [ -60.5163766, 0.3439704 ], [ -60.51572563, 0.34665727 ] ] ] } },
{ "type": "Feature", "properties": { "codigo_br": "174", "uf": "RR", "sigla_tipo_trecho": "B", "local_inicio": "IGARAPÉ EVARISTO", "local_fim": "IGARAPÉ CAP FONTINELE", "km_ini": 151.3, "km_fim": 153.1, "extensao": 1.8, "superficie_federal": "PAV", "versao_snv": "202607A" }, "geometry": { "type": "MultiLineString", "coordinates": [ [ [ -60.48554228, 0.40906474 ], [ -60.47885895, 0.42441371 ] ] ] } },
{ "type": "Feature", "properties": { "codigo_br": "174", "uf": "RR", "sigla_tipo_trecho": "B", "local_inicio": "IGARAPÉ CAP FONTINELE", "local_fim": "IGARAPÉ TENENTE MENDONÇA", "km_ini": 153.1, "km_fim": 157.9, "extensao": 4.8, "superficie_federal": "PAV", "versao_snv": "202607A" }, "geometry": { "type": "MultiLineString", "coordinates": [ [ [ -60.47885895, 0.42441371 ], [ -60.4732811, 0.43754613 ], [ -60.4704922, 0.46619637 ] ] ] } },
{ "type": "Feature", "properties": { "codigo_br": "174", "uf": "RR", "sigla_tipo_trecho": "B", "local_inicio": "IGARAPÉ TENENTE MENDONÇA", "local_fim": "RIO JAUAPERI", "km_ini": 157.9, "km_fim": 163.2, "extensao": 5.3, "superficie_federal": "PAV", "versao_snv": "202607A" }, "geometry": { "type": "MultiLineString", "coordinates": [ [ [ -60.4704922, 0.46619637 ], [ -60.46585323, 0.5140209 ] ] ] } },
{ "type": "Feature", "properties": { "codigo_br": "174", "uf": "RR", "sigla_tipo_trecho": "B", "local_inicio": "RIO DIAS", "local_fim": "IGARAPÉ SCHULLER", "km_ini": 261.2, "km_fim": 262.9, "extensao": 1.7, "superficie_federal": "PAV", "versao_snv": "202607A" }, "geometry": { "type": "MultiLineString", "coordinates": [ [ [ -60.50994565, 1.27593128 ], [ -60.51859904, 1.28441998 ], [ -60.52051728, 1.2853323 ] ] ] } },
{ "type": "Feature", "properties": { "codigo_br": "174", "uf": "RR", "sigla_tipo_trecho": "B", "local_inicio": "RIO JAUAPERI", "local_fim": "ENTR RR-371 (VILA NOVA COLINA)", "km_ini": 163.2, "km_fim": 170.8, "extensao": 7.6, "superficie_federal": "PAV", "versao_snv": "202607A" }, "geometry": { "type": "MultiLineString", "coordinates": [ [ [ -60.46585323, 0.5140209 ], [ -60.46119117, 0.56497345 ], [ -60.46138592, 0.58435013 ] ] ] } },
{ "type": "Feature", "properties": { "codigo_br": "174", "uf": "RR", "sigla_tipo_trecho": "B", "local_inicio": "ENTR RR-371 (VILA NOVA COLINA)", "local_fim": "IGARAPÉ IRAJÁ", "km_ini": 170.8, "km_fim": 177.3, "extensao": 6.5, "superficie_federal": "PAV", "versao_snv": "202607A" }, "geometry": { "type": "MultiLineString", "coordinates": [ [ [ -60.46138592, 0.58435013 ], [ -60.46169953, 0.60646823 ], [ -60.45518101, 0.64065518 ] ] ] } },
{ "type": "Feature", "properties": { "codigo_br": "174", "uf": "RR", "sigla_tipo_trecho": "B", "local_inicio": "IGARAPÉ IRAJÁ", "local_fim": "IGARAPÉ JABURU", "km_ini": 177.3, "km_fim": 178.0, "extensao": 0.7, "superficie_federal": "PAV", "versao_snv": "202607A" }, "geometry": { "type": "MultiLineString", "coordinates": [ [ [ -60.45518101, 0.64065518 ], [ -60.45384401, 0.64756259 ] ] ] } },
{ "type": "Feature", "properties": { "codigo_br": "174", "uf": "RR", "sigla_tipo_trecho": "B", "local_inicio": "IGARAPÉ JABURU", "local_fim": "IGARAPÉ SEABRA", "km_ini": 178.0, "km_fim": 182.4, "extensao": 4.4, "superficie_federal": "PAV", "versao_snv": "202607A" }, "geometry": { "type": "MultiLineString", "coordinates": [ [ [ -60.45384401, 0.64756259 ], [ -60.44645348, 0.68644353 ] ] ] } },
{ "type": "Feature", "properties": { "codigo_br": "174", "uf": "RR", "sigla_tipo_trecho": "B", "local_inicio": "IGARAPÉ SEABRA", "local_fim": "IGARAPÉ SÁ NETO", "km_ini": 182.4, "km_fim": 194.1, "extensao": 11.7, "superficie_federal": "PAV", "versao_snv": "202607A" }, "geometry": { "type": "MultiLineString", "coordinates": [ [ [ -60.44645348, 0.68644353 ], [ -60.44415192, 0.69884003 ], [ -60.44418177, 0.70103636 ], [ -60.45767154, 0.73220935 ], [ -60.45817259, 0.73431134 ], [ -60.45422953, 0.77079736 ], [ -60.44945278, 0.78832806 ] ] ] } },
{ "type": "Feature", "properties": { "codigo_br": "174", "uf": "RR", "sigla_tipo_trecho": "B", "local_inicio": "IGARAPÉ SÁ NETO", "local_fim": "IGARAPÉ YAMANAKA", "km_ini": 194.1, "km_fim": 208.3, "extensao": 14.2, "superficie_federal": "PAV", "versao_snv": "202607A" }, "geometry": { "type": "MultiLineString", "coordinates": [ [ [ -60.44945278, 0.78832806 ], [ -60.44327526, 0.80973936 ], [ -60.4382623, 0.83434672 ], [ -60.43736537, 0.84285927 ], [ -60.43641778, 0.84656176 ], [ -60.43650332, 0.85174577 ], [ -60.43381842, 0.88035412 ], [ -60.43255353, 0.91210791 ] ] ] } },
{ "type": "Feature", "properties": { "codigo_br": "174", "uf": "RR", "sigla_tipo_trecho": "B", "local_inicio": "IGARAPÉ BRANCO", "local_fim": "IGARAPÉ AZUL", "km_ini": 430.6, "km_fim": 431.3, "extensao": 0.7, "superficie_federal": "PAV", "versao_snv": "202607A" }, "geometry": { "type": "MultiLineString", "coordinates": [ [ [ -60.92929939, 2.29910771 ], [ -60.92568238, 2.30045821 ], [ -60.92266516, 2.30074079 ] ] ] } },
{ "type": "Feature", "properties": { "codigo_br": "174", "uf": "RR", "sigla_tipo_trecho": "B", "local_inicio": "IGARAPÉ AZUL", "local_fim": "ENTR RR-325 (MUCAJAÍ)", "km_ini": 431.3, "km_fim": 448.0, "extensao": 16.7, "superficie_federal": "PAV", "versao_snv": "202607A" }, "geometry": { "type": "MultiLineString", "coordinates": [ [ [ -60.92266516, 2.30074079 ], [ -60.91580635, 2.30125916 ], [ -60.91403085, 2.30187302 ], [ -60.91260672, 2.30288501 ], [ -60.91145301, 2.30436551 ], [ -60.90697976, 2.31281968 ], [ -60.90622579, 2.31570773 ], [ -60.9203753, 2.41562459 ], [ -60.92193258, 2.42279586 ], [ -60.92177136, 2.42468564 ], [ -60.91901053, 2.43512163 ], [ -60.91867085, 2.44011541 ] ] ] } },
{ "type": "Feature", "properties": { "codigo_br": "174", "uf": "RR", "sigla_tipo_trecho": "B", "local_inicio": "IGARAPÉ YAMANAKA", "local_fim": "ENTR VIC 01/02 (RORAINÓPÓLIS)", "km_ini": 208.3, "km_fim": 211.8, "extensao": 3.5, "superficie_federal": "PAV", "versao_snv": "202607A" }, "geometry": { "type": "MultiLineString", "coordinates": [ [ [ -60.43255353, 0.91210791 ], [ -60.43204641, 0.91985481 ], [ -60.42423213, 0.94282276 ] ] ] } },
{ "type": "Feature", "properties": { "codigo_br": "174", "uf": "RR", "sigla_tipo_trecho": "B", "local_inicio": "IGARAPÉ AÍ GRANDE", "local_fim": "ACESSO SUL BOA VISTA", "km_ini": 493.0, "km_fim": 493.6, "extensao": 0.6, "superficie_federal": "PAV", "versao_snv": "202607A" }, "geometry": { "type": "MultiLineString", "coordinates": [ [ [ -60.7490662, 2.74469886 ], [ -60.74458869, 2.7482214 ] ] ] } },
{ "type": "Feature", "properties": { "codigo_br": "174", "uf": "RR", "sigla_tipo_trecho": "B", "local_inicio": "ENTR VIC 01/02 (RORAINÓPÓLIS)", "local_fim": "IGARAPÉ TENENTE CORONEL", "km_ini": 211.8, "km_fim": 213.6, "extensao": 1.8, "superficie_federal": "PAV", "versao_snv": "202607A" }, "geometry": { "type": "MultiLineString", "coordinates": [ [ [ -60.42423213, 0.94282276 ], [ -60.42150898, 0.95069176 ], [ -60.41761859, 0.95798225 ] ] ] } },
{ "type": "Feature", "properties": { "codigo_br": "174", "uf": "RR", "sigla_tipo_trecho": "B", "local_inicio": "IGARAPÉ TENENTE CORONEL", "local_fim": "IGARAPÉ MARTINS PEREIRA (VILA M PEREIRA)", "km_ini": 213.6, "km_fim": 225.1, "extensao": 11.5, "superficie_federal": "PAV", "versao_snv": "202607A" }, "geometry": { "type": "MultiLineString", "coordinates": [ [ [ -60.41761859, 0.95798225 ], [ -60.40541188, 0.98102316 ], [ -60.40396677, 0.99565166 ], [ -60.40436038, 0.99987872 ], [ -60.40302782, 1.01410688 ], [ -60.40215056, 1.01571456 ], [ -60.39915492, 1.01954315 ], [ -60.3937077, 1.02386886 ], [ -60.38997113, 1.03058389 ], [ -60.38434913, 1.03793604 ], [ -60.38361831, 1.03993971 ], [ -60.38253637, 1.05136827 ] ] ] } },
{ "type": "Feature", "properties": { "codigo_br": "174", "uf": "RR", "sigla_tipo_trecho": "B", "local_inicio": "IGARAPÉ SCHULLER", "local_fim": "IGARAPÉ NELSON RIBEIRO", "km_ini": 262.9, "km_fim": 265.5, "extensao": 2.6, "superficie_federal": "PAV", "versao_snv": "202607A" }, "geometry": { "type": "MultiLineString", "coordinates": [ [ [ -60.52051728, 1.2853323 ], [ -60.54391697, 1.2899342 ] ] ] } },
{ "type": "Feature", "properties": { "codigo_br": "174", "uf": "RR", "sigla_tipo_trecho": "B", "local_inicio": "ACESSO SUL BOA VISTA", "local_fim": "ENTR RR-205 (ACESSO OESTE BOA VISTA)", "km_ini": 493.6, "km_fim": 504.8, "extensao": 11.2, "superficie_federal": "PAV", "versao_snv": "202607A" }, "geometry": { "type": "MultiLineString", "coordinates": [ [ [ -60.74458869, 2.7482214 ], [ -60.76163823, 2.77161309 ], [ -60.79607247, 2.80094952 ], [ -60.79857328, 2.80470074 ], [ -60.80165121, 2.81056803 ], [ -60.80395965, 2.81614676 ], [ -60.80601053, 2.82730762 ] ] ] } },
{ "type": "Feature", "properties": { "codigo_br": "174", "uf": "RR", "sigla_tipo_trecho": "B", "local_inicio": "ENTR RR-205 (ACESSO OESTE BOA VISTA)", "local_fim": "IGARAPÉ TABOCA", "km_ini": 504.8, "km_fim": 510.2, "extensao": 5.4, "superficie_federal": "PAV", "versao_snv": "202607A" }, "geometry": { "type": "MultiLineString", "coordinates": [ [ [ -60.80601053, 2.82730762 ], [ -60.80798743, 2.83766603 ], [ -60.80763423, 2.83957993 ], [ -60.80278003, 2.8534176 ], [ -60.79297975, 2.87180202 ] ] ] } },
{ "type": "Feature", "properties": { "codigo_br": "174", "uf": "RR", "sigla_tipo_trecho": "B", "local_inicio": "IGARAPÉ TABOCA", "local_fim": "INÍCIO PONTE S/RIO CAUAMÉ", "km_ini": 510.2, "km_fim": 514.5, "extensao": 4.3, "superficie_federal": "PAV", "versao_snv": "202607A" }, "geometry": { "type": "MultiLineString", "coordinates": [ [ [ -60.79297975, 2.87180202 ], [ -60.78024754, 2.89596328 ], [ -60.77448126, 2.90440912 ] ] ] } },
{ "type": "Feature", "properties": { "codigo_br": "174", "uf": "RR", "sigla_tipo_trecho": "B", "local_inicio": "IGARAPÉ MARTINS PEREIRA (VILA M PEREIRA)", "local_fim": "IGARAPÉ TENENTE BARRETO", "km_ini": 225.1, "km_fim": 229.8, "extensao": 4.7, "superficie_federal": "PAV", "versao_snv": "202607A" }, "geometry": { "type": "MultiLineString", "coordinates": [ [ [ -60.38253637, 1.05136827 ], [ -60.3806885, 1.07405338 ], [ -60.38755185, 1.09274198 ] ] ] } },
{ "type": "Feature", "properties": { "codigo_br": "210", "uf": "RR", "sigla_tipo_trecho": "B", "local_inicio": "FIM DA DUPLICAÇÃO (SÃO JOÃO DA BALIZA)", "local_fim": "IGARAPÉ AREAL", "km_ini": 119.1, "km_fim": 141.0, "extensao": 21.9, "superficie_federal": "PAV", "versao_snv": "202607A" }, "geometry": { "type": "MultiLineString", "coordinates": [ [ [ -59.91445144, 0.95033661 ], [ -59.9408484, 0.95455082 ], [ -59.94233824, 0.95500972 ], [ -59.97046891, 0.96994381 ], [ -59.98984495, 0.98636287 ], [ -60.00205432, 0.99149795 ], [ -60.02250049, 1.00780295 ], [ -60.02390067, 1.00821136 ], [ -60.02896387, 1.00848736 ], [ -60.03064554, 1.00886124 ], [ -60.0552025, 1.02139277 ], [ -60.07875574, 1.02859152 ], [ -60.0884021, 1.03378474 ] ] ] } },
{ "type": "Feature", "properties": { "codigo_br": "210", "uf": "RR", "sigla_tipo_trecho": "B", "local_inicio": "DIV PA/RR", "local_fim": "RIO JATAPU", "km_ini": 0.0, "km_fim": 45.3, "extensao": 45.3, "superficie_federal": "PLA", "versao_snv": "202607A" }, "geometry": { "type": "MultiLineString", "coordinates": [ [ [ -58.89672158, 0.72352165 ], [ -59.19183994, 0.69104096 ], [ -59.25847483, 0.73319773 ], [ -59.2897834, 0.75930714 ] ] ] } },
{ "type": "Feature", "properties": { "codigo_br": "210", "uf": "RR", "sigla_tipo_trecho": "B", "local_inicio": "RIO JATAPU", "local_fim": "ENTR VIC13/14 (ENTRE RIOS)", "km_ini": 45.3, "km_fim": 61.5, "extensao": 16.2, "superficie_federal": "IMP", "versao_snv": "202607A" }, "geometry": { "type": "MultiLineString", "coordinates": [ [ [ -59.2897834, 0.75930714 ], [ -59.36829094, 0.78756159 ], [ -59.36941755, 0.78829794 ], [ -59.37324149, 0.79256214 ], [ -59.38016165, 0.79484337 ], [ -59.38197421, 0.7949602 ], [ -59.39470147, 0.79234817 ], [ -59.40792599, 0.7936914 ], [ -59.41740406, 0.79645812 ], [ -59.42862755, 0.79744235 ] ] ] } },
{ "type": "Feature", "properties": { "codigo_br": "210", "uf": "RR", "sigla_tipo_trecho": "B", "local_inicio": "ENTR VIC13/14 (ENTRE RIOS)", "local_fim": "IGARAPÉ ROCOCÓ", "km_ini": 61.5, "km_fim": 84.2, "extensao": 22.7, "superficie_federal": "IMP", "versao_snv": "202607A" }, "geometry": { "type": "MultiLineString", "coordinates": [ [ [ -59.42862755, 0.79744235 ], [ -59.4344553, 0.79802419 ], [ -59.45167202, 0.80290455 ], [ -59.46471694, 0.80477405 ], [ -59.49466667, 0.81504133 ], [ -59.5288669, 0.81801106 ], [ -59.53929225, 0.82216766 ], [ -59.56744434, 0.82356814 ], [ -59.56937331, 0.82458168 ], [ -59.60251469, 0.84633714 ], [ -59.61776029, 0.85334451 ], [ -59.62067323, 0.85505625 ] ] ] } },
{ "type": "Feature", "properties": { "codigo_br": "210", "uf": "RR", "sigla_tipo_trecho": "B", "local_inicio": "ENTR BR-174/210/432 (VILA NOVO PARAÍSO)", "local_fim": "RIO DIAS", "km_ini": 184.0, "km_fim": 199.5, "extensao": 15.5, "superficie_federal": "PAV", "versao_snv": "202607A" }, "geometry": { "type": "MultiLineString", "coordinates": [ [ [ -60.38500004, 1.22351365 ], [ -60.39638216, 1.22966723 ], [ -60.43929126, 1.24306353 ], [ -60.46676597, 1.24579814 ], [ -60.48602853, 1.25230717 ], [ -60.50023249, 1.26235636 ], [ -60.50138819, 1.26401946 ], [ -60.50353076, 1.26952766 ], [ -60.50994565, 1.27593128 ] ] ] } },
{ "type": "Feature", "properties": { "codigo_br": "210", "uf": "RR", "sigla_tipo_trecho": "B", "local_inicio": "RIO DIAS", "local_fim": "IGARAPÉ SCHULLER", "km_ini": 199.5, "km_fim": 201.2, "extensao": 1.7, "superficie_federal": "PAV", "versao_snv": "202607A" }, "geometry": { "type": "MultiLineString", "coordinates": [ [ [ -60.50994565, 1.27593128 ], [ -60.51859904, 1.28441998 ], [ -60.52051728, 1.2853323 ] ] ] } },
{ "type": "Feature", "properties": { "codigo_br": "210", "uf": "RR", "sigla_tipo_trecho": "B", "local_inicio": "IGARAPÉ SCHULLER", "local_fim": "IGARAPÉ NELSON RIBEIRO", "km_ini": 201.2, "km_fim": 203.8, "extensao": 2.6, "superficie_federal": "PAV", "versao_snv": "202607A" }, "geometry": { "type": "MultiLineString", "coordinates": [ [ [ -60.52051728, 1.2853323 ], [ -60.54391697, 1.2899342 ] ] ] } },
{ "type": "Feature", "properties": { "codigo_br": "210", "uf": "RR", "sigla_tipo_trecho": "B", "local_inicio": "IGARAPÉ ROCOCÓ", "local_fim": "RIO CAROEBE", "km_ini": 84.2, "km_fim": 89.5, "extensao": 5.3, "superficie_federal": "IMP", "versao_snv": "202607A" }, "geometry": { "type": "MultiLineString", "coordinates": [ [ [ -59.62067323, 0.85505625 ], [ -59.62457036, 0.85718929 ], [ -59.63113292, 0.85737651 ], [ -59.63259645, 0.85773787 ], [ -59.63894079, 0.86293709 ], [ -59.65189848, 0.87101606 ], [ -59.66018185, 0.87472907 ], [ -59.66244817, 0.87520023 ] ] ] } },
{ "type": "Feature", "properties": { "codigo_br": "210", "uf": "RR", "sigla_tipo_trecho": "B", "local_inicio": "RIO CAROEBE", "local_fim": "ENTR VIC 36/37 (CAROEBE)", "km_ini": 89.5, "km_fim": 93.7, "extensao": 4.2, "superficie_federal": "PAV", "versao_snv": "202607A" }, "geometry": { "type": "MultiLineString", "coordinates": [ [ [ -59.66244817, 0.87520023 ], [ -59.69973934, 0.88126967 ] ] ] } },
{ "type": "Feature", "properties": { "codigo_br": "210", "uf": "RR", "sigla_tipo_trecho": "B", "local_inicio": "IGARAPÉ SECO", "local_fim": "IGARAPÉ LAGOA", "km_ini": 243.0, "km_fim": 244.1, "extensao": 1.1, "superficie_federal": "PAV", "versao_snv": "202607A" }, "geometry": { "type": "MultiLineString", "coordinates": [ [ [ -60.82171653, 1.48407887 ], [ -60.83142683, 1.4822175 ] ] ] } },
{ "type": "Feature", "properties": { "codigo_br": "210", "uf": "RR", "sigla_tipo_trecho": "B", "local_inicio": "ENTR VIC 36/37 (CAROEBE)", "local_fim": "IGARAPÉ TABOCA", "km_ini": 93.7, "km_fim": 98.0, "extensao": 4.3, "superficie_federal": "PAV", "versao_snv": "202607A" }, "geometry": { "type": "MultiLineString", "coordinates": [ [ [ -59.69973934, 0.88126967 ], [ -59.70518168, 0.88220806 ], [ -59.73173296, 0.89267454 ], [ -59.73327476, 0.89353577 ], [ -59.73494014, 0.89558439 ] ] ] } },
{ "type": "Feature", "properties": { "codigo_br": "210", "uf": "RR", "sigla_tipo_trecho": "B", "local_inicio": "IGARAPÉ TABOCA", "local_fim": "INÍCIO DUPLICAÇÃO (SÃO JOÃO DA BALIZA)", "km_ini": 98.0, "km_fim": 118.4, "extensao": 20.4, "superficie_federal": "PAV", "versao_snv": "202607A" }, "geometry": { "type": "MultiLineString", "coordinates": [ [ [ -59.73494014, 0.89558439 ], [ -59.73606796, 0.89689253 ], [ -59.73942658, 0.89966058 ], [ -59.74662495, 0.903628 ], [ -59.76314527, 0.90703074 ], [ -59.81306437, 0.92522945 ], [ -59.82744245, 0.92810241 ], [ -59.87061547, 0.93586919 ], [ -59.88361075, 0.94250437 ], [ -59.89223039, 0.94444567 ], [ -59.90209858, 0.94866941 ], [ -59.9077016, 0.94938666 ] ] ] } },
{ "type": "Feature", "properties": { "codigo_br": "210", "uf": "RR", "sigla_tipo_trecho": "B", "local_inicio": "INÍCIO DUPLICAÇÃO (SÃO JOÃO DA BALIZA)", "local_fim": "ENTR RR-371 (SÃO JOÃO DA BALIZA)", "km_ini": 118.4, "km_fim": 118.8, "extensao": 0.4, "superficie_federal": "DUP", "versao_snv": "202607A" }, "geometry": { "type": "MultiLineString", "coordinates": [ [ [ -59.9077016, 0.94938666 ], [ -59.91179382, 0.94991843 ] ] ] } },
{ "type": "Feature", "properties": { "codigo_br": "210", "uf": "RR", "sigla_tipo_trecho": "B", "local_inicio": "ENTR RR-371 (SÃO JOÃO DA BALIZA)", "local_fim": "FIM DA DUPLICAÇÃO (SÃO JOÃO DA BALIZA)", "km_ini": 118.8, "km_fim": 119.1, "extensao": 0.3, "superficie_federal": "DUP", "versao_snv": "202607A" }, "geometry": { "type": "MultiLineString", "coordinates": [ [ [ -59.91179382, 0.94991843 ], [ -59.91445144, 0.95033661 ] ] ] } },
{ "type": "Feature", "properties": { "codigo_br": "210", "uf": "RR", "sigla_tipo_trecho": "B", "local_inicio": "IGARAPÉ AREAL", "local_fim": "ENTR RR-369 (VILA MODERNA)", "km_ini": 141.0, "km_fim": 154.1, "extensao": 13.1, "superficie_federal": "PAV", "versao_snv": "202607A" }, "geometry": { "type": "MultiLineString", "coordinates": [ [ [ -60.0884021, 1.03378474 ], [ -60.09919295, 1.03957402 ], [ -60.10945485, 1.04166922 ], [ -60.11336836, 1.04301446 ], [ -60.11711547, 1.04358753 ], [ -60.13844714, 1.05143736 ], [ -60.15532544, 1.05502 ], [ -60.15935464, 1.05537325 ], [ -60.1635372, 1.05690615 ], [ -60.1683409, 1.05740919 ], [ -60.16961852, 1.05781496 ], [ -60.18333909, 1.06877095 ], [ -60.19112081, 1.08100728 ] ] ] } },
{ "type": "Feature", "properties": { "codigo_br": "210", "uf": "RR", "sigla_tipo_trecho": "B", "local_inicio": "ENTR RR-369 (VILA MODERNA)", "local_fim": "RIO ANAUÁ", "km_ini": 154.1, "km_fim": 160.6, "extensao": 6.5, "superficie_federal": "PAV", "versao_snv": "202607A" }, "geometry": { "type": "MultiLineString", "coordinates": [ [ [ -60.19112081, 1.08100728 ], [ -60.19223912, 1.0823819 ], [ -60.20186404, 1.09126516 ], [ -60.21008232, 1.1077145 ], [ -60.22274007, 1.12279181 ], [ -60.22329742, 1.12441302 ], [ -60.22366814, 1.12837614 ] ] ] } },
{ "type": "Feature", "properties": { "codigo_br": "210", "uf": "RR", "sigla_tipo_trecho": "B", "local_inicio": "RIO ANAUÁ", "local_fim": "IGARAPÉ SÃO FRANCISCO", "km_ini": 160.6, "km_fim": 167.4, "extensao": 6.8, "superficie_federal": "PAV", "versao_snv": "202607A" }, "geometry": { "type": "MultiLineString", "coordinates": [ [ [ -60.22366814, 1.12837614 ], [ -60.22606268, 1.15484346 ], [ -60.22694919, 1.15674301 ], [ -60.23571557, 1.16296583 ], [ -60.240462, 1.16779954 ], [ -60.24191116, 1.16875833 ], [ -60.24354008, 1.16902841 ], [ -60.25472254, 1.16763943 ] ] ] } },
{ "type": "Feature", "properties": { "codigo_br": "210", "uf": "RR", "sigla_tipo_trecho": "B", "local_inicio": "IGARAPÉ SÃO FRANCISCO", "local_fim": "ENTR BR-174/210/432 (VILA NOVO PARAÍSO)", "km_ini": 167.4, "km_fim": 184.0, "extensao": 16.6, "superficie_federal": "PAV", "versao_snv": "202607A" }, "geometry": { "type": "MultiLineString", "coordinates": [ [ [ -60.25472254, 1.16763943 ], [ -60.2675109, 1.16600604 ], [ -60.26923164, 1.16634398 ], [ -60.28536209, 1.17755041 ], [ -60.29778651, 1.18898639 ], [ -60.30153949, 1.19431887 ], [ -60.31514202, 1.20510702 ], [ -60.31677724, 1.20539295 ], [ -60.34946252, 1.20451559 ], [ -60.38500004, 1.22351365 ] ] ] } },
{ "type": "Feature", "properties": { "codigo_br": "210", "uf": "RR", "sigla_tipo_trecho": "B", "local_inicio": "IGARAPÉ NELSON RIBEIRO", "local_fim": "IGARAPÉ TAMANDARÉ", "km_ini": 203.8, "km_fim": 207.3, "extensao": 3.5, "superficie_federal": "PAV", "versao_snv": "202607A" }, "geometry": { "type": "MultiLineString", "coordinates": [ [ [ -60.54391697, 1.2899342 ], [ -60.55731424, 1.29254878 ], [ -60.55928721, 1.29330936 ], [ -60.5608012, 1.29465987 ], [ -60.56905169, 1.30559886 ] ] ] } },
{ "type": "Feature", "properties": { "codigo_br": "210", "uf": "RR", "sigla_tipo_trecho": "B", "local_inicio": "IGARAPÉ TAMANDARÉ", "local_fim": "IGARAPÉ CALEFFI", "km_ini": 207.3, "km_fim": 220.0, "extensao": 12.7, "superficie_federal": "PAV", "versao_snv": "202607A" }, "geometry": { "type": "MultiLineString", "coordinates": [ [ [ -60.56905169, 1.30559886 ], [ -60.59298687, 1.33699888 ], [ -60.63496236, 1.37771889 ], [ -60.64377113, 1.39191457 ] ] ] } },
{ "type": "Feature", "properties": { "codigo_br": "210", "uf": "RR", "sigla_tipo_trecho": "B", "local_inicio": "INÍCIO TRAV.RIO REPARTIMENTO DO AJARANI", "local_fim": "MISSÃO CATRIMANI", "km_ini": 359.2, "km_fim": 468.2, "extensao": 109.0, "superficie_federal": "PLA", "versao_snv": "202607A" }, "geometry": { "type": "MultiLineString", "coordinates": [ [ [ -61.4728671, 2.01120383 ], [ -61.47695295, 2.01345404 ], [ -61.4784174, 2.01357251 ], [ -61.48798008, 2.01240688 ], [ -61.49039369, 2.01150777 ], [ -61.49435946, 2.00876321 ], [ -61.5014827, 2.00259465 ], [ -61.51213889, 1.99831402 ], [ -61.51794385, 1.99536038 ], [ -61.53474614, 1.98868131 ], [ -61.53694702, 1.98666153 ], [ -61.5460154, 1.9760323 ], [ -61.55161327, 1.97283115 ], [ -61.55491449, 1.96845713 ], [ -61.5685123, 1.96222599 ], [ -61.57252355, 1.96141844 ], [ -61.57976171, 1.95612268 ], [ -61.58588201, 1.95508428 ], [ -61.59480869, 1.94812791 ], [ -61.61556501, 1.93906774 ], [ -61.61810675, 1.93882767 ], [ -61.63273113, 1.94022643 ], [ -61.63937444, 1.94126713 ], [ -61.64536815, 1.93985707 ], [ -61.65005791, 1.94026278 ], [ -61.65486753, 1.93972193 ], [ -61.66417096, 1.94002818 ], [ -61.67756015, 1.9413063 ], [ -61.68289308, 1.94025834 ], [ -61.6939707, 1.93888993 ], [ -61.70091892, 1.93932706 ], [ -61.7160243, 1.93949814 ], [ -61.71876668, 1.94095105 ], [ -61.72139619, 1.93899628 ], [ -61.72371237, 1.93802742 ], [ -61.73643948, 1.93945978 ], [ -61.74004151, 1.9406358 ], [ -61.74432215, 1.9410546 ], [ -61.75513702, 1.94128863 ], [ -61.76231139, 1.93799358 ], [ -61.79191803, 1.94422847 ], [ -61.82407315, 1.93304408 ], [ -61.85762631, 1.92745189 ], [ -61.87580094, 1.92884994 ], [ -61.91634434, 1.91766555 ], [ -61.92482325, 1.91683428 ], [ -61.98083639, 1.894113 ], [ -62.02397905, 1.88608134 ], [ -62.03711649, 1.88411925 ], [ -62.05111778, 1.87540233 ], [ -62.08109656, 1.86354564 ], [ -62.10155492, 1.84885448 ], [ -62.15514124, 1.82167821 ], [ -62.18196683, 1.81178574 ], [ -62.21272712, 1.79339591 ], [ -62.24436918, 1.77551551 ], [ -62.26332781, 1.77020201 ], [ -62.27429254, 1.76145516 ], [ -62.27813834, 1.74635238 ], [ -62.27955777, 1.74489354 ], [ -62.28723687, 1.74026576 ] ] ] } },
{ "type": "Feature", "properties": { "codigo_br": "210", "uf": "RR", "sigla_tipo_trecho": "B", "local_inicio": "MISSÃO CATRIMANI", "local_fim": "DIV RR/AM", "km_ini": 468.2, "km_fim": 528.2, "extensao": 60.0, "superficie_federal": "PLA", "versao_snv": "202607A" }, "geometry": { "type": "MultiLineString", "coordinates": [ [ [ -62.28723687, 1.74026576 ], [ -62.3050018, 1.72193877 ], [ -62.36371983, 1.68558951 ], [ -62.39727299, 1.66601683 ], [ -62.43362225, 1.6506383 ], [ -62.46577737, 1.62687148 ], [ -62.51191296, 1.59471637 ], [ -62.55525246, 1.58213393 ], [ -62.57622319, 1.57374564 ], [ -62.60278611, 1.54718272 ], [ -62.63214513, 1.51922175 ], [ -62.66989243, 1.50803737 ], [ -62.74931302, 1.50436708 ] ] ] } },
{ "type": "Feature", "properties": { "codigo_br": "210", "uf": "RR", "sigla_tipo_trecho": "B", "local_inicio": "IGARAPÉ CALEFFI", "local_fim": "IGARAPÉ KALL", "km_ini": 220.0, "km_fim": 227.0, "extensao": 7.0, "superficie_federal": "PAV", "versao_snv": "202607A" }, "geometry": { "type": "MultiLineString", "coordinates": [ [ [ -60.64377113, 1.39191457 ], [ -60.65284058, 1.40666326 ], [ -60.65390609, 1.40777103 ], [ -60.6736896, 1.41886219 ], [ -60.69320533, 1.42642044 ] ] ] } },
{ "type": "Feature", "properties": { "codigo_br": "210", "uf": "RR", "sigla_tipo_trecho": "B", "local_inicio": "IGARAPÉ KALL", "local_fim": "RIO ITÃ", "km_ini": 227.0, "km_fim": 234.3, "extensao": 7.3, "superficie_federal": "PAV", "versao_snv": "202607A" }, "geometry": { "type": "MultiLineString", "coordinates": [ [ [ -60.69320533, 1.42642044 ], [ -60.69914214, 1.42861346 ], [ -60.71733141, 1.4320182 ], [ -60.72510062, 1.43183977 ], [ -60.72698727, 1.43218047 ], [ -60.72886779, 1.43334534 ], [ -60.75218406, 1.45224261 ] ] ] } },
{ "type": "Feature", "properties": { "codigo_br": "210", "uf": "RR", "sigla_tipo_trecho": "B", "local_inicio": "RIO ITÃ", "local_fim": "IGARAPÉ SECO", "km_ini": 234.3, "km_fim": 243.0, "extensao": 8.7, "superficie_federal": "PAV", "versao_snv": "202607A" }, "geometry": { "type": "MultiLineString", "coordinates": [ [ [ -60.75218406, 1.45224261 ], [ -60.75756625, 1.45657183 ], [ -60.75902446, 1.45737619 ], [ -60.7800166, 1.46296835 ], [ -60.81236104, 1.48212874 ], [ -60.81953391, 1.48403564 ], [ -60.82171653, 1.48407887 ] ] ] } },
{ "type": "Feature", "properties": { "codigo_br": "210", "uf": "RR", "sigla_tipo_trecho": "B", "local_inicio": "IGARAPÉ LAGOA", "local_fim": "RIO BARAUANA", "km_ini": 244.1, "km_fim": 247.7, "extensao": 3.6, "superficie_federal": "PAV", "versao_snv": "202607A" }, "geometry": { "type": "MultiLineString", "coordinates": [ [ [ -60.83142683, 1.4822175 ], [ -60.8636103, 1.47621118 ] ] ] } },
{ "type": "Feature", "properties": { "codigo_br": "210", "uf": "RR", "sigla_tipo_trecho": "B", "local_inicio": "RIO BARAUANA", "local_fim": "VILA PETROLINA", "km_ini": 247.7, "km_fim": 268.1, "extensao": 20.4, "superficie_federal": "PAV", "versao_snv": "202607A" }, "geometry": { "type": "MultiLineString", "coordinates": [ [ [ -60.8636103, 1.47621118 ], [ -60.86615854, 1.4758757 ], [ -60.88409817, 1.47597565 ], [ -60.90047787, 1.47935905 ], [ -60.9411295, 1.49671514 ], [ -60.97096126, 1.49712469 ], [ -60.97233477, 1.49750179 ], [ -60.97309415, 1.49868549 ], [ -60.98469122, 1.55367161 ], [ -60.98542771, 1.55561325 ], [ -60.98899926, 1.56213619 ] ] ] } },
{ "type": "Feature", "properties": { "codigo_br": "210", "uf": "RR", "sigla_tipo_trecho": "B", "local_inicio": "VILA PETROLINA", "local_fim": "INÍCIO PONTE S/RIO BRANCO (VISTA ALEGRE)", "km_ini": 268.1, "km_fim": 293.9, "extensao": 25.8, "superficie_federal": "PAV", "versao_snv": "202607A" }, "geometry": { "type": "MultiLineString", "coordinates": [ [ [ -60.98899926, 1.56213619 ], [ -61.00774631, 1.59521826 ], [ -61.02317117, 1.62150265 ], [ -61.05440499, 1.65176044 ], [ -61.06358588, 1.65883657 ], [ -61.08734795, 1.67842379 ], [ -61.11789309, 1.70542603 ], [ -61.14030831, 1.73873312 ] ] ] } },
{ "type": "Feature", "properties": { "codigo_br": "210", "uf": "RR", "sigla_tipo_trecho": "B", "local_inicio": "INÍCIO PONTE S/RIO BRANCO (VISTA ALEGRE)", "local_fim": "R.SEN. HÉLIO CAMPOS (CARACARAÍ)", "km_ini": 293.9, "km_fim": 305.4, "extensao": 11.5, "superficie_federal": "PAV", "versao_snv": "202607A" }, "geometry": { "type": "MultiLineString", "coordinates": [ [ [ -61.14030831, 1.73873312 ], [ -61.14835221, 1.74531583 ], [ -61.15057448, 1.7535333 ], [ -61.15625394, 1.76691252 ], [ -61.15671519, 1.77000979 ], [ -61.1558231, 1.78384941 ], [ -61.15372426, 1.79729453 ], [ -61.14777997, 1.81457048 ], [ -61.14651676, 1.81608876 ], [ -61.13101879, 1.82795648 ] ] ] } },
{ "type": "Feature", "properties": { "codigo_br": "210", "uf": "RR", "sigla_tipo_trecho": "B", "local_inicio": "R.SEN. HÉLIO CAMPOS (CARACARAÍ)", "local_fim": "ENTR BR-174/210/RR-327/347", "km_ini": 305.4, "km_fim": 315.5, "extensao": 10.1, "superficie_federal": "PAV", "versao_snv": "202607A" }, "geometry": { "type": "MultiLineString", "coordinates": [ [ [ -61.13101879, 1.82795648 ], [ -61.12097963, 1.83554169 ], [ -61.1172627, 1.84228362 ], [ -61.11622374, 1.84473794 ], [ -61.11577276, 1.8475495 ], [ -61.11441317, 1.87040629 ], [ -61.11543873, 1.88862324 ], [ -61.10943122, 1.91026959 ], [ -61.10847285, 1.91203117 ] ] ] } },
{ "type": "Feature", "properties": { "codigo_br": "210", "uf": "RR", "sigla_tipo_trecho": "B", "local_inicio": "ENTR BR-174/210/RR-327/347", "local_fim": "INÍCIO TRAV.RIO REPARTIMENTO DO AJARANI", "km_ini": 315.5, "km_fim": 359.2, "extensao": 43.7, "superficie_federal": "IMP", "versao_snv": "202607A" }, "geometry": { "type": "MultiLineString", "coordinates": [ [ [ -61.10847285, 1.91203117 ], [ -61.1091969, 1.91261667 ], [ -61.15728885, 1.92330377 ], [ -61.16034998, 1.92316951 ], [ -61.16424352, 1.9256399 ], [ -61.17831397, 1.92907695 ], [ -61.19195479, 1.92878158 ], [ -61.19329739, 1.92902325 ], [ -61.20481691, 1.9350918 ], [ -61.23975137, 1.94304 ], [ -61.24098656, 1.94379185 ], [ -61.24769957, 1.95560674 ], [ -61.24906902, 1.95665397 ], [ -61.30322952, 1.96908645 ], [ -61.30921752, 1.97284573 ], [ -61.34356124, 1.98063281 ], [ -61.36112246, 1.99196436 ], [ -61.37062807, 2.00216813 ], [ -61.38381241, 2.00659871 ], [ -61.41372555, 2.02593215 ], [ -61.41520241, 2.02617382 ], [ -61.43152735, 2.02153934 ], [ -61.43297844, 2.02077657 ], [ -61.44267202, 2.01239874 ], [ -61.45008317, 2.00955243 ], [ -61.45190911, 2.00933761 ], [ -61.47035644, 2.01065336 ], [ -61.4728671, 2.01120383 ] ] ] } },
{ "type": "Feature", "properties": { "codigo_br": "401", "uf": "RR", "sigla_tipo_trecho": "B", "local_inicio": "ENTR RR-206", "local_fim": "IGARAPÉ JUARI", "km_ini": 41.7, "km_fim": 48.9, "extensao": 7.2, "superficie_federal": "PAV", "versao_snv": "202607A" }, "geometry": { "type": "MultiLineString", "coordinates": [ [ [ -60.48315491, 2.90927388 ], [ -60.46368108, 2.94205906 ], [ -60.46255431, 2.9451022 ], [ -60.45852546, 2.96128511 ], [ -60.45703418, 2.96417185 ], [ -60.45426203, 2.96726977 ] ] ] } },
{ "type": "Feature", "properties": { "codigo_br": "401", "uf": "RR", "sigla_tipo_trecho": "B", "local_inicio": "IGARAPÉ SURRÃO", "local_fim": "ENTR RR-206", "km_ini": 31.4, "km_fim": 41.7, "extensao": 10.3, "superficie_federal": "PAV", "versao_snv": "202607A" }, "geometry": { "type": "MultiLineString", "coordinates": [ [ [ -60.55915191, 2.86249404 ], [ -60.55240963, 2.86970048 ], [ -60.5485328, 2.87229136 ], [ -60.49532558, 2.89106851 ], [ -60.49350085, 2.89247435 ], [ -60.4921156, 2.89412598 ], [ -60.48315491, 2.90927388 ] ] ] } },
{ "type": "Feature", "properties": { "codigo_br": "401", "uf": "RR", "sigla_tipo_trecho": "B", "local_inicio": "IGARAPÉ AZUL", "local_fim": "IGARAPÉ SURRÃO", "km_ini": 25.9, "km_fim": 31.4, "extensao": 5.5, "superficie_federal": "PAV", "versao_snv": "202607A" }, "geometry": { "type": "MultiLineString", "coordinates": [ [ [ -60.59298367, 2.82591967 ], [ -60.55915191, 2.86249404 ] ] ] } },
{ "type": "Feature", "properties": { "codigo_br": "401", "uf": "RR", "sigla_tipo_trecho": "B", "local_inicio": "INÍCIO PONTE S/RIO BRANCO - PONTE DOS MACUXIS", "local_fim": "FIM PONTE S/RIO BRANCO - PONTE DOS MACUXIS", "km_ini": 14.8, "km_fim": 16.0, "extensao": 1.2, "superficie_federal": "PAV", "versao_snv": "202607A" }, "geometry": { "type": "MultiLineString", "coordinates": [ [ [ -60.67615758, 2.79894036 ], [ -60.66654924, 2.79380032 ] ] ] } },
{ "type": "Feature", "properties": { "codigo_br": "401", "uf": "RR", "sigla_tipo_trecho": "B", "local_inicio": "AV BRASIL/AV VENEZUELA (BOA VISTA)", "local_fim": "INÍCIO PONTE S/RIO BRANCO - PONTE DOS MACUXIS", "km_ini": 13.0, "km_fim": 14.8, "extensao": 1.8, "superficie_federal": "DUP", "versao_snv": "202607A" }, "geometry": { "type": "MultiLineString", "coordinates": [ [ [ -60.69013232, 2.80644232 ], [ -60.68973587, 2.80592388 ], [ -60.67615758, 2.79894036 ] ] ] } },
{ "type": "Feature", "properties": { "codigo_br": "401", "uf": "RR", "sigla_tipo_trecho": "A", "local_inicio": "FIM DUPLICAÇÃO (BONFIM)", "local_fim": "FRONT BRASIL/GUIANA (PONTE INTERNACIONAL SOBRE O RIO TACUTU)", "km_ini": 15.1, "km_fim": 18.0, "extensao": 2.9, "superficie_federal": "PAV", "versao_snv": "202607A" }, "geometry": { "type": "MultiLineString", "coordinates": [ [ [ -59.83559488, 3.37065983 ], [ -59.81938338, 3.37916581 ], [ -59.81633153, 3.38005219 ], [ -59.81179755, 3.38057154 ] ] ] } },
{ "type": "Feature", "properties": { "codigo_br": "401", "uf": "RR", "sigla_tipo_trecho": "A", "local_inicio": "INÍCIO DUPLICAÇÃO (BONFIM)", "local_fim": "FIM DUPLICAÇÃO (BONFIM)", "km_ini": 12.9, "km_fim": 15.1, "extensao": 2.2, "superficie_federal": "DUP", "versao_snv": "202607A" }, "geometry": { "type": "MultiLineString", "coordinates": [ [ [ -59.8532346, 3.36134336 ], [ -59.83559488, 3.37065983 ] ] ] } },
{ "type": "Feature", "properties": { "codigo_br": "401", "uf": "RR", "sigla_tipo_trecho": "A", "local_inicio": "IGARAPÉ ARRAIA", "local_fim": "INÍCIO DUPLICAÇÃO (BONFIM)", "km_ini": 7.1, "km_fim": 12.9, "extensao": 5.8, "superficie_federal": "PAV", "versao_snv": "202607A" }, "geometry": { "type": "MultiLineString", "coordinates": [ [ [ -59.90400149, 3.35570415 ], [ -59.8983136, 3.35939202 ], [ -59.89477588, 3.36046169 ], [ -59.86153639, 3.35875603 ], [ -59.85736737, 3.35944505 ], [ -59.8532346, 3.36134336 ] ] ] } },
{ "type": "Feature", "properties": { "codigo_br": "401", "uf": "RR", "sigla_tipo_trecho": "B", "local_inicio": "FIM DUPLICAÇÃO", "local_fim": "IGARAPÉ AZUL", "km_ini": 24.9, "km_fim": 25.9, "extensao": 1.0, "superficie_federal": "PAV", "versao_snv": "202607A" }, "geometry": { "type": "MultiLineString", "coordinates": [ [ [ -60.59906836, 2.81934704 ], [ -60.59298367, 2.82591967 ] ] ] } },
{ "type": "Feature", "properties": { "codigo_br": "401", "uf": "RR", "sigla_tipo_trecho": "A", "local_inicio": "ESTRADA NORMANDIA (ACESSO BONFIM)", "local_fim": "IGARAPÉ ARRAIA", "km_ini": 0.0, "km_fim": 7.1, "extensao": 7.1, "superficie_federal": "PAV", "versao_snv": "202607A" }, "geometry": { "type": "MultiLineString", "coordinates": [ [ [ -59.94694937, 3.31057093 ], [ -59.90795597, 3.34815971 ], [ -59.90698309, 3.34976094 ], [ -59.90609842, 3.3535909 ], [ -59.90530046, 3.35470774 ], [ -59.90400149, 3.35570415 ] ] ] } },
{ "type": "Feature", "properties": { "codigo_br": "401", "uf": "RR", "sigla_tipo_trecho": "B", "local_inicio": "ENTR BR-401/432 (VILA SANTA CECÍLIA)", "local_fim": "FIM DUPLICAÇÃO", "km_ini": 23.4, "km_fim": 24.9, "extensao": 1.5, "superficie_federal": "DUP", "versao_snv": "202607A" }, "geometry": { "type": "MultiLineString", "coordinates": [ [ [ -60.60990995, 2.81181324 ], [ -60.60286706, 2.81593344 ], [ -60.59906836, 2.81934704 ] ] ] } },
{ "type": "Feature", "properties": { "codigo_br": "401", "uf": "RR", "sigla_tipo_trecho": "B", "local_inicio": "FIM PONTE S/RIO BRANCO - PONTE DOS MACUXIS", "local_fim": "ENTR BR-401/432 (VILA SANTA CECÍLIA)", "km_ini": 16.0, "km_fim": 23.4, "extensao": 7.4, "superficie_federal": "DUP", "versao_snv": "202607A" }, "geometry": { "type": "MultiLineString", "coordinates": [ [ [ -60.66654924, 2.79380032 ], [ -60.65329099, 2.78678774 ], [ -60.65079797, 2.78624272 ], [ -60.64824615, 2.78655157 ], [ -60.64538579, 2.78815709 ], [ -60.63768123, 2.79585621 ], [ -60.6357136, 2.79737176 ], [ -60.60990995, 2.81181324 ] ] ] } },
{ "type": "Feature", "properties": { "codigo_br": "401", "uf": "RR", "sigla_tipo_trecho": "B", "local_inicio": "ENTR RR-205 (ACESSO OESTE BOA VISTA)", "local_fim": "AV BRASIL/AV VENEZUELA (BOA VISTA)", "km_ini": 0.0, "km_fim": 13.0, "extensao": 13.0, "superficie_federal": "PLA", "versao_snv": "202607A" }, "geometry": { "type": "MultiLineString", "coordinates": [ [ [ -60.80601053, 2.82730762 ], [ -60.69013232, 2.80644232 ] ] ] } },
{ "type": "Feature", "properties": { "codigo_br": "401", "uf": "RR", "sigla_tipo_trecho": "B", "local_inicio": "ENTR AV.MAURÍCIO HABERT (NORMANDIA)", "local_fim": "FRONT BRASIL/GUIANA (NORMANDIA)", "km_ini": 198.2, "km_fim": 200.0, "extensao": 1.8, "superficie_federal": "PLA", "versao_snv": "202607A" }, "geometry": { "type": "MultiLineString", "coordinates": [ [ [ -59.62625843, 3.8834233 ], [ -59.59447333, 3.88011746 ] ] ] } },
{ "type": "Feature", "properties": { "codigo_br": "401", "uf": "RR", "sigla_tipo_trecho": "B", "local_inicio": "INÍCIO DA PAVIMENTAÇÃO", "local_fim": "ENTR AV.MAURÍCIO HABERT (NORMANDIA)", "km_ini": 190.5, "km_fim": 198.2, "extensao": 7.7, "superficie_federal": "PAV", "versao_snv": "202607A" }, "geometry": { "type": "MultiLineString", "coordinates": [ [ [ -59.68419799, 3.84659323 ], [ -59.65584007, 3.87062333 ], [ -59.65292227, 3.8721042 ], [ -59.63842042, 3.87754877 ], [ -59.62625843, 3.8834233 ] ] ] } },
{ "type": "Feature", "properties": { "codigo_br": "401", "uf": "RR", "sigla_tipo_trecho": "B", "local_inicio": "ENTR BR-401/433/ESTRADA DO LAGO DO CARACARANÃ", "local_fim": "INÍCIO DA PAVIMENTAÇÃO", "km_ini": 182.8, "km_fim": 190.5, "extensao": 7.7, "superficie_federal": "IMP", "versao_snv": "202607A" }, "geometry": { "type": "MultiLineString", "coordinates": [ [ [ -59.73728572, 3.80136158 ], [ -59.68419799, 3.84659323 ] ] ] } },
{ "type": "Feature", "properties": { "codigo_br": "401", "uf": "RR", "sigla_tipo_trecho": "B", "local_inicio": "RIO ITACUTÚ (CONCEIÇÃO DO MÁU)", "local_fim": "ENTR BR-401/433/ESTRADA DO LAGO DO CARACARANÃ", "km_ini": 150.5, "km_fim": 182.8, "extensao": 32.3, "superficie_federal": "IMP", "versao_snv": "202607A" }, "geometry": { "type": "MultiLineString", "coordinates": [ [ [ -59.88986589, 3.56795729 ], [ -59.88065156, 3.57251725 ], [ -59.87840771, 3.57402971 ], [ -59.859717, 3.59865459 ], [ -59.85856563, 3.60054764 ], [ -59.85766506, 3.60375186 ], [ -59.8514402, 3.64505097 ], [ -59.85004463, 3.64714682 ], [ -59.84496945, 3.65159234 ], [ -59.843413, 3.65431751 ], [ -59.81278833, 3.73197228 ], [ -59.80857885, 3.74185161 ], [ -59.80516036, 3.74571712 ], [ -59.76180025, 3.78258155 ], [ -59.73728572, 3.80136158 ] ] ] } },
{ "type": "Feature", "properties": { "codigo_br": "401", "uf": "RR", "sigla_tipo_trecho": "B", "local_inicio": "ESTRADA NORMANDIA (ACESSO BONFIM)", "local_fim": "RIO ITACUTÚ (CONCEIÇÃO DO MÁU)", "km_ini": 120.0, "km_fim": 150.5, "extensao": 30.5, "superficie_federal": "IMP", "versao_snv": "202607A" }, "geometry": { "type": "MultiLineString", "coordinates": [ [ [ -59.94694937, 3.31057093 ], [ -59.92969909, 3.524922 ], [ -59.92853095, 3.52850577 ], [ -59.92656249, 3.53171621 ], [ -59.89989116, 3.56193948 ], [ -59.89650025, 3.56463802 ], [ -59.88986589, 3.56795729 ] ] ] } },
{ "type": "Feature", "properties": { "codigo_br": "401", "uf": "RR", "sigla_tipo_trecho": "B", "local_inicio": "IGARAPÉ GARRAFA", "local_fim": "ESTRADA NORMANDIA (ACESSO BONFIM)", "km_ini": 77.1, "km_fim": 120.0, "extensao": 42.9, "superficie_federal": "PAV", "versao_snv": "202607A" }, "geometry": { "type": "MultiLineString", "coordinates": [ [ [ -60.2759249, 3.13797498 ], [ -60.26585332, 3.14716828 ], [ -60.26303312, 3.14925038 ], [ -60.1975871, 3.1860564 ], [ -60.17694896, 3.19857263 ], [ -60.17064939, 3.20284276 ], [ -60.16080843, 3.2083561 ], [ -60.15152751, 3.21405361 ], [ -60.1483079, 3.21724162 ], [ -60.12076722, 3.25276976 ], [ -60.11761636, 3.25534561 ], [ -60.11423881, 3.25643772 ], [ -59.98674152, 3.27429976 ], [ -59.98406486, 3.27489769 ], [ -59.98084204, 3.27634869 ], [ -59.97796198, 3.27857202 ], [ -59.94694937, 3.31057093 ] ] ] } },
{ "type": "Feature", "properties": { "codigo_br": "401", "uf": "RR", "sigla_tipo_trecho": "B", "local_inicio": "IGARAPÉ JUARI", "local_fim": "IGARAPÉ GARRAFA", "km_ini": 48.9, "km_fim": 77.1, "extensao": 28.2, "superficie_federal": "PAV", "versao_snv": "202607A" }, "geometry": { "type": "MultiLineString", "coordinates": [ [ [ -60.45426203, 2.96726977 ], [ -60.34900487, 3.07744731 ], [ -60.3468619, 3.08081971 ], [ -60.33524167, 3.10722571 ], [ -60.33338572, 3.10966472 ], [ -60.331419, 3.11117372 ], [ -60.32924065, 3.11215022 ], [ -60.29726709, 3.12091909 ], [ -60.29421293, 3.12205602 ], [ -60.29100787, 3.12418093 ], [ -60.2759249, 3.13797498 ] ] ] } },
{ "type": "Feature", "properties": { "codigo_br": "431", "uf": "RR", "sigla_tipo_trecho": "B", "local_inicio": "RIO JAUAPERI", "local_fim": "SANTA MARIA DO BOIAÇÚ", "km_ini": 45.6, "km_fim": 125.0, "extensao": 79.4, "superficie_federal": "PLA", "versao_snv": "202607A" }, "geometry": { "type": "MultiLineString", "coordinates": [ [ [ -61.06251257, -0.23049951 ], [ -61.32750042, -0.405335 ], [ -61.4498422, -0.43795947 ], [ -61.7722188, -0.51728565 ] ] ] } },
{ "type": "Feature", "properties": { "codigo_br": "431", "uf": "RR", "sigla_tipo_trecho": "B", "local_inicio": "ENTR BR-174/431 (VILA JUNDIÁ)", "local_fim": "RIO JAUAPERI", "km_ini": 0.0, "km_fim": 45.6, "extensao": 45.6, "superficie_federal": "IMP", "versao_snv": "202607A" }, "geometry": { "type": "MultiLineString", "coordinates": [ [ [ -60.6930105, -0.20716749 ], [ -60.76650332, -0.17319018 ], [ -60.85213277, -0.17207132 ], [ -61.02692094, -0.23911129 ], [ -61.05012039, -0.22623448 ], [ -61.06251257, -0.23049951 ] ] ] } },
{ "type": "Feature", "properties": { "codigo_br": "432", "uf": "RR", "sigla_tipo_trecho": "B", "local_inicio": "INÍCIO PONTE S/ RIO QUITAUAU", "local_fim": "ENTR RR-461", "km_ini": 181.1, "km_fim": 183.1, "extensao": 2.0, "superficie_federal": "PAV", "versao_snv": "202607A" }, "geometry": { "type": "MultiLineString", "coordinates": [ [ [ -60.63548546, 2.56781846 ], [ -60.63527412, 2.56903784 ], [ -60.63552428, 2.57113669 ], [ -60.63455679, 2.57255011 ], [ -60.63450765, 2.57349267 ], [ -60.64048866, 2.58343378 ] ] ] } },
{ "type": "Feature", "properties": { "codigo_br": "432", "uf": "RR", "sigla_tipo_trecho": "B", "local_inicio": "ENTR RR-461", "local_fim": "R.RENATO COSTA DE ALMEIDA (CANTÁ)", "km_ini": 183.1, "km_fim": 189.3, "extensao": 6.2, "superficie_federal": "PAV", "versao_snv": "202607A" }, "geometry": { "type": "MultiLineString", "coordinates": [ [ [ -60.64048866, 2.58343378 ], [ -60.63389331, 2.58654245 ], [ -60.63132035, 2.58818457 ], [ -60.62891399, 2.58892106 ], [ -60.62549516, 2.59108996 ], [ -60.62383308, 2.59257227 ], [ -60.62199053, 2.59527922 ], [ -60.61906267, 2.59786818 ], [ -60.61456611, 2.60068179 ], [ -60.61226711, 2.60309642 ], [ -60.61152364, 2.6032008 ], [ -60.60969085, 2.6022292 ], [ -60.60606818, 2.60119293 ], [ -60.60470561, 2.60134042 ], [ -60.60264957, 2.60221122 ], [ -60.5978695, 2.60554814 ], [ -60.59726818, 2.60685959 ], [ -60.59716626, 2.60988862 ] ] ] } },
{ "type": "Feature", "properties": { "codigo_br": "432", "uf": "RR", "sigla_tipo_trecho": "B", "local_inicio": "ENTR RR-461", "local_fim": "INÍCIO PONTE S/ RIO QUITAUAU", "km_ini": 169.2, "km_fim": 181.1, "extensao": 11.9, "superficie_federal": "PAV", "versao_snv": "202607A" }, "geometry": { "type": "MultiLineString", "coordinates": [ [ [ -60.64062532, 2.46273277 ], [ -60.63881214, 2.47088743 ], [ -60.63837305, 2.47172069 ], [ -60.63533177, 2.47351052 ], [ -60.63487002, 2.47453177 ], [ -60.63530514, 2.48568188 ], [ -60.6386706, 2.53729363 ], [ -60.63517807, 2.55359729 ], [ -60.63451816, 2.55855046 ], [ -60.63453385, 2.56026409 ], [ -60.63562374, 2.5662277 ], [ -60.63548546, 2.56781846 ] ] ] } },
{ "type": "Feature", "properties": { "codigo_br": "432", "uf": "RR", "sigla_tipo_trecho": "B", "local_inicio": "VILA FELIX PINTO", "local_fim": "VILA SANTA RITA", "km_ini": 116.8, "km_fim": 137.8, "extensao": 21.0, "superficie_federal": "PAV", "versao_snv": "202607A" }, "geometry": { "type": "MultiLineString", "coordinates": [ [ [ -60.61535861, 2.11191254 ], [ -60.66300483, 2.14074973 ], [ -60.66633309, 2.14075109 ], [ -60.66853315, 2.1412758 ], [ -60.66919136, 2.14168103 ], [ -60.67288331, 2.14633756 ], [ -60.70947752, 2.1680103 ], [ -60.71053464, 2.16918779 ], [ -60.71139942, 2.17151605 ], [ -60.71129964, 2.17397735 ], [ -60.70983337, 2.1767338 ], [ -60.69965833, 2.19270323 ], [ -60.67464614, 2.23391347 ] ] ] } },
{ "type": "Feature", "properties": { "codigo_br": "432", "uf": "RR", "sigla_tipo_trecho": "B", "local_inicio": "VILA UNIÃO", "local_fim": "VILA FELIX PINTO", "km_ini": 110.5, "km_fim": 116.8, "extensao": 6.3, "superficie_federal": "PAV", "versao_snv": "202607A" }, "geometry": { "type": "MultiLineString", "coordinates": [ [ [ -60.64546681, 2.06336446 ], [ -60.64369688, 2.06646153 ], [ -60.63792125, 2.07483997 ], [ -60.61535861, 2.11191254 ] ] ] } },
{ "type": "Feature", "properties": { "codigo_br": "432", "uf": "RR", "sigla_tipo_trecho": "B", "local_inicio": "INÍCIO PONTE S/RIO BARAUNA", "local_fim": "VILA UNIÃO", "km_ini": 65.8, "km_fim": 110.5, "extensao": 44.7, "superficie_federal": "PAV", "versao_snv": "202607A" }, "geometry": { "type": "MultiLineString", "coordinates": [ [ [ -60.48351794, 1.72910778 ], [ -60.48308077, 1.73078664 ], [ -60.48369946, 1.73205052 ], [ -60.48853621, 1.73427759 ], [ -60.51958895, 1.75918236 ], [ -60.52153243, 1.76107827 ], [ -60.53925196, 1.79181687 ], [ -60.54012508, 1.79393036 ], [ -60.54256732, 1.79763475 ], [ -60.59258836, 1.88495591 ], [ -60.59371986, 1.88798163 ], [ -60.59552009, 1.89005616 ], [ -60.60122363, 1.899852 ], [ -60.60379715, 1.90217015 ], [ -60.60477413, 1.90366074 ], [ -60.60594313, 1.90815423 ], [ -60.61267516, 1.91901986 ], [ -60.61393352, 1.9236042 ], [ -60.61463863, 1.9243623 ], [ -60.61629563, 1.92517669 ], [ -60.61703725, 1.92602427 ], [ -60.67219719, 2.01448373 ], [ -60.67242397, 2.01548799 ], [ -60.67217851, 2.01659434 ], [ -60.66600696, 2.02745424 ], [ -60.66316141, 2.03337903 ], [ -60.66218288, 2.03459677 ], [ -60.65550728, 2.04860371 ], [ -60.64546681, 2.06336446 ] ] ] } },
{ "type": "Feature", "properties": { "codigo_br": "432", "uf": "RR", "sigla_tipo_trecho": "B", "local_inicio": "INÍCIO PONTE S/RIO ITÃ", "local_fim": "INÍCIO PONTE S/RIO BARAUNA", "km_ini": 41.1, "km_fim": 65.8, "extensao": 24.7, "superficie_federal": "PAV", "versao_snv": "202607A" }, "geometry": { "type": "MultiLineString", "coordinates": [ [ [ -60.34353678, 1.57783933 ], [ -60.36185536, 1.61328465 ], [ -60.36269036, 1.61556351 ], [ -60.36435184, 1.61802141 ], [ -60.36719878, 1.62361256 ], [ -60.37064465, 1.63164503 ], [ -60.37160207, 1.64099022 ], [ -60.37668846, 1.64555007 ], [ -60.3906791, 1.67802844 ], [ -60.39265882, 1.68019457 ], [ -60.39301703, 1.68338763 ], [ -60.39506784, 1.68765207 ], [ -60.39929108, 1.69073489 ], [ -60.47079508, 1.72023853 ], [ -60.47818783, 1.72593314 ], [ -60.4831339, 1.72702649 ], [ -60.48372981, 1.72800262 ], [ -60.48351794, 1.72910778 ] ] ] } },
{ "type": "Feature", "properties": { "codigo_br": "432", "uf": "RR", "sigla_tipo_trecho": "B", "local_inicio": "VILA ITÃ", "local_fim": "INÍCIO PONTE S/RIO ITÃ", "km_ini": 29.8, "km_fim": 41.1, "extensao": 11.3, "superficie_federal": "PAV", "versao_snv": "202607A" }, "geometry": { "type": "MultiLineString", "coordinates": [ [ [ -60.33039781, 1.4783576 ], [ -60.33035465, 1.48556833 ], [ -60.33381396, 1.55886341 ], [ -60.34353678, 1.57783933 ] ] ] } },
{ "type": "Feature", "properties": { "codigo_br": "432", "uf": "RR", "sigla_tipo_trecho": "B", "local_inicio": "VILA SANTA RITA", "local_fim": "INÍCIO PONTE S/RIO CACHORRO (CANTÁ)", "km_ini": 137.8, "km_fim": 163.4, "extensao": 25.6, "superficie_federal": "PAV", "versao_snv": "202607A" }, "geometry": { "type": "MultiLineString", "coordinates": [ [ [ -60.67464614, 2.23391347 ], [ -60.68189701, 2.23827065 ], [ -60.68412549, 2.240865 ], [ -60.68588832, 2.24176304 ], [ -60.68927401, 2.24283376 ], [ -60.72054646, 2.26262272 ], [ -60.71683647, 2.26829524 ], [ -60.71447068, 2.27084921 ], [ -60.71156929, 2.2770077 ], [ -60.70597888, 2.28578595 ], [ -60.70387499, 2.29260649 ], [ -60.70170079, 2.29528675 ], [ -60.69903928, 2.29665783 ], [ -60.68788243, 2.31491205 ], [ -60.69136186, 2.33901643 ], [ -60.68987184, 2.35080216 ], [ -60.68822494, 2.35885279 ], [ -60.68468323, 2.36941932 ], [ -60.68376918, 2.37919164 ], [ -60.68422621, 2.39060389 ], [ -60.67418504, 2.40404588 ], [ -60.67361845, 2.41198295 ], [ -60.67415816, 2.41524306 ], [ -60.67379186, 2.41658725 ], [ -60.67304583, 2.41750467 ], [ -60.66762871, 2.42164816 ] ] ] } },
{ "type": "Feature", "properties": { "codigo_br": "432", "uf": "RR", "sigla_tipo_trecho": "B", "local_inicio": "ENTR BR-174/210/432 (VILA NOVO PARAÍSO)", "local_fim": "VILA ITÃ", "km_ini": 0.0, "km_fim": 29.8, "extensao": 29.8, "superficie_federal": "PAV", "versao_snv": "202607A" }, "geometry": { "type": "MultiLineString", "coordinates": [ [ [ -60.38500004, 1.22351365 ], [ -60.34381586, 1.29945957 ], [ -60.34336419, 1.30066751 ], [ -60.34323518, 1.30461084 ], [ -60.3374172, 1.3143396 ], [ -60.33662717, 1.32157434 ], [ -60.33689673, 1.32499671 ], [ -60.33554113, 1.35579951 ], [ -60.33627861, 1.35936546 ], [ -60.33532653, 1.36189061 ], [ -60.33478826, 1.37459936 ], [ -60.33442542, 1.37675207 ], [ -60.33461227, 1.38055133 ], [ -60.33389727, 1.39615726 ], [ -60.33324785, 1.40175672 ], [ -60.33355399, 1.40387548 ], [ -60.33103087, 1.46302588 ], [ -60.33070783, 1.46419968 ], [ -60.32715436, 1.47035849 ], [ -60.33025773, 1.47686371 ], [ -60.33039781, 1.4783576 ] ] ] } },
{ "type": "Feature", "properties": { "codigo_br": "432", "uf": "RR", "sigla_tipo_trecho": "B", "local_inicio": "INÍCIO PONTE S/RIO CACHORRO (CANTÁ)", "local_fim": "ENTR RR-461", "km_ini": 163.4, "km_fim": 169.2, "extensao": 5.8, "superficie_federal": "PAV", "versao_snv": "202607A" }, "geometry": { "type": "MultiLineString", "coordinates": [ [ [ -60.66762871, 2.42164816 ], [ -60.64531211, 2.44047631 ], [ -60.64062532, 2.46273277 ] ] ] } },
{ "type": "Feature", "properties": { "codigo_br": "432", "uf": "RR", "sigla_tipo_trecho": "B", "local_inicio": "R.RENATO COSTA DE ALMEIDA (CANTÁ)", "local_fim": "ENTR RR-207", "km_ini": 189.3, "km_fim": 209.9, "extensao": 20.6, "superficie_federal": "PAV", "versao_snv": "202607A" }, "geometry": { "type": "MultiLineString", "coordinates": [ [ [ -60.59716626, 2.60988862 ], [ -60.59519804, 2.6117745 ], [ -60.59554185, 2.61803991 ], [ -60.59376002, 2.6222027 ], [ -60.59398713, 2.62608406 ], [ -60.59319135, 2.63121812 ], [ -60.59184906, 2.63551495 ], [ -60.59195952, 2.64277155 ], [ -60.59053996, 2.65005024 ], [ -60.5906121, 2.65419536 ], [ -60.59110575, 2.6576008 ], [ -60.59081786, 2.66295188 ], [ -60.59498673, 2.67217391 ], [ -60.59536549, 2.67728839 ], [ -60.59591148, 2.67888585 ], [ -60.6015522, 2.68516675 ], [ -60.60797887, 2.6970159 ], [ -60.61015797, 2.72717967 ], [ -60.60834135, 2.7370835 ], [ -60.60938659, 2.78922986 ] ] ] } },
{ "type": "Feature", "properties": { "codigo_br": "432", "uf": "RR", "sigla_tipo_trecho": "B", "local_inicio": "ENTR RR-207", "local_fim": "ENTR BR-401/432 (VILA SANTA CECÍLIA)", "km_ini": 209.9, "km_fim": 212.4, "extensao": 2.5, "superficie_federal": "PAV", "versao_snv": "202607A" }, "geometry": { "type": "MultiLineString", "coordinates": [ [ [ -60.60938659, 2.78922986 ], [ -60.60990995, 2.81181324 ] ] ] } },
{ "type": "Feature", "properties": { "codigo_br": "433", "uf": "RR", "sigla_tipo_trecho": "B", "local_inicio": "ENTR RR-171 (PLACAS)", "local_fim": "RIO CONTIGO (CONTÃO)", "km_ini": 120.6, "km_fim": 122.2, "extensao": 1.6, "superficie_federal": "IMP", "versao_snv": "202607A" }, "geometry": { "type": "MultiLineString", "coordinates": [ [ [ -60.52710421, 4.17825392 ], [ -60.52886092, 4.17828506 ], [ -60.53469357, 4.17633263 ], [ -60.53976143, 4.17235649 ] ] ] } },
{ "type": "Feature", "properties": { "codigo_br": "433", "uf": "RR", "sigla_tipo_trecho": "B", "local_inicio": "ENTR RR-319", "local_fim": "ENTR VIC-04 ARROZAL", "km_ini": 64.9, "km_fim": 89.3, "extensao": 24.4, "superficie_federal": "IMP", "versao_snv": "202607A" }, "geometry": { "type": "MultiLineString", "coordinates": [ [ [ -60.2526951, 3.87426466 ], [ -60.25505302, 3.87552685 ], [ -60.27162506, 3.89004141 ], [ -60.28570777, 3.90441845 ], [ -60.30981464, 3.91152844 ], [ -60.32790648, 3.91933811 ], [ -60.34470596, 3.92130288 ], [ -60.34604919, 3.92173427 ], [ -60.35055999, 3.92569248 ], [ -60.35196262, 3.92777694 ], [ -60.35567809, 3.93130782 ], [ -60.35776856, 3.93751904 ], [ -60.35855539, 3.93931078 ], [ -60.35911155, 3.93984678 ], [ -60.38115679, 3.94066563 ], [ -60.39775278, 3.93659549 ], [ -60.3989983, 3.9365711 ], [ -60.40654321, 3.9413996 ], [ -60.40951591, 3.94411192 ], [ -60.41410323, 3.94761431 ], [ -60.41850599, 3.94810579 ], [ -60.43706986, 3.95696543 ], [ -60.44065869, 3.95779641 ], [ -60.44185032, 3.95862927 ] ] ] } },
{ "type": "Feature", "properties": { "codigo_br": "433", "uf": "RR", "sigla_tipo_trecho": "B", "local_inicio": "COMUNIDADE RAPOSA", "local_fim": "ENTR RR-319", "km_ini": 44.4, "km_fim": 64.9, "extensao": 20.5, "superficie_federal": "IMP", "versao_snv": "202607A" }, "geometry": { "type": "MultiLineString", "coordinates": [ [ [ -60.0902574, 3.81495612 ], [ -60.09395341, 3.8133762 ], [ -60.09849298, 3.81000239 ], [ -60.10163914, 3.80972236 ], [ -60.10260556, 3.80988575 ], [ -60.10331667, 3.81038573 ], [ -60.1067864, 3.81503019 ], [ -60.10760291, 3.81559308 ], [ -60.11621631, 3.81322963 ], [ -60.12133727, 3.8147027 ], [ -60.14507001, 3.82384029 ], [ -60.15864936, 3.83291291 ], [ -60.1721284, 3.83387162 ], [ -60.18347555, 3.85019943 ], [ -60.18451326, 3.85126545 ], [ -60.21245423, 3.85919776 ], [ -60.22700786, 3.86278858 ], [ -60.23011616, 3.86330069 ], [ -60.2526951, 3.87426466 ] ] ] } },
{ "type": "Feature", "properties": { "codigo_br": "433", "uf": "RR", "sigla_tipo_trecho": "B", "local_inicio": "ENTR BR-401/433/ESTRADA DO LAGO DO CARACARANÃ", "local_fim": "COMUNIDADE RAPOSA", "km_ini": 0.0, "km_fim": 44.4, "extensao": 44.4, "superficie_federal": "IMP", "versao_snv": "202607A" }, "geometry": { "type": "MultiLineString", "coordinates": [ [ [ -59.73728572, 3.80136158 ], [ -59.73933129, 3.8047649 ], [ -59.74515584, 3.81117906 ], [ -59.77275049, 3.82828371 ], [ -59.77854007, 3.83406239 ], [ -59.78945796, 3.84221743 ], [ -59.79079823, 3.84268233 ], [ -59.79582579, 3.84297378 ], [ -59.8126511, 3.84793422 ], [ -59.8193678, 3.85287063 ], [ -59.82102069, 3.85371508 ], [ -59.83566104, 3.85678135 ], [ -59.83878385, 3.85822619 ], [ -59.84770654, 3.86111852 ], [ -59.852853, 3.86338822 ], [ -59.85422498, 3.86452542 ], [ -59.86543336, 3.87885598 ], [ -59.86718785, 3.87999908 ], [ -59.86882016, 3.88031378 ], [ -59.88017, 3.8801545 ], [ -59.88464799, 3.87920481 ], [ -59.9075954, 3.86961395 ], [ -59.91378944, 3.86671925 ], [ -59.9237574, 3.85883525 ], [ -59.93053463, 3.85507472 ], [ -59.93293748, 3.85188985 ], [ -59.93455443, 3.84869974 ], [ -59.95738274, 3.83766177 ], [ -59.95916418, 3.83629074 ], [ -59.96221537, 3.83599188 ], [ -59.96529234, 3.83647593 ], [ -59.96890716, 3.83799301 ], [ -59.97610728, 3.8399697 ], [ -59.98245151, 3.83811044 ], [ -59.99161637, 3.83676903 ], [ -59.99923902, 3.83266255 ], [ -60.02153081, 3.82817892 ], [ -60.02685291, 3.82640937 ], [ -60.03741663, 3.82677413 ], [ -60.0492058, 3.83133882 ], [ -60.07974374, 3.81693214 ], [ -60.0902574, 3.81495612 ] ] ] } },
{ "type": "Feature", "properties": { "codigo_br": "433", "uf": "RR", "sigla_tipo_trecho": "B", "local_inicio": "RIO SURUMU (VILA SURUMU)", "local_fim": "ENTR BR-174/433 (COMUNIDADE INDÍGENA ENTROCAMENTO)", "km_ini": 152.2, "km_fim": 178.8, "extensao": 26.6, "superficie_federal": "IMP", "versao_snv": "202607A" }, "geometry": { "type": "MultiLineString", "coordinates": [ [ [ -60.79134882, 4.19363706 ], [ -60.79439641, 4.19321628 ], [ -60.80157823, 4.1940415 ], [ -60.82065876, 4.20112972 ], [ -60.82418362, 4.20373032 ], [ -60.82748343, 4.20533484 ], [ -60.83254542, 4.20708034 ], [ -60.83536002, 4.2069027 ], [ -60.83902503, 4.20864803 ], [ -60.84347207, 4.21135932 ], [ -60.85380308, 4.2158547 ], [ -60.8577238, 4.21681836 ], [ -60.86187634, 4.21853262 ], [ -60.86531192, 4.21955711 ], [ -60.88575198, 4.21723549 ], [ -60.88736823, 4.21777943 ], [ -60.89296688, 4.22161227 ], [ -60.89755041, 4.22181371 ], [ -60.90640639, 4.22426264 ], [ -60.90779866, 4.22427916 ], [ -60.91056947, 4.22343074 ], [ -60.91923389, 4.22372133 ], [ -60.91979135, 4.22417998 ], [ -60.92211343, 4.2289856 ], [ -60.92387516, 4.23037914 ], [ -60.93310379, 4.23511547 ], [ -60.94329513, 4.23741668 ], [ -60.94992543, 4.23710209 ], [ -60.952675, 4.23738763 ], [ -60.95602911, 4.2369975 ], [ -60.95902214, 4.23728453 ], [ -60.97445354, 4.23652586 ], [ -60.97562978, 4.23618295 ], [ -60.98296054, 4.23240421 ], [ -60.98884342, 4.23029691 ], [ -60.99742945, 4.22818713 ], [ -60.99926933, 4.22837749 ], [ -61.00871249, 4.23159381 ], [ -61.01554472, 4.23050079 ] ] ] } },
{ "type": "Feature", "properties": { "codigo_br": "433", "uf": "RR", "sigla_tipo_trecho": "B", "local_inicio": "RIO CONTIGO (CONTÃO)", "local_fim": "RIO SURUMU (VILA SURUMU)", "km_ini": 122.2, "km_fim": 152.2, "extensao": 30.0, "superficie_federal": "IMP", "versao_snv": "202607A" }, "geometry": { "type": "MultiLineString", "coordinates": [ [ [ -60.53976143, 4.17235649 ], [ -60.55159137, 4.16291302 ], [ -60.55320759, 4.16229748 ], [ -60.55492464, 4.16264895 ], [ -60.57829163, 4.17443504 ], [ -60.62846257, 4.1663811 ], [ -60.64341256, 4.17608368 ], [ -60.64456128, 4.17645406 ], [ -60.65049356, 4.17703192 ], [ -60.65248095, 4.1783932 ], [ -60.65724779, 4.17673418 ], [ -60.66081506, 4.17463157 ], [ -60.66224802, 4.17420509 ], [ -60.68578871, 4.17680869 ], [ -60.71213953, 4.1745519 ], [ -60.71297803, 4.17443331 ], [ -60.71354157, 4.17383075 ], [ -60.71406684, 4.17378355 ], [ -60.71966505, 4.1777135 ], [ -60.74658776, 4.19074643 ], [ -60.75119752, 4.19184082 ], [ -60.75490234, 4.19447312 ], [ -60.75914946, 4.19458339 ], [ -60.76537964, 4.19704011 ], [ -60.76894905, 4.19636393 ], [ -60.77279151, 4.19482908 ], [ -60.77805215, 4.19617356 ], [ -60.79134882, 4.19363706 ] ] ] } },
{ "type": "Feature", "properties": { "codigo_br": "433", "uf": "RR", "sigla_tipo_trecho": "B", "local_inicio": "ENTR VIC-04 ARROZAL", "local_fim": "ENTR RR-171 (PLACAS)", "km_ini": 89.3, "km_fim": 120.6, "extensao": 31.3, "superficie_federal": "IMP", "versao_snv": "202607A" }, "geometry": { "type": "MultiLineString", "coordinates": [ [ [ -60.44185032, 3.95862927 ], [ -60.44406592, 3.96189698 ], [ -60.45023969, 3.96682561 ], [ -60.45113172, 3.96794738 ], [ -60.45628075, 3.980567 ], [ -60.45712727, 3.98746216 ], [ -60.45522175, 3.99084193 ], [ -60.45184193, 3.99318375 ], [ -60.44832211, 3.99472365 ], [ -60.44830138, 3.99732739 ], [ -60.44687491, 4.00296518 ], [ -60.44140788, 4.01177266 ], [ -60.43609933, 4.01950491 ], [ -60.43168384, 4.05255614 ], [ -60.43000727, 4.05897787 ], [ -60.42955893, 4.06876944 ], [ -60.42974672, 4.07021753 ], [ -60.43757919, 4.08502964 ], [ -60.43900814, 4.08547331 ], [ -60.44104943, 4.08426284 ], [ -60.44205701, 4.08432354 ], [ -60.44371958, 4.08711252 ], [ -60.45162011, 4.09295076 ], [ -60.46172532, 4.11760903 ], [ -60.46885174, 4.13076752 ], [ -60.46993553, 4.13170747 ], [ -60.47599844, 4.13430884 ], [ -60.47686024, 4.13497846 ], [ -60.49245541, 4.15402442 ], [ -60.49641393, 4.16423043 ], [ -60.50387869, 4.17295496 ], [ -60.50547892, 4.17454028 ], [ -60.50647432, 4.17502509 ], [ -60.51467991, 4.17628913 ], [ -60.52236753, 4.17799934 ], [ -60.52710421, 4.17825392 ] ] ] } }
]
}
